{
"type": "FeatureCollection",
"name": "stops_scored",
"crs": { "type": "name", "properties": { "name": "urn:ogc:def:crs:OGC:1.3:CRS84" } },
"features": [
{ "type": "Feature", "properties": { "stop_id": "402127", "stop_sequence": 7, "stop_name": "W 23 ST/7 AV", "stop_lat": 40.743952, "stop_lon": -73.995493, "avg_headway_minutes": 6.88, "scheduled_departures_in_window": 52, "route_id": "M23+", "route_short_name": "M23-SBS", "direction_id": 0, "trip_headsign": "SELECT BUS EAST SIDE AVENUE C CROSSTOWN", "service_date": "2026-04-24", "wait_source": "MTA GTFS window 12:00:00-18:00:00", "has_shelter": false, "shelter_distance_ft": 85.6, "shelter_source": "NYC DOT Bus Stop Shelters", "has_nearby_seating": false, "seating_distance_ft": 134.7, "bench_source": "NYC DOT Seating Locations", "nearby_tree_count": 2, "nearby_tree_dbh_sum": 4.0, "tree_source": "NYC Street Tree Census", "weather_point_lat": 40.74225, "weather_point_lon": -73.991815, "weather_metric_used": "apparentTemperature", "weather_metric_display": "Feels-like temperature", "max_weather_value_f": 63.0, "heat_burden_score": 0.0, "weather_source": "https://api.weather.gov/gridpoints/OKX/34,43", "weather_source_label": "NWS / weather.gov", "weather_point_url": "https://api.weather.gov/points/40.74225,-73.991815", "weather_updated_at": "2026-04-24T11:02:02+00:00", "weather_refreshed_at": "2026-04-24T15:32:04.219193-04:00", "weather_horizon_hours": 8, "weather_summary": "Feels-like temperature forecast used for the next 8 hours", "resolved_image_path": null, "image_provider": null, "image_source_url": null, "image_attribution_url": null, "image_author": null, "image_license": null, "image_capture_date": null, "image_distance_m": null, "image_fetch_status": "no nearby public image found", "image_available": false, "image_path": null, "visible_tree_ratio": null, "open_sky_ratio": null, "shelter_image_estimate": null, "shelter_image_confidence": null, "bench_image_estimate": null, "bench_image_confidence": null, "vision_method": null, "vision_error": "image unavailable", "route_rank": 7, "corridor_name": "New York City M23-SBS direction 0", "corridor_id": "m23_sbs__dir_0", "shelter_present_effective": false, "bench_present_effective": false, "combined_tree_cover_score": 0.33333333333333331, "no_shelter_value": 1.0, "no_bench_value": 1.0, "low_tree_cover_value": 0.66666666666666674, "heat_burden_value": 0.0, "wait_burden_value": 0.094, "priority_score": 63.08, "normalized_priority_score": 100.0, "score_breakdown_json": { "no_shelter": { "label": "no shelter", "value": 1.0, "weight": 0.35, "score": 35.0 }, "low_tree_cover": { "label": "low tree cover", "value": 0.667, "weight": 0.25, "score": 16.67 }, "heat_burden": { "label": "high heat burden", "value": 0.0, "weight": 0.15, "score": 0.0 }, "wait_burden": { "label": "long scheduled wait exposure", "value": 0.094, "weight": 0.15, "score": 1.41 }, "no_bench": { "label": "nearby seating gap", "value": 1.0, "weight": 0.1, "score": 10.0 } }, "top_contributors": "no shelter, low tree cover, nearby seating gap", "recommended_intervention": "Install a modular shade canopy, add seating, increase tree cover near the curb.", "recommended_action_summary": "Shade canopy | Add seating | Increase tree cover", "planner_note": "This stop is a critical priority because it combines no shelter, low tree cover, and nearby seating gap. The most practical near-term intervention is to install a modular shade canopy, add seating, increase tree cover near the curb.", "planner_note_reason": "This stop is a critical priority because it combines no shelter, low tree cover, and nearby seating gap.", "planner_note_recommendation": "The most practical near-term intervention is to install a modular shade canopy, add seating, increase tree cover near the curb.", "planner_note_urgency": "Critical", "planner_note_source": "Deterministic fallback" }, "geometry": { "type": "Point", "coordinates": [ -73.995493, 40.743952 ] } },
{ "type": "Feature", "properties": { "stop_id": "402126", "stop_sequence": 6, "stop_name": "W 23 ST/8 AV", "stop_lat": 40.745059, "stop_lon": -73.998141, "avg_headway_minutes": 6.86, "scheduled_departures_in_window": 52, "route_id": "M23+", "route_short_name": "M23-SBS", "direction_id": 0, "trip_headsign": "SELECT BUS EAST SIDE AVENUE C CROSSTOWN", "service_date": "2026-04-24", "wait_source": "MTA GTFS window 12:00:00-18:00:00", "has_shelter": false, "shelter_distance_ft": 267.3, "shelter_source": "NYC DOT Bus Stop Shelters", "has_nearby_seating": false, "seating_distance_ft": 79.0, "bench_source": "NYC DOT Seating Locations", "nearby_tree_count": 4, "nearby_tree_dbh_sum": 17.0, "tree_source": "NYC Street Tree Census", "weather_point_lat": 40.74225, "weather_point_lon": -73.991815, "weather_metric_used": "apparentTemperature", "weather_metric_display": "Feels-like temperature", "max_weather_value_f": 63.0, "heat_burden_score": 0.0, "weather_source": "https://api.weather.gov/gridpoints/OKX/34,43", "weather_source_label": "NWS / weather.gov", "weather_point_url": "https://api.weather.gov/points/40.74225,-73.991815", "weather_updated_at": "2026-04-24T11:02:02+00:00", "weather_refreshed_at": "2026-04-24T15:32:04.219193-04:00", "weather_horizon_hours": 8, "weather_summary": "Feels-like temperature forecast used for the next 8 hours", "resolved_image_path": "/home/rithwik_amajala/code4city/data/raw/stop_images/mapillary_402126.jpg", "image_provider": "Mapillary", "image_source_url": "https://scontent-lga3-1.xx.fbcdn.net/m1/v/t6/An-y0ju3gJ4kCI4BAA66zKrvVe1QXMVWvoGlOPyYKtjWdyHZSTOE3ezx5eYWWdKRgpR71M3-voY0IveOSMBBP_aJiKEznrWXFTZ9DqteVvLG0NEQcJ5fzCEAxqwz_zh0Qn-NSENrEiTcXPVgLIrekg4?stp=s1024x768&edm=ALXxkZ8EAAAA&_nc_gid=aB3ymkmE7YsPA3tatR49Sw&_nc_oc=AdrppKZ9pQaqUDidYseF0u5dKF13FqPo5VyApzsSHCNSa2SWbXwzAMTGgX_f-hh2vcI&ccb=10-5&oh=00_Af1k1-DQwljl7lRaTWX5tQj3eayP7GivnRQBGq-R1Ft_8A&oe=6A133E0A&_nc_sid=201bca", "image_attribution_url": "https://www.mapillary.com/app/?pKey=1667205737596024", "image_author": "jlin4529", "image_license": "Mapillary Terms of Use", "image_capture_date": "2026-02-09", "image_distance_m": 21.4, "image_fetch_status": "downloaded public image", "image_available": true, "image_path": "/home/rithwik_amajala/code4city/data/raw/stop_images/mapillary_402126.jpg", "visible_tree_ratio": 0.026, "open_sky_ratio": 0.441, "shelter_image_estimate": "True", "shelter_image_confidence": 1.0, "bench_image_estimate": "True", "bench_image_confidence": 1.0, "vision_method": "OpenCV color-mask and edge-line heuristics", "vision_error": null, "route_rank": 6, "corridor_name": "New York City M23-SBS direction 0", "corridor_id": "m23_sbs__dir_0", "shelter_present_effective": false, "bench_present_effective": false, "combined_tree_cover_score": 0.34633333333333333, "no_shelter_value": 1.0, "no_bench_value": 1.0, "low_tree_cover_value": 0.65366666666666662, "heat_burden_value": 0.0, "wait_burden_value": 0.093, "priority_score": 62.74, "normalized_priority_score": 99.25, "score_breakdown_json": { "no_shelter": { "label": "no shelter", "value": 1.0, "weight": 0.35, "score": 35.0 }, "low_tree_cover": { "label": "low tree cover", "value": 0.654, "weight": 0.25, "score": 16.34 }, "heat_burden": { "label": "high heat burden", "value": 0.0, "weight": 0.15, "score": 0.0 }, "wait_burden": { "label": "long scheduled wait exposure", "value": 0.093, "weight": 0.15, "score": 1.4 }, "no_bench": { "label": "nearby seating gap", "value": 1.0, "weight": 0.1, "score": 10.0 } }, "top_contributors": "no shelter, low tree cover, nearby seating gap", "recommended_intervention": "Install a modular shade canopy, add seating, increase tree cover near the curb.", "recommended_action_summary": "Shade canopy | Add seating | Increase tree cover", "planner_note": "This stop is a critical priority because it combines no shelter, low tree cover, and nearby seating gap. The most practical near-term intervention is to install a modular shade canopy, add seating, increase tree cover near the curb.", "planner_note_reason": "This stop is a critical priority because it combines no shelter, low tree cover, and nearby seating gap.", "planner_note_recommendation": "The most practical near-term intervention is to install a modular shade canopy, add seating, increase tree cover near the curb.", "planner_note_urgency": "Critical", "planner_note_source": "Deterministic fallback" }, "geometry": { "type": "Point", "coordinates": [ -73.998141, 40.745059 ] } },
{ "type": "Feature", "properties": { "stop_id": "404834", "stop_sequence": 3, "stop_name": "W 23 ST/11 AV", "stop_lat": 40.748632, "stop_lon": -74.006633, "avg_headway_minutes": 6.86, "scheduled_departures_in_window": 52, "route_id": "M23+", "route_short_name": "M23-SBS", "direction_id": 0, "trip_headsign": "SELECT BUS EAST SIDE AVENUE C CROSSTOWN", "service_date": "2026-04-24", "wait_source": "MTA GTFS window 12:00:00-18:00:00", "has_shelter": false, "shelter_distance_ft": 814.8, "shelter_source": "NYC DOT Bus Stop Shelters", "has_nearby_seating": true, "seating_distance_ft": 63.4, "bench_source": "NYC DOT Seating Locations", "nearby_tree_count": 0, "nearby_tree_dbh_sum": 0.0, "tree_source": "NYC Street Tree Census", "weather_point_lat": 40.74225, "weather_point_lon": -73.991815, "weather_metric_used": "apparentTemperature", "weather_metric_display": "Feels-like temperature", "max_weather_value_f": 63.0, "heat_burden_score": 0.0, "weather_source": "https://api.weather.gov/gridpoints/OKX/34,43", "weather_source_label": "NWS / weather.gov", "weather_point_url": "https://api.weather.gov/points/40.74225,-73.991815", "weather_updated_at": "2026-04-24T11:02:02+00:00", "weather_refreshed_at": "2026-04-24T15:32:04.219193-04:00", "weather_horizon_hours": 8, "weather_summary": "Feels-like temperature forecast used for the next 8 hours", "resolved_image_path": null, "image_provider": null, "image_source_url": null, "image_attribution_url": null, "image_author": null, "image_license": null, "image_capture_date": null, "image_distance_m": null, "image_fetch_status": "no nearby public image found", "image_available": false, "image_path": null, "visible_tree_ratio": null, "open_sky_ratio": null, "shelter_image_estimate": null, "shelter_image_confidence": null, "bench_image_estimate": null, "bench_image_confidence": null, "vision_method": null, "vision_error": "image unavailable", "route_rank": 3, "corridor_name": "New York City M23-SBS direction 0", "corridor_id": "m23_sbs__dir_0", "shelter_present_effective": false, "bench_present_effective": true, "combined_tree_cover_score": 0.0, "no_shelter_value": 1.0, "no_bench_value": 0.0, "low_tree_cover_value": 1.0, "heat_burden_value": 0.0, "wait_burden_value": 0.093, "priority_score": 61.4, "normalized_priority_score": 96.28, "score_breakdown_json": { "no_shelter": { "label": "no shelter", "value": 1.0, "weight": 0.35, "score": 35.0 }, "low_tree_cover": { "label": "low tree cover", "value": 1.0, "weight": 0.25, "score": 25.0 }, "heat_burden": { "label": "high heat burden", "value": 0.0, "weight": 0.15, "score": 0.0 }, "wait_burden": { "label": "long scheduled wait exposure", "value": 0.093, "weight": 0.15, "score": 1.4 }, "no_bench": { "label": "nearby seating gap", "value": 0.0, "weight": 0.1, "score": 0.0 } }, "top_contributors": "no shelter, low tree cover, long scheduled wait exposure", "recommended_intervention": "Install a modular shade canopy, increase tree cover near the curb.", "recommended_action_summary": "Shade canopy | Increase tree cover", "planner_note": "This stop is a critical priority because it combines no shelter, low tree cover, and long scheduled wait exposure. The most practical near-term intervention is to install a modular shade canopy, increase tree cover near the curb.", "planner_note_reason": "This stop is a critical priority because it combines no shelter, low tree cover, and long scheduled wait exposure.", "planner_note_recommendation": "The most practical near-term intervention is to install a modular shade canopy, increase tree cover near the curb.", "planner_note_urgency": "Critical", "planner_note_source": "Deterministic fallback" }, "geometry": { "type": "Point", "coordinates": [ -74.006633, 40.748632 ] } },
{ "type": "Feature", "properties": { "stop_id": "405555", "stop_sequence": 10, "stop_name": "E 23 ST/PARK AV SOUTH", "stop_lat": 40.739743, "stop_lon": -73.985587, "avg_headway_minutes": 6.9, "scheduled_departures_in_window": 53, "route_id": "M23+", "route_short_name": "M23-SBS", "direction_id": 0, "trip_headsign": "SELECT BUS EAST SIDE AVENUE C CROSSTOWN", "service_date": "2026-04-24", "wait_source": "MTA GTFS window 12:00:00-18:00:00", "has_shelter": false, "shelter_distance_ft": 128.8, "shelter_source": "NYC DOT Bus Stop Shelters", "has_nearby_seating": false, "seating_distance_ft": 79.0, "bench_source": "NYC DOT Seating Locations", "nearby_tree_count": 3, "nearby_tree_dbh_sum": 20.0, "tree_source": "NYC Street Tree Census", "weather_point_lat": 40.74225, "weather_point_lon": -73.991815, "weather_metric_used": "apparentTemperature", "weather_metric_display": "Feels-like temperature", "max_weather_value_f": 63.0, "heat_burden_score": 0.0, "weather_source": "https://api.weather.gov/gridpoints/OKX/34,43", "weather_source_label": "NWS / weather.gov", "weather_point_url": "https://api.weather.gov/points/40.74225,-73.991815", "weather_updated_at": "2026-04-24T11:02:02+00:00", "weather_refreshed_at": "2026-04-24T15:32:04.219193-04:00", "weather_horizon_hours": 8, "weather_summary": "Feels-like temperature forecast used for the next 8 hours", "resolved_image_path": null, "image_provider": null, "image_source_url": null, "image_attribution_url": null, "image_author": null, "image_license": null, "image_capture_date": null, "image_distance_m": null, "image_fetch_status": "no nearby public image found", "image_available": false, "image_path": null, "visible_tree_ratio": null, "open_sky_ratio": null, "shelter_image_estimate": null, "shelter_image_confidence": null, "bench_image_estimate": null, "bench_image_confidence": null, "vision_method": null, "vision_error": "image unavailable", "route_rank": 10, "corridor_name": "New York City M23-SBS direction 0", "corridor_id": "m23_sbs__dir_0", "shelter_present_effective": false, "bench_present_effective": false, "combined_tree_cover_score": 0.5, "no_shelter_value": 1.0, "no_bench_value": 1.0, "low_tree_cover_value": 0.5, "heat_burden_value": 0.0, "wait_burden_value": 0.095, "priority_score": 58.93, "normalized_priority_score": 90.8, "score_breakdown_json": { "no_shelter": { "label": "no shelter", "value": 1.0, "weight": 0.35, "score": 35.0 }, "low_tree_cover": { "label": "low tree cover", "value": 0.5, "weight": 0.25, "score": 12.5 }, "heat_burden": { "label": "high heat burden", "value": 0.0, "weight": 0.15, "score": 0.0 }, "wait_burden": { "label": "long scheduled wait exposure", "value": 0.095, "weight": 0.15, "score": 1.43 }, "no_bench": { "label": "nearby seating gap", "value": 1.0, "weight": 0.1, "score": 10.0 } }, "top_contributors": "no shelter, low tree cover, nearby seating gap", "recommended_intervention": "Install a modular shade canopy, add seating.", "recommended_action_summary": "Shade canopy | Add seating", "planner_note": "This stop is a critical priority because it combines no shelter, low tree cover, and nearby seating gap. The most practical near-term intervention is to install a modular shade canopy, add seating.", "planner_note_reason": "This stop is a critical priority because it combines no shelter, low tree cover, and nearby seating gap.", "planner_note_recommendation": "The most practical near-term intervention is to install a modular shade canopy, add seating.", "planner_note_urgency": "Critical", "planner_note_source": "Deterministic fallback" }, "geometry": { "type": "Point", "coordinates": [ -73.985587, 40.739743 ] } },
{ "type": "Feature", "properties": { "stop_id": "405508", "stop_sequence": 13, "stop_name": "E 23 ST/1 AV", "stop_lat": 40.736071, "stop_lon": -73.97724, "avg_headway_minutes": 6.9, "scheduled_departures_in_window": 52, "route_id": "M23+", "route_short_name": "M23-SBS", "direction_id": 0, "trip_headsign": "SELECT BUS EAST SIDE AVENUE C CROSSTOWN", "service_date": "2026-04-24", "wait_source": "MTA GTFS window 12:00:00-18:00:00", "has_shelter": false, "shelter_distance_ft": 333.5, "shelter_source": "NYC DOT Bus Stop Shelters", "has_nearby_seating": false, "seating_distance_ft": 229.5, "bench_source": "NYC DOT Seating Locations", "nearby_tree_count": 7, "nearby_tree_dbh_sum": 59.0, "tree_source": "NYC Street Tree Census", "weather_point_lat": 40.74225, "weather_point_lon": -73.991815, "weather_metric_used": "apparentTemperature", "weather_metric_display": "Feels-like temperature", "max_weather_value_f": 63.0, "heat_burden_score": 0.0, "weather_source": "https://api.weather.gov/gridpoints/OKX/34,43", "weather_source_label": "NWS / weather.gov", "weather_point_url": "https://api.weather.gov/points/40.74225,-73.991815", "weather_updated_at": "2026-04-24T11:02:02+00:00", "weather_refreshed_at": "2026-04-24T15:32:04.219193-04:00", "weather_horizon_hours": 8, "weather_summary": "Feels-like temperature forecast used for the next 8 hours", "resolved_image_path": "/home/rithwik_amajala/code4city/data/raw/stop_images/mapillary_405508.jpg", "image_provider": "Mapillary", "image_source_url": "https://scontent-lga3-1.xx.fbcdn.net/m1/v/t6/An8hVVvjmnJDpiEB2kvnlAXGv8ynZrKFryT_J6tzwIDCJI7gNi2ejyEirm3OI2mm4N8k6fsHQ1h6P1REaV55UxptoFVTtN6nvJcrJtkFqW7YRWCn-I4CiZNOyd6str5WnGBxDZSTiOPyIYp6riuepyI?stp=s1024x512&edm=ALXxkZ8EAAAA&_nc_gid=OJfYAbVzDWLDi2MLT16G1A&_nc_oc=Ado9kCytw-xRM9fo3tOXJo4Z0gUW0vydRbrqQCKiEq5JuTYCodLunkvV1DawkjDF6kE&ccb=10-5&oh=00_Af16enjHPShLY9lcVwz_7x8HayiUwGANG4Z26ZXTG2CMEA&oe=6A1325EB&_nc_sid=201bca", "image_attribution_url": "https://www.mapillary.com/app/?pKey=1239656445034231", "image_author": "jlin4529", "image_license": "Mapillary Terms of Use", "image_capture_date": "2026-03-31", "image_distance_m": 28.7, "image_fetch_status": "downloaded public image", "image_available": true, "image_path": "/home/rithwik_amajala/code4city/data/raw/stop_images/mapillary_405508.jpg", "visible_tree_ratio": 0.004, "open_sky_ratio": 0.6, "shelter_image_estimate": "False", "shelter_image_confidence": 0.068, "bench_image_estimate": "False", "bench_image_confidence": 0.2, "vision_method": "OpenCV color-mask and edge-line heuristics", "vision_error": null, "route_rank": 13, "corridor_name": "New York City M23-SBS direction 0", "corridor_id": "m23_sbs__dir_0", "shelter_present_effective": false, "bench_present_effective": false, "combined_tree_cover_score": 0.502, "no_shelter_value": 1.0, "no_bench_value": 1.0, "low_tree_cover_value": 0.498, "heat_burden_value": 0.0, "wait_burden_value": 0.095, "priority_score": 58.88, "normalized_priority_score": 90.69, "score_breakdown_json": { "no_shelter": { "label": "no shelter", "value": 1.0, "weight": 0.35, "score": 35.0 }, "low_tree_cover": { "label": "low tree cover", "value": 0.498, "weight": 0.25, "score": 12.45 }, "heat_burden": { "label": "high heat burden", "value": 0.0, "weight": 0.15, "score": 0.0 }, "wait_burden": { "label": "long scheduled wait exposure", "value": 0.095, "weight": 0.15, "score": 1.43 }, "no_bench": { "label": "nearby seating gap", "value": 1.0, "weight": 0.1, "score": 10.0 } }, "top_contributors": "no shelter, low tree cover, nearby seating gap", "recommended_intervention": "Install a modular shade canopy, add seating.", "recommended_action_summary": "Shade canopy | Add seating", "planner_note": "This stop is a critical priority because it combines no shelter, low tree cover, and nearby seating gap. The most practical near-term intervention is to install a modular shade canopy, add seating.", "planner_note_reason": "This stop is a critical priority because it combines no shelter, low tree cover, and nearby seating gap.", "planner_note_recommendation": "The most practical near-term intervention is to install a modular shade canopy, add seating.", "planner_note_urgency": "Critical", "planner_note_source": "Deterministic fallback" }, "geometry": { "type": "Point", "coordinates": [ -73.97724, 40.736071 ] } },
{ "type": "Feature", "properties": { "stop_id": "404264", "stop_sequence": 14, "stop_name": "AVENUE C/E 23 ST", "stop_lat": 40.735175, "stop_lon": -73.975191, "avg_headway_minutes": 6.9, "scheduled_departures_in_window": 52, "route_id": "M23+", "route_short_name": "M23-SBS", "direction_id": 0, "trip_headsign": "SELECT BUS EAST SIDE AVENUE C CROSSTOWN", "service_date": "2026-04-24", "wait_source": "MTA GTFS window 12:00:00-18:00:00", "has_shelter": false, "shelter_distance_ft": 782.0, "shelter_source": "NYC DOT Bus Stop Shelters", "has_nearby_seating": false, "seating_distance_ft": 737.8, "bench_source": "NYC DOT Seating Locations", "nearby_tree_count": 10, "nearby_tree_dbh_sum": 95.0, "tree_source": "NYC Street Tree Census", "weather_point_lat": 40.74225, "weather_point_lon": -73.991815, "weather_metric_used": "apparentTemperature", "weather_metric_display": "Feels-like temperature", "max_weather_value_f": 63.0, "heat_burden_score": 0.0, "weather_source": "https://api.weather.gov/gridpoints/OKX/34,43", "weather_source_label": "NWS / weather.gov", "weather_point_url": "https://api.weather.gov/points/40.74225,-73.991815", "weather_updated_at": "2026-04-24T11:02:02+00:00", "weather_refreshed_at": "2026-04-24T15:32:04.219193-04:00", "weather_horizon_hours": 8, "weather_summary": "Feels-like temperature forecast used for the next 8 hours", "resolved_image_path": "/home/rithwik_amajala/code4city/data/raw/stop_images/mapillary_404264.jpg", "image_provider": "Mapillary", "image_source_url": "https://scontent-lga3-1.xx.fbcdn.net/m1/v/t6/An_s9So4UrsyJqnFd_9Y-YrLbR-zSIIWUhRy87AIU6H0i15gpDBaQ5H1RRbsM-w9Wa57Wjy6pX0w9wZm9Dvu8HZGTXrvC4zGI2vk3jVnuLkG46JZ6yrAGmTSIgE7o0LD-rTpzNARrHpp-HkZlavpeQ?stp=s1024x512&edm=ALXxkZ8EAAAA&_nc_gid=XNEc4x8pJLAoGWZJ53RPDQ&_nc_oc=AdrE_UAsE10ZMYKfkGpGWLr2RTecRvPFxQOALwAMXEqoI3kxpwnsHQoFw61TcKR9nP0&ccb=10-5&oh=00_Af3rmx9ORGFzpBzmRnFxAawKIkb823HO3m1PCtQrM_er9g&oe=6A1334E5&_nc_sid=201bca", "image_attribution_url": "https://www.mapillary.com/app/?pKey=1514892090057415", "image_author": "jlin4529", "image_license": "Mapillary Terms of Use", "image_capture_date": "2026-03-31", "image_distance_m": 34.2, "image_fetch_status": "downloaded public image", "image_available": true, "image_path": "/home/rithwik_amajala/code4city/data/raw/stop_images/mapillary_404264.jpg", "visible_tree_ratio": 0.068, "open_sky_ratio": 0.07, "shelter_image_estimate": "False", "shelter_image_confidence": 0.375, "bench_image_estimate": "False", "bench_image_confidence": 0.2, "vision_method": "OpenCV color-mask and edge-line heuristics", "vision_error": null, "route_rank": 14, "corridor_name": "New York City M23-SBS direction 0", "corridor_id": "m23_sbs__dir_0", "shelter_present_effective": false, "bench_present_effective": false, "combined_tree_cover_score": 0.534, "no_shelter_value": 1.0, "no_bench_value": 1.0, "low_tree_cover_value": 0.466, "heat_burden_value": 0.0, "wait_burden_value": 0.095, "priority_score": 58.08, "normalized_priority_score": 88.92, "score_breakdown_json": { "no_shelter": { "label": "no shelter", "value": 1.0, "weight": 0.35, "score": 35.0 }, "low_tree_cover": { "label": "low tree cover", "value": 0.466, "weight": 0.25, "score": 11.65 }, "heat_burden": { "label": "high heat burden", "value": 0.0, "weight": 0.15, "score": 0.0 }, "wait_burden": { "label": "long scheduled wait exposure", "value": 0.095, "weight": 0.15, "score": 1.43 }, "no_bench": { "label": "nearby seating gap", "value": 1.0, "weight": 0.1, "score": 10.0 } }, "top_contributors": "no shelter, low tree cover, nearby seating gap", "recommended_intervention": "Install a modular shade canopy, add seating.", "recommended_action_summary": "Shade canopy | Add seating", "planner_note": "This stop is a critical priority because it combines no shelter, low tree cover, and nearby seating gap. The most practical near-term intervention is to install a modular shade canopy, add seating.", "planner_note_reason": "This stop is a critical priority because it combines no shelter, low tree cover, and nearby seating gap.", "planner_note_recommendation": "The most practical near-term intervention is to install a modular shade canopy, add seating.", "planner_note_urgency": "Critical", "planner_note_source": "Deterministic fallback" }, "geometry": { "type": "Point", "coordinates": [ -73.975191, 40.735175 ] } },
{ "type": "Feature", "properties": { "stop_id": "404137", "stop_sequence": 1, "stop_name": "12 AV/W 23 ST", "stop_lat": 40.748728, "stop_lon": -74.007954, "avg_headway_minutes": 6.87, "scheduled_departures_in_window": 53, "route_id": "M23+", "route_short_name": "M23-SBS", "direction_id": 0, "trip_headsign": "SELECT BUS EAST SIDE AVENUE C CROSSTOWN", "service_date": "2026-04-24", "wait_source": "MTA GTFS window 12:00:00-18:00:00", "has_shelter": false, "shelter_distance_ft": 1166.1, "shelter_source": "NYC DOT Bus Stop Shelters", "has_nearby_seating": false, "seating_distance_ft": 387.9, "bench_source": "NYC DOT Seating Locations", "nearby_tree_count": 8, "nearby_tree_dbh_sum": 32.0, "tree_source": "NYC Street Tree Census", "weather_point_lat": 40.74225, "weather_point_lon": -73.991815, "weather_metric_used": "apparentTemperature", "weather_metric_display": "Feels-like temperature", "max_weather_value_f": 63.0, "heat_burden_score": 0.0, "weather_source": "https://api.weather.gov/gridpoints/OKX/34,43", "weather_source_label": "NWS / weather.gov", "weather_point_url": "https://api.weather.gov/points/40.74225,-73.991815", "weather_updated_at": "2026-04-24T11:02:02+00:00", "weather_refreshed_at": "2026-04-24T15:32:04.219193-04:00", "weather_horizon_hours": 8, "weather_summary": "Feels-like temperature forecast used for the next 8 hours", "resolved_image_path": "/home/rithwik_amajala/code4city/data/raw/stop_images/mapillary_404137.jpg", "image_provider": "Mapillary", "image_source_url": "https://scontent-lga3-1.xx.fbcdn.net/m1/v/t6/An8Bu9Z16l5wRhKa27453pmZb3OHDVeDu0Pz7mJ8Kyl3rBeJ0YHeMj_iqs7nxhL_tZN9ZZQ_FAPQL6fLMJRo51Nk6sQleIB2MUZjCXqDLobl5IfjjYFbg9tHEf_1unmN5t0xTesHgGUuW4gdu62u_YA?stp=s1024x512&edm=ALXxkZ8EAAAA&_nc_gid=QstGDYYt8rKMSe82m7TN2Q&_nc_oc=AdojzmrnmyTSXcv0AnNws9o_W4t5Nv8JpMpXfA0GKKplCALKsRWyQUVMIUt9dd0DktE&ccb=10-5&oh=00_Af3qmVjf85BhlJLIZJ9VBiN6lNdTe06tQlr2KrZU-3PfDQ&oe=6A13283C&_nc_sid=201bca", "image_attribution_url": "https://www.mapillary.com/app/?pKey=820961149846325", "image_author": "hdevine825", "image_license": "Mapillary Terms of Use", "image_capture_date": "2024-08-11", "image_distance_m": 34.7, "image_fetch_status": "downloaded public image", "image_available": true, "image_path": "/home/rithwik_amajala/code4city/data/raw/stop_images/mapillary_404137.jpg", "visible_tree_ratio": 0.31, "open_sky_ratio": 0.175, "shelter_image_estimate": "True", "shelter_image_confidence": 1.0, "bench_image_estimate": "False", "bench_image_confidence": 0.0, "vision_method": "OpenCV color-mask and edge-line heuristics", "vision_error": null, "route_rank": 1, "corridor_name": "New York City M23-SBS direction 0", "corridor_id": "m23_sbs__dir_0", "shelter_present_effective": false, "bench_present_effective": false, "combined_tree_cover_score": 0.655, "no_shelter_value": 1.0, "no_bench_value": 1.0, "low_tree_cover_value": 0.345, "heat_burden_value": 0.0, "wait_burden_value": 0.0935, "priority_score": 55.02, "normalized_priority_score": 82.14, "score_breakdown_json": { "no_shelter": { "label": "no shelter", "value": 1.0, "weight": 0.35, "score": 35.0 }, "low_tree_cover": { "label": "low tree cover", "value": 0.345, "weight": 0.25, "score": 8.62 }, "heat_burden": { "label": "high heat burden", "value": 0.0, "weight": 0.15, "score": 0.0 }, "wait_burden": { "label": "long scheduled wait exposure", "value": 0.093, "weight": 0.15, "score": 1.4 }, "no_bench": { "label": "nearby seating gap", "value": 1.0, "weight": 0.1, "score": 10.0 } }, "top_contributors": "no shelter, nearby seating gap, low tree cover", "recommended_intervention": "Install a modular shade canopy, add seating.", "recommended_action_summary": "Shade canopy | Add seating", "planner_note": "This stop is a high priority because it combines no shelter, nearby seating gap, and low tree cover. The most practical near-term intervention is to install a modular shade canopy, add seating.", "planner_note_reason": "This stop is a high priority because it combines no shelter, nearby seating gap, and low tree cover.", "planner_note_recommendation": "The most practical near-term intervention is to install a modular shade canopy, add seating.", "planner_note_urgency": "High", "planner_note_source": "Deterministic fallback" }, "geometry": { "type": "Point", "coordinates": [ -74.007954, 40.748728 ] } },
{ "type": "Feature", "properties": { "stop_id": "402134", "stop_sequence": 11, "stop_name": "E 23 ST/3 AV", "stop_lat": 40.738589, "stop_lon": -73.982755, "avg_headway_minutes": 6.9, "scheduled_departures_in_window": 52, "route_id": "M23+", "route_short_name": "M23-SBS", "direction_id": 0, "trip_headsign": "SELECT BUS EAST SIDE AVENUE C CROSSTOWN", "service_date": "2026-04-24", "wait_source": "MTA GTFS window 12:00:00-18:00:00", "has_shelter": false, "shelter_distance_ft": 207.7, "shelter_source": "NYC DOT Bus Stop Shelters", "has_nearby_seating": true, "seating_distance_ft": 31.2, "bench_source": "NYC DOT Seating Locations", "nearby_tree_count": 2, "nearby_tree_dbh_sum": 8.0, "tree_source": "NYC Street Tree Census", "weather_point_lat": 40.74225, "weather_point_lon": -73.991815, "weather_metric_used": "apparentTemperature", "weather_metric_display": "Feels-like temperature", "max_weather_value_f": 63.0, "heat_burden_score": 0.0, "weather_source": "https://api.weather.gov/gridpoints/OKX/34,43", "weather_source_label": "NWS / weather.gov", "weather_point_url": "https://api.weather.gov/points/40.74225,-73.991815", "weather_updated_at": "2026-04-24T11:02:02+00:00", "weather_refreshed_at": "2026-04-24T15:32:04.219193-04:00", "weather_horizon_hours": 8, "weather_summary": "Feels-like temperature forecast used for the next 8 hours", "resolved_image_path": null, "image_provider": null, "image_source_url": null, "image_attribution_url": null, "image_author": null, "image_license": null, "image_capture_date": null, "image_distance_m": null, "image_fetch_status": "no nearby public image found", "image_available": false, "image_path": null, "visible_tree_ratio": null, "open_sky_ratio": null, "shelter_image_estimate": null, "shelter_image_confidence": null, "bench_image_estimate": null, "bench_image_confidence": null, "vision_method": null, "vision_error": "image unavailable", "route_rank": 11, "corridor_name": "New York City M23-SBS direction 0", "corridor_id": "m23_sbs__dir_0", "shelter_present_effective": false, "bench_present_effective": true, "combined_tree_cover_score": 0.33333333333333331, "no_shelter_value": 1.0, "no_bench_value": 0.0, "low_tree_cover_value": 0.66666666666666674, "heat_burden_value": 0.0, "wait_burden_value": 0.095, "priority_score": 53.1, "normalized_priority_score": 77.89, "score_breakdown_json": { "no_shelter": { "label": "no shelter", "value": 1.0, "weight": 0.35, "score": 35.0 }, "low_tree_cover": { "label": "low tree cover", "value": 0.667, "weight": 0.25, "score": 16.67 }, "heat_burden": { "label": "high heat burden", "value": 0.0, "weight": 0.15, "score": 0.0 }, "wait_burden": { "label": "long scheduled wait exposure", "value": 0.095, "weight": 0.15, "score": 1.43 }, "no_bench": { "label": "nearby seating gap", "value": 0.0, "weight": 0.1, "score": 0.0 } }, "top_contributors": "no shelter, low tree cover, long scheduled wait exposure", "recommended_intervention": "Install a modular shade canopy, increase tree cover near the curb.", "recommended_action_summary": "Shade canopy | Increase tree cover", "planner_note": "This stop is a high priority because it combines no shelter, low tree cover, and long scheduled wait exposure. The most practical near-term intervention is to install a modular shade canopy, increase tree cover near the curb.", "planner_note_reason": "This stop is a high priority because it combines no shelter, low tree cover, and long scheduled wait exposure.", "planner_note_recommendation": "The most practical near-term intervention is to install a modular shade canopy, increase tree cover near the curb.", "planner_note_urgency": "High", "planner_note_source": "Deterministic fallback" }, "geometry": { "type": "Point", "coordinates": [ -73.982755, 40.738589 ] } },
{ "type": "Feature", "properties": { "stop_id": "402124", "stop_sequence": 4, "stop_name": "W 23 ST/10 AV", "stop_lat": 40.747425, "stop_lon": -74.003764, "avg_headway_minutes": 6.86, "scheduled_departures_in_window": 52, "route_id": "M23+", "route_short_name": "M23-SBS", "direction_id": 0, "trip_headsign": "SELECT BUS EAST SIDE AVENUE C CROSSTOWN", "service_date": "2026-04-24", "wait_source": "MTA GTFS window 12:00:00-18:00:00", "has_shelter": false, "shelter_distance_ft": 158.7, "shelter_source": "NYC DOT Bus Stop Shelters", "has_nearby_seating": true, "seating_distance_ft": 44.8, "bench_source": "NYC DOT Seating Locations", "nearby_tree_count": 8, "nearby_tree_dbh_sum": 63.0, "tree_source": "NYC Street Tree Census", "weather_point_lat": 40.74225, "weather_point_lon": -73.991815, "weather_metric_used": "apparentTemperature", "weather_metric_display": "Feels-like temperature", "max_weather_value_f": 63.0, "heat_burden_score": 0.0, "weather_source": "https://api.weather.gov/gridpoints/OKX/34,43", "weather_source_label": "NWS / weather.gov", "weather_point_url": "https://api.weather.gov/points/40.74225,-73.991815", "weather_updated_at": "2026-04-24T11:02:02+00:00", "weather_refreshed_at": "2026-04-24T15:32:04.219193-04:00", "weather_horizon_hours": 8, "weather_summary": "Feels-like temperature forecast used for the next 8 hours", "resolved_image_path": "/home/rithwik_amajala/code4city/data/raw/stop_images/mapillary_402124.jpg", "image_provider": "Mapillary", "image_source_url": "https://scontent-lga3-1.xx.fbcdn.net/m1/v/t6/An-JfXtsO3oY4uUasBnhS44PAvh3vf6G5-5xf1v3Og-2s9_wbIAh7JwXKmKg-IwTXBySzkFt93BQozY1qAyFU7AQaC6SgOppOo2qZx1ajy9SwGUV_PMbgTBzwmOpUQ9If5dtXwogik0RkuJPeoORWgk?stp=s1024x768&edm=ALXxkZ8EAAAA&_nc_gid=L-CAsR3RB03nUK5NrKySLw&_nc_oc=AdpbyOavPAWw2iHpeBetpjE39fxxm5C4lu5KdkzudS9Q1c3omm1Nt1_6MixbRVm0faY&ccb=10-5&oh=00_Af3rrk47LZzrETMe15yn_cjjTwawge5CBk9cdWCofmrLyA&oe=6A132EE6&_nc_sid=201bca", "image_attribution_url": "https://www.mapillary.com/app/?pKey=2433015563824155", "image_author": "jlin4529", "image_license": "Mapillary Terms of Use", "image_capture_date": "2026-02-09", "image_distance_m": 19.9, "image_fetch_status": "downloaded public image", "image_available": true, "image_path": "/home/rithwik_amajala/code4city/data/raw/stop_images/mapillary_402124.jpg", "visible_tree_ratio": 0.003, "open_sky_ratio": 0.245, "shelter_image_estimate": "True", "shelter_image_confidence": 1.0, "bench_image_estimate": "True", "bench_image_confidence": 1.0, "vision_method": "OpenCV color-mask and edge-line heuristics", "vision_error": null, "route_rank": 4, "corridor_name": "New York City M23-SBS direction 0", "corridor_id": "m23_sbs__dir_0", "shelter_present_effective": false, "bench_present_effective": true, "combined_tree_cover_score": 0.5015, "no_shelter_value": 1.0, "no_bench_value": 0.0, "low_tree_cover_value": 0.4985, "heat_burden_value": 0.0, "wait_burden_value": 0.093, "priority_score": 48.86, "normalized_priority_score": 68.49, "score_breakdown_json": { "no_shelter": { "label": "no shelter", "value": 1.0, "weight": 0.35, "score": 35.0 }, "low_tree_cover": { "label": "low tree cover", "value": 0.499, "weight": 0.25, "score": 12.46 }, "heat_burden": { "label": "high heat burden", "value": 0.0, "weight": 0.15, "score": 0.0 }, "wait_burden": { "label": "long scheduled wait exposure", "value": 0.093, "weight": 0.15, "score": 1.4 }, "no_bench": { "label": "nearby seating gap", "value": 0.0, "weight": 0.1, "score": 0.0 } }, "top_contributors": "no shelter, low tree cover, long scheduled wait exposure", "recommended_intervention": "Install a modular shade canopy.", "recommended_action_summary": "Shade canopy", "planner_note": "This stop is a high priority because it combines no shelter, low tree cover, and long scheduled wait exposure. The most practical near-term intervention is to install a modular shade canopy.", "planner_note_reason": "This stop is a high priority because it combines no shelter, low tree cover, and long scheduled wait exposure.", "planner_note_recommendation": "The most practical near-term intervention is to install a modular shade canopy.", "planner_note_urgency": "High", "planner_note_source": "Deterministic fallback" }, "geometry": { "type": "Point", "coordinates": [ -74.003764, 40.747425 ] } },
{ "type": "Feature", "properties": { "stop_id": "404927", "stop_sequence": 2, "stop_name": "W 24 ST/12 AV", "stop_lat": 40.749969, "stop_lon": -74.007803, "avg_headway_minutes": 6.87, "scheduled_departures_in_window": 53, "route_id": "M23+", "route_short_name": "M23-SBS", "direction_id": 0, "trip_headsign": "SELECT BUS EAST SIDE AVENUE C CROSSTOWN", "service_date": "2026-04-24", "wait_source": "MTA GTFS window 12:00:00-18:00:00", "has_shelter": false, "shelter_distance_ft": 1333.5, "shelter_source": "NYC DOT Bus Stop Shelters", "has_nearby_seating": false, "seating_distance_ft": 549.4, "bench_source": "NYC DOT Seating Locations", "nearby_tree_count": 11, "nearby_tree_dbh_sum": 84.0, "tree_source": "NYC Street Tree Census", "weather_point_lat": 40.74225, "weather_point_lon": -73.991815, "weather_metric_used": "apparentTemperature", "weather_metric_display": "Feels-like temperature", "max_weather_value_f": 63.0, "heat_burden_score": 0.0, "weather_source": "https://api.weather.gov/gridpoints/OKX/34,43", "weather_source_label": "NWS / weather.gov", "weather_point_url": "https://api.weather.gov/points/40.74225,-73.991815", "weather_updated_at": "2026-04-24T11:02:02+00:00", "weather_refreshed_at": "2026-04-24T15:32:04.219193-04:00", "weather_horizon_hours": 8, "weather_summary": "Feels-like temperature forecast used for the next 8 hours", "resolved_image_path": null, "image_provider": null, "image_source_url": null, "image_attribution_url": null, "image_author": null, "image_license": null, "image_capture_date": null, "image_distance_m": null, "image_fetch_status": "no nearby public image found", "image_available": false, "image_path": null, "visible_tree_ratio": null, "open_sky_ratio": null, "shelter_image_estimate": null, "shelter_image_confidence": null, "bench_image_estimate": null, "bench_image_confidence": null, "vision_method": null, "vision_error": "image unavailable", "route_rank": 2, "corridor_name": "New York City M23-SBS direction 0", "corridor_id": "m23_sbs__dir_0", "shelter_present_effective": false, "bench_present_effective": false, "combined_tree_cover_score": 1.0, "no_shelter_value": 1.0, "no_bench_value": 1.0, "low_tree_cover_value": 0.0, "heat_burden_value": 0.0, "wait_burden_value": 0.0935, "priority_score": 46.4, "normalized_priority_score": 63.04, "score_breakdown_json": { "no_shelter": { "label": "no shelter", "value": 1.0, "weight": 0.35, "score": 35.0 }, "low_tree_cover": { "label": "low tree cover", "value": 0.0, "weight": 0.25, "score": 0.0 }, "heat_burden": { "label": "high heat burden", "value": 0.0, "weight": 0.15, "score": 0.0 }, "wait_burden": { "label": "long scheduled wait exposure", "value": 0.093, "weight": 0.15, "score": 1.4 }, "no_bench": { "label": "nearby seating gap", "value": 1.0, "weight": 0.1, "score": 10.0 } }, "top_contributors": "no shelter, nearby seating gap, long scheduled wait exposure", "recommended_intervention": "Install a modular shade canopy, add seating.", "recommended_action_summary": "Shade canopy | Add seating", "planner_note": "This stop is a medium priority because it combines no shelter, nearby seating gap, and long scheduled wait exposure. The most practical near-term intervention is to install a modular shade canopy, add seating.", "planner_note_reason": "This stop is a medium priority because it combines no shelter, nearby seating gap, and long scheduled wait exposure.", "planner_note_recommendation": "The most practical near-term intervention is to install a modular shade canopy, add seating.", "planner_note_urgency": "Medium", "planner_note_source": "Deterministic fallback" }, "geometry": { "type": "Point", "coordinates": [ -74.007803, 40.749969 ] } },
{ "type": "Feature", "properties": { "stop_id": "402128", "stop_sequence": 8, "stop_name": "W 23 ST/6 AV", "stop_lat": 40.74236, "stop_lon": -73.991763, "avg_headway_minutes": 6.88, "scheduled_departures_in_window": 52, "route_id": "M23+", "route_short_name": "M23-SBS", "direction_id": 0, "trip_headsign": "SELECT BUS EAST SIDE AVENUE C CROSSTOWN", "service_date": "2026-04-24", "wait_source": "MTA GTFS window 12:00:00-18:00:00", "has_shelter": false, "shelter_distance_ft": 643.0, "shelter_source": "NYC DOT Bus Stop Shelters", "has_nearby_seating": true, "seating_distance_ft": 54.2, "bench_source": "NYC DOT Seating Locations", "nearby_tree_count": 7, "nearby_tree_dbh_sum": 30.0, "tree_source": "NYC Street Tree Census", "weather_point_lat": 40.74225, "weather_point_lon": -73.991815, "weather_metric_used": "apparentTemperature", "weather_metric_display": "Feels-like temperature", "max_weather_value_f": 63.0, "heat_burden_score": 0.0, "weather_source": "https://api.weather.gov/gridpoints/OKX/34,43", "weather_source_label": "NWS / weather.gov", "weather_point_url": "https://api.weather.gov/points/40.74225,-73.991815", "weather_updated_at": "2026-04-24T11:02:02+00:00", "weather_refreshed_at": "2026-04-24T15:32:04.219193-04:00", "weather_horizon_hours": 8, "weather_summary": "Feels-like temperature forecast used for the next 8 hours", "resolved_image_path": null, "image_provider": null, "image_source_url": null, "image_attribution_url": null, "image_author": null, "image_license": null, "image_capture_date": null, "image_distance_m": null, "image_fetch_status": "no nearby public image found", "image_available": false, "image_path": null, "visible_tree_ratio": null, "open_sky_ratio": null, "shelter_image_estimate": null, "shelter_image_confidence": null, "bench_image_estimate": null, "bench_image_confidence": null, "vision_method": null, "vision_error": "image unavailable", "route_rank": 8, "corridor_name": "New York City M23-SBS direction 0", "corridor_id": "m23_sbs__dir_0", "shelter_present_effective": false, "bench_present_effective": true, "combined_tree_cover_score": 1.0, "no_shelter_value": 1.0, "no_bench_value": 0.0, "low_tree_cover_value": 0.0, "heat_burden_value": 0.0, "wait_burden_value": 0.094, "priority_score": 36.41, "normalized_priority_score": 40.9, "score_breakdown_json": { "no_shelter": { "label": "no shelter", "value": 1.0, "weight": 0.35, "score": 35.0 }, "low_tree_cover": { "label": "low tree cover", "value": 0.0, "weight": 0.25, "score": 0.0 }, "heat_burden": { "label": "high heat burden", "value": 0.0, "weight": 0.15, "score": 0.0 }, "wait_burden": { "label": "long scheduled wait exposure", "value": 0.094, "weight": 0.15, "score": 1.41 }, "no_bench": { "label": "nearby seating gap", "value": 0.0, "weight": 0.1, "score": 0.0 } }, "top_contributors": "no shelter, long scheduled wait exposure", "recommended_intervention": "Install a modular shade canopy.", "recommended_action_summary": "Shade canopy", "planner_note": "This stop is a medium priority because it combines no shelter and long scheduled wait exposure. The most practical near-term intervention is to install a modular shade canopy.", "planner_note_reason": "This stop is a medium priority because it combines no shelter and long scheduled wait exposure.", "planner_note_recommendation": "The most practical near-term intervention is to install a modular shade canopy.", "planner_note_urgency": "Medium", "planner_note_source": "Deterministic fallback" }, "geometry": { "type": "Point", "coordinates": [ -73.991763, 40.74236 ] } },
{ "type": "Feature", "properties": { "stop_id": "402130", "stop_sequence": 9, "stop_name": "E 23 ST/BROADWAY", "stop_lat": 40.741142, "stop_lon": -73.98879, "avg_headway_minutes": 6.88, "scheduled_departures_in_window": 52, "route_id": "M23+", "route_short_name": "M23-SBS", "direction_id": 0, "trip_headsign": "SELECT BUS EAST SIDE AVENUE C CROSSTOWN", "service_date": "2026-04-24", "wait_source": "MTA GTFS window 12:00:00-18:00:00", "has_shelter": true, "shelter_distance_ft": 37.1, "shelter_source": "NYC DOT Bus Stop Shelters", "has_nearby_seating": false, "seating_distance_ft": 160.6, "bench_source": "NYC DOT Seating Locations", "nearby_tree_count": 2, "nearby_tree_dbh_sum": 16.0, "tree_source": "NYC Street Tree Census", "weather_point_lat": 40.74225, "weather_point_lon": -73.991815, "weather_metric_used": "apparentTemperature", "weather_metric_display": "Feels-like temperature", "max_weather_value_f": 63.0, "heat_burden_score": 0.0, "weather_source": "https://api.weather.gov/gridpoints/OKX/34,43", "weather_source_label": "NWS / weather.gov", "weather_point_url": "https://api.weather.gov/points/40.74225,-73.991815", "weather_updated_at": "2026-04-24T11:02:02+00:00", "weather_refreshed_at": "2026-04-24T15:32:04.219193-04:00", "weather_horizon_hours": 8, "weather_summary": "Feels-like temperature forecast used for the next 8 hours", "resolved_image_path": "/home/rithwik_amajala/code4city/data/raw/stop_images/mapillary_402130.jpg", "image_provider": "Mapillary", "image_source_url": "https://scontent-lga3-1.xx.fbcdn.net/m1/v/t6/An9gthfeZpZq1exjSBwNdqxER4Zz37BE4ppfH0Ugv0s7JLLhoPn-l4SOY-zSnwVIusppwFB2M0gGXEwxhu-gTgD8T1mU5l7GS7lgZYwXddCaGYAfzwHXJBxsfnb6IaYfqCXpRP1GZhyjL1Sz1XtR6n4?stp=s1024x768&edm=ALXxkZ8EAAAA&_nc_gid=N88OE9dC0ZDZN1nBte_NHA&_nc_oc=AdoEEuqETMp5mq7CxeKySlQe24YAksgkc5SDpKntr6o07rn0igOvHizexAIgacPFeO0&ccb=10-5&oh=00_Af3pn7G47LeYg-jfijbHQLp5uLZl_ed41Iaf-T-qdXUFCw&oe=6A1324DE&_nc_sid=201bca", "image_attribution_url": "https://www.mapillary.com/app/?pKey=1430128182108440", "image_author": "jlin4529", "image_license": "Mapillary Terms of Use", "image_capture_date": "2026-02-09", "image_distance_m": 29.6, "image_fetch_status": "downloaded public image", "image_available": true, "image_path": "/home/rithwik_amajala/code4city/data/raw/stop_images/mapillary_402130.jpg", "visible_tree_ratio": 0.005, "open_sky_ratio": 0.4, "shelter_image_estimate": "True", "shelter_image_confidence": 1.0, "bench_image_estimate": "True", "bench_image_confidence": 0.5, "vision_method": "OpenCV color-mask and edge-line heuristics", "vision_error": null, "route_rank": 9, "corridor_name": "New York City M23-SBS direction 0", "corridor_id": "m23_sbs__dir_0", "shelter_present_effective": true, "bench_present_effective": false, "combined_tree_cover_score": 0.16916666666666666, "no_shelter_value": 0.0, "no_bench_value": 1.0, "low_tree_cover_value": 0.83083333333333331, "heat_burden_value": 0.0, "wait_burden_value": 0.094, "priority_score": 32.18, "normalized_priority_score": 31.53, "score_breakdown_json": { "no_shelter": { "label": "no shelter", "value": 0.0, "weight": 0.35, "score": 0.0 }, "low_tree_cover": { "label": "low tree cover", "value": 0.831, "weight": 0.25, "score": 20.77 }, "heat_burden": { "label": "high heat burden", "value": 0.0, "weight": 0.15, "score": 0.0 }, "wait_burden": { "label": "long scheduled wait exposure", "value": 0.094, "weight": 0.15, "score": 1.41 }, "no_bench": { "label": "nearby seating gap", "value": 1.0, "weight": 0.1, "score": 10.0 } }, "top_contributors": "low tree cover, nearby seating gap, long scheduled wait exposure", "recommended_intervention": "Add seating, increase tree cover near the curb.", "recommended_action_summary": "Add seating | Increase tree cover", "planner_note": "This stop is a low priority because it combines low tree cover, nearby seating gap, and long scheduled wait exposure. The most practical near-term intervention is to add seating, increase tree cover near the curb.", "planner_note_reason": "This stop is a low priority because it combines low tree cover, nearby seating gap, and long scheduled wait exposure.", "planner_note_recommendation": "The most practical near-term intervention is to add seating, increase tree cover near the curb.", "planner_note_urgency": "Low", "planner_note_source": "Deterministic fallback" }, "geometry": { "type": "Point", "coordinates": [ -73.98879, 40.741142 ] } },
{ "type": "Feature", "properties": { "stop_id": "401832", "stop_sequence": 12, "stop_name": "E 23 ST/2 AV", "stop_lat": 40.737663, "stop_lon": -73.980554, "avg_headway_minutes": 6.9, "scheduled_departures_in_window": 52, "route_id": "M23+", "route_short_name": "M23-SBS", "direction_id": 0, "trip_headsign": "SELECT BUS EAST SIDE AVENUE C CROSSTOWN", "service_date": "2026-04-24", "wait_source": "MTA GTFS window 12:00:00-18:00:00", "has_shelter": true, "shelter_distance_ft": 16.1, "shelter_source": "NYC DOT Bus Stop Shelters", "has_nearby_seating": false, "seating_distance_ft": 553.0, "bench_source": "NYC DOT Seating Locations", "nearby_tree_count": 3, "nearby_tree_dbh_sum": 36.0, "tree_source": "NYC Street Tree Census", "weather_point_lat": 40.74225, "weather_point_lon": -73.991815, "weather_metric_used": "apparentTemperature", "weather_metric_display": "Feels-like temperature", "max_weather_value_f": 63.0, "heat_burden_score": 0.0, "weather_source": "https://api.weather.gov/gridpoints/OKX/34,43", "weather_source_label": "NWS / weather.gov", "weather_point_url": "https://api.weather.gov/points/40.74225,-73.991815", "weather_updated_at": "2026-04-24T11:02:02+00:00", "weather_refreshed_at": "2026-04-24T15:32:04.219193-04:00", "weather_horizon_hours": 8, "weather_summary": "Feels-like temperature forecast used for the next 8 hours", "resolved_image_path": "/home/rithwik_amajala/code4city/data/raw/stop_images/mapillary_401832.jpg", "image_provider": "Mapillary", "image_source_url": "https://scontent-lga3-1.xx.fbcdn.net/m1/v/t6/An934d8Lsuh-XdiptNGjQDq5pUbJtzVTgOt-3D106BCK5X8r0NGuPTnb_NFue77hQDj033ZcUmhi-5Ny5acNiN7XXsuS1ot8qVw2HgQmvwMqDFPb0T77lzw98AkCl4xKIA4eIkDnxSiWU_m6Y_C4XSw?stp=s1024x768&edm=ALXxkZ8EAAAA&_nc_gid=66BrShFGJoWN0cEwId2z8Q&_nc_oc=AdoLJrETsdOa94QIF53Hi6NLGQMrhgdl7j7LGPgzr7ATDPMSd54m9zMKq6wUpRoTjHY&ccb=10-5&oh=00_Af2TfSJXOJXm7nZnnOClzb0wq_adf6p_i2rfnJvVRAkoYA&oe=6A132434&_nc_sid=201bca", "image_attribution_url": "https://www.mapillary.com/app/?pKey=1779961066042809", "image_author": "jlin4529", "image_license": "Mapillary Terms of Use", "image_capture_date": "2025-09-30", "image_distance_m": 33.8, "image_fetch_status": "downloaded public image", "image_available": true, "image_path": "/home/rithwik_amajala/code4city/data/raw/stop_images/mapillary_401832.jpg", "visible_tree_ratio": 0.049, "open_sky_ratio": 0.341, "shelter_image_estimate": "False", "shelter_image_confidence": 0.459, "bench_image_estimate": "False", "bench_image_confidence": 0.3, "vision_method": "OpenCV color-mask and edge-line heuristics", "vision_error": null, "route_rank": 12, "corridor_name": "New York City M23-SBS direction 0", "corridor_id": "m23_sbs__dir_0", "shelter_present_effective": true, "bench_present_effective": false, "combined_tree_cover_score": 0.2745, "no_shelter_value": 0.0, "no_bench_value": 1.0, "low_tree_cover_value": 0.7255, "heat_burden_value": 0.0, "wait_burden_value": 0.095, "priority_score": 29.57, "normalized_priority_score": 25.75, "score_breakdown_json": { "no_shelter": { "label": "no shelter", "value": 0.0, "weight": 0.35, "score": 0.0 }, "low_tree_cover": { "label": "low tree cover", "value": 0.726, "weight": 0.25, "score": 18.14 }, "heat_burden": { "label": "high heat burden", "value": 0.0, "weight": 0.15, "score": 0.0 }, "wait_burden": { "label": "long scheduled wait exposure", "value": 0.095, "weight": 0.15, "score": 1.43 }, "no_bench": { "label": "nearby seating gap", "value": 1.0, "weight": 0.1, "score": 10.0 } }, "top_contributors": "low tree cover, nearby seating gap, long scheduled wait exposure", "recommended_intervention": "Add seating, increase tree cover near the curb.", "recommended_action_summary": "Add seating | Increase tree cover", "planner_note": "This stop is a low priority because it combines low tree cover, nearby seating gap, and long scheduled wait exposure. The most practical near-term intervention is to add seating, increase tree cover near the curb.", "planner_note_reason": "This stop is a low priority because it combines low tree cover, nearby seating gap, and long scheduled wait exposure.", "planner_note_recommendation": "The most practical near-term intervention is to add seating, increase tree cover near the curb.", "planner_note_urgency": "Low", "planner_note_source": "Deterministic fallback" }, "geometry": { "type": "Point", "coordinates": [ -73.980554, 40.737663 ] } },
{ "type": "Feature", "properties": { "stop_id": "402125", "stop_sequence": 5, "stop_name": "W 23 ST/9 AV", "stop_lat": 40.746244, "stop_lon": -74.000956, "avg_headway_minutes": 6.86, "scheduled_departures_in_window": 52, "route_id": "M23+", "route_short_name": "M23-SBS", "direction_id": 0, "trip_headsign": "SELECT BUS EAST SIDE AVENUE C CROSSTOWN", "service_date": "2026-04-24", "wait_source": "MTA GTFS window 12:00:00-18:00:00", "has_shelter": true, "shelter_distance_ft": 62.8, "shelter_source": "NYC DOT Bus Stop Shelters", "has_nearby_seating": false, "seating_distance_ft": 176.5, "bench_source": "NYC DOT Seating Locations", "nearby_tree_count": 4, "nearby_tree_dbh_sum": 30.0, "tree_source": "NYC Street Tree Census", "weather_point_lat": 40.74225, "weather_point_lon": -73.991815, "weather_metric_used": "apparentTemperature", "weather_metric_display": "Feels-like temperature", "max_weather_value_f": 63.0, "heat_burden_score": 0.0, "weather_source": "https://api.weather.gov/gridpoints/OKX/34,43", "weather_source_label": "NWS / weather.gov", "weather_point_url": "https://api.weather.gov/points/40.74225,-73.991815", "weather_updated_at": "2026-04-24T11:02:02+00:00", "weather_refreshed_at": "2026-04-24T15:32:04.219193-04:00", "weather_horizon_hours": 8, "weather_summary": "Feels-like temperature forecast used for the next 8 hours", "resolved_image_path": "/home/rithwik_amajala/code4city/data/raw/stop_images/mapillary_402125.jpg", "image_provider": "Mapillary", "image_source_url": "https://scontent-lga3-1.xx.fbcdn.net/m1/v/t6/An-H5b-4zTcRgjW1aHEdiF5-YKNyaNvI3sAAWMZ3DCMmzJwp_midWabS4syhPM9oobPQ7tHOvt06CyCFjiynkd-AdkEfiBFe5DmDsBCxOdGfg8eidIWtRqpzvtOaSGqFSv7UyZD2lBQS7qU1NMbrN-A?stp=s1024x768&edm=ALXxkZ8EAAAA&_nc_gid=HZ_UbscIeI3AO-bzTSgpoA&_nc_oc=AdpKrC_Hor2b2ozAyDuZ94B1FA72KxswCZZ31BYcPe-Ec24Sw1YM2u1Rn7vyz2grju4&ccb=10-5&oh=00_Af1HZTXX0EE7J30winNj517lMIGeBBh5wL3htazYZo4mIw&oe=6A134265&_nc_sid=201bca", "image_attribution_url": "https://www.mapillary.com/app/?pKey=2086024405550987", "image_author": "jlin4529", "image_license": "Mapillary Terms of Use", "image_capture_date": "2026-02-09", "image_distance_m": 32.3, "image_fetch_status": "downloaded public image", "image_available": true, "image_path": "/home/rithwik_amajala/code4city/data/raw/stop_images/mapillary_402125.jpg", "visible_tree_ratio": 0.008, "open_sky_ratio": 0.457, "shelter_image_estimate": "True", "shelter_image_confidence": 1.0, "bench_image_estimate": "False", "bench_image_confidence": 0.1, "vision_method": "OpenCV color-mask and edge-line heuristics", "vision_error": null, "route_rank": 5, "corridor_name": "New York City M23-SBS direction 0", "corridor_id": "m23_sbs__dir_0", "shelter_present_effective": true, "bench_present_effective": false, "combined_tree_cover_score": 0.33733333333333332, "no_shelter_value": 0.0, "no_bench_value": 1.0, "low_tree_cover_value": 0.66266666666666674, "heat_burden_value": 0.0, "wait_burden_value": 0.093, "priority_score": 27.97, "normalized_priority_score": 22.2, "score_breakdown_json": { "no_shelter": { "label": "no shelter", "value": 0.0, "weight": 0.35, "score": 0.0 }, "low_tree_cover": { "label": "low tree cover", "value": 0.663, "weight": 0.25, "score": 16.57 }, "heat_burden": { "label": "high heat burden", "value": 0.0, "weight": 0.15, "score": 0.0 }, "wait_burden": { "label": "long scheduled wait exposure", "value": 0.093, "weight": 0.15, "score": 1.4 }, "no_bench": { "label": "nearby seating gap", "value": 1.0, "weight": 0.1, "score": 10.0 } }, "top_contributors": "low tree cover, nearby seating gap, long scheduled wait exposure", "recommended_intervention": "Add seating, increase tree cover near the curb.", "recommended_action_summary": "Add seating | Increase tree cover", "planner_note": "This stop is a low priority because it combines low tree cover, nearby seating gap, and long scheduled wait exposure. The most practical near-term intervention is to add seating, increase tree cover near the curb.", "planner_note_reason": "This stop is a low priority because it combines low tree cover, nearby seating gap, and long scheduled wait exposure.", "planner_note_recommendation": "The most practical near-term intervention is to add seating, increase tree cover near the curb.", "planner_note_urgency": "Low", "planner_note_source": "Deterministic fallback" }, "geometry": { "type": "Point", "coordinates": [ -74.000956, 40.746244 ] } },
{ "type": "Feature", "properties": { "stop_id": "903002", "stop_sequence": 15, "stop_name": "AVENUE C/E 20 ST", "stop_lat": 40.733004, "stop_lon": -73.974597, "avg_headway_minutes": 6.92, "scheduled_departures_in_window": 52, "route_id": "M23+", "route_short_name": "M23-SBS", "direction_id": 0, "trip_headsign": "SELECT BUS EAST SIDE AVENUE C CROSSTOWN", "service_date": "2026-04-24", "wait_source": "MTA GTFS window 12:00:00-18:00:00", "has_shelter": true, "shelter_distance_ft": 34.6, "shelter_source": "NYC DOT Bus Stop Shelters", "has_nearby_seating": false, "seating_distance_ft": 522.0, "bench_source": "NYC DOT Seating Locations", "nearby_tree_count": 9, "nearby_tree_dbh_sum": 84.0, "tree_source": "NYC Street Tree Census", "weather_point_lat": 40.74225, "weather_point_lon": -73.991815, "weather_metric_used": "apparentTemperature", "weather_metric_display": "Feels-like temperature", "max_weather_value_f": 63.0, "heat_burden_score": 0.0, "weather_source": "https://api.weather.gov/gridpoints/OKX/34,43", "weather_source_label": "NWS / weather.gov", "weather_point_url": "https://api.weather.gov/points/40.74225,-73.991815", "weather_updated_at": "2026-04-24T11:02:02+00:00", "weather_refreshed_at": "2026-04-24T15:32:04.219193-04:00", "weather_horizon_hours": 8, "weather_summary": "Feels-like temperature forecast used for the next 8 hours", "resolved_image_path": "/home/rithwik_amajala/code4city/data/raw/stop_images/mapillary_903002.jpg", "image_provider": "Mapillary", "image_source_url": "https://scontent-lga3-1.xx.fbcdn.net/m1/v/t6/An8tG-xxE79Ji0M6Ss0koEzY9mDU_5wP-JLeMrnqrOUXBBuQDEcwReGrYcgOdoWrO1xcAWdXvKdhZBG2mqGSkbhUEgKP75D7n4IcV7WrxqgLsfDQKW3Lvqmki9N4DRlJglyhgMDZ5FIG3jeXmajyfQ?stp=s1024x768&edm=ALXxkZ8EAAAA&_nc_gid=b5zdCB8MbN_TJobjl-_ztg&_nc_oc=AdpEtp2ocOotkPtcY7oIkpeSbBnnKVNHz7MKjZb9t12_b3NwhlGdckqnB6eY-mMeQLE&ccb=10-5&oh=00_Af3i958akZr1qYZl75o6sk9GXfK0_qdfHTS_jnUIz9RsSw&oe=6A131BB4&_nc_sid=201bca", "image_attribution_url": "https://www.mapillary.com/app/?pKey=145288854237798", "image_author": "smartmaper", "image_license": "Mapillary Terms of Use", "image_capture_date": "2019-12-15", "image_distance_m": 30.0, "image_fetch_status": "downloaded public image", "image_available": true, "image_path": "/home/rithwik_amajala/code4city/data/raw/stop_images/mapillary_903002.jpg", "visible_tree_ratio": 0.479, "open_sky_ratio": 1.0, "shelter_image_estimate": "True", "shelter_image_confidence": 0.825, "bench_image_estimate": "False", "bench_image_confidence": 0.4, "vision_method": "OpenCV color-mask and edge-line heuristics", "vision_error": null, "route_rank": 15, "corridor_name": "New York City M23-SBS direction 0", "corridor_id": "m23_sbs__dir_0", "shelter_present_effective": true, "bench_present_effective": false, "combined_tree_cover_score": 0.7395, "no_shelter_value": 0.0, "no_bench_value": 1.0, "low_tree_cover_value": 0.2605, "heat_burden_value": 0.0, "wait_burden_value": 0.096, "priority_score": 17.95, "normalized_priority_score": 0.0, "score_breakdown_json": { "no_shelter": { "label": "no shelter", "value": 0.0, "weight": 0.35, "score": 0.0 }, "low_tree_cover": { "label": "low tree cover", "value": 0.26, "weight": 0.25, "score": 6.51 }, "heat_burden": { "label": "high heat burden", "value": 0.0, "weight": 0.15, "score": 0.0 }, "wait_burden": { "label": "long scheduled wait exposure", "value": 0.096, "weight": 0.15, "score": 1.44 }, "no_bench": { "label": "nearby seating gap", "value": 1.0, "weight": 0.1, "score": 10.0 } }, "top_contributors": "nearby seating gap, low tree cover, long scheduled wait exposure", "recommended_intervention": "Add seating.", "recommended_action_summary": "Add seating", "planner_note": "This stop is a low priority because it combines nearby seating gap, low tree cover, and long scheduled wait exposure. The most practical near-term intervention is to add seating.", "planner_note_reason": "This stop is a low priority because it combines nearby seating gap, low tree cover, and long scheduled wait exposure.", "planner_note_recommendation": "The most practical near-term intervention is to add seating.", "planner_note_urgency": "Low", "planner_note_source": "Deterministic fallback" }, "geometry": { "type": "Point", "coordinates": [ -73.974597, 40.733004 ] } }
]
}
