{
"type": "FeatureCollection",
"name": "stops_scored",
"crs": { "type": "name", "properties": { "name": "urn:ogc:def:crs:OGC:1.3:CRS84" } },
"features": [
{ "type": "Feature", "properties": { "stop_id": "405650", "stop_sequence": 7, "stop_name": "3 AV/E 24 ST", "stop_lat": 40.739601, "stop_lon": -73.98251, "avg_headway_minutes": 8.05, "scheduled_departures_in_window": 45, "route_id": "M101", "route_short_name": "M101", "direction_id": 0, "trip_headsign": "FT GEORGE via 3 AV via AMSTERDAM AV", "service_date": "2026-04-24", "wait_source": "MTA GTFS window 12:00:00-18:00:00", "has_shelter": false, "shelter_distance_ft": 257.1, "shelter_source": "NYC DOT Bus Stop Shelters", "has_nearby_seating": false, "seating_distance_ft": 282.1, "bench_source": "NYC DOT Seating Locations", "nearby_tree_count": 4, "nearby_tree_dbh_sum": 48.0, "tree_source": "NYC Street Tree Census", "weather_point_lat": 40.740759, "weather_point_lon": -73.981674, "weather_metric_used": "apparentTemperature", "weather_metric_display": "Feels-like temperature", "max_weather_value_f": 63.0, "heat_burden_score": 0.0, "weather_source": "https://api.weather.gov/gridpoints/OKX/34,43", "weather_source_label": "NWS / weather.gov", "weather_point_url": "https://api.weather.gov/points/40.740759,-73.981674", "weather_updated_at": "2026-04-24T11:02:02+00:00", "weather_refreshed_at": "2026-04-24T15:30:17.800398-04:00", "weather_horizon_hours": 8, "weather_summary": "Feels-like temperature forecast used for the next 8 hours", "resolved_image_path": "/home/rithwik_amajala/code4city/data/raw/stop_images/mapillary_405650.jpg", "image_provider": "Mapillary", "image_source_url": "https://scontent-lga3-1.xx.fbcdn.net/m1/v/t6/An8NHJyRS_2GmWyvfaHeQzVOK_jFGbrNtJnG2nKsTNOBe0JBuFUYVJsG4wazvTOQL-1ju3IU1rus2I4cvBaAsTgXxuijEtd9sVL-jhGQ-G9lXjVtjS5laUESCBT3RF36zN_uWCYtNr78nMmEJI4e1j4?stp=s1024x768&edm=ALXxkZ8EAAAA&_nc_gid=oAnVf85xy7YxrVXPkfudAQ&_nc_oc=Ado3vygGd8Fx08b4xlWgMh65ipQiEgZgfrVg6h3561XApezJxx73kzyBPZuD3lDZbr0&ccb=10-5&oh=00_Af1MZH-91W8my8sRZ_4uDWJTwCQIukm7VbCZitk0Ed8uMA&oe=6A132D73&_nc_sid=201bca", "image_attribution_url": "https://www.mapillary.com/app/?pKey=1090116240000914", "image_author": "jlin4529", "image_license": "Mapillary Terms of Use", "image_capture_date": "2025-09-25", "image_distance_m": 16.5, "image_fetch_status": "downloaded public image", "image_available": true, "image_path": "/home/rithwik_amajala/code4city/data/raw/stop_images/mapillary_405650.jpg", "visible_tree_ratio": 0.035, "open_sky_ratio": 0.227, "shelter_image_estimate": "False", "shelter_image_confidence": 0.235, "bench_image_estimate": "False", "bench_image_confidence": 0.0, "vision_method": "OpenCV color-mask and edge-line heuristics", "vision_error": null, "route_rank": 7, "corridor_name": "New York City M101 direction 0", "corridor_id": "m101__dir_0", "shelter_present_effective": false, "bench_present_effective": false, "combined_tree_cover_score": 0.35083333333333333, "no_shelter_value": 1.0, "no_bench_value": 1.0, "low_tree_cover_value": 0.64916666666666667, "heat_burden_value": 0.0, "wait_burden_value": 0.1525, "priority_score": 63.52, "normalized_priority_score": 100.0, "score_breakdown_json": { "no_shelter": { "label": "no shelter", "value": 1.0, "weight": 0.35, "score": 35.0 }, "low_tree_cover": { "label": "low tree cover", "value": 0.649, "weight": 0.25, "score": 16.23 }, "heat_burden": { "label": "high heat burden", "value": 0.0, "weight": 0.15, "score": 0.0 }, "wait_burden": { "label": "long scheduled wait exposure", "value": 0.153, "weight": 0.15, "score": 2.29 }, "no_bench": { "label": "nearby seating gap", "value": 1.0, "weight": 0.1, "score": 10.0 } }, "top_contributors": "no shelter, low tree cover, nearby seating gap", "recommended_intervention": "Install a modular shade canopy, add seating.", "recommended_action_summary": "Shade canopy | Add seating", "planner_note": "This stop is a critical priority because it combines no shelter, low tree cover, and nearby seating gap. The most practical near-term intervention is to install a modular shade canopy, add seating.", "planner_note_reason": "This stop is a critical priority because it combines no shelter, low tree cover, and nearby seating gap.", "planner_note_recommendation": "The most practical near-term intervention is to install a modular shade canopy, add seating.", "planner_note_urgency": "Critical", "planner_note_source": "Deterministic fallback" }, "geometry": { "type": "Point", "coordinates": [ -73.98251, 40.739601 ] } },
{ "type": "Feature", "properties": { "stop_id": "403427", "stop_sequence": 11, "stop_name": "3 AV/E 33 ST", "stop_lat": 40.745188, "stop_lon": -73.978434, "avg_headway_minutes": 8.0, "scheduled_departures_in_window": 44, "route_id": "M101", "route_short_name": "M101", "direction_id": 0, "trip_headsign": "FT GEORGE via 3 AV via AMSTERDAM AV", "service_date": "2026-04-24", "wait_source": "MTA GTFS window 12:00:00-18:00:00", "has_shelter": false, "shelter_distance_ft": 121.2, "shelter_source": "NYC DOT Bus Stop Shelters", "has_nearby_seating": false, "seating_distance_ft": 558.0, "bench_source": "NYC DOT Seating Locations", "nearby_tree_count": 9, "nearby_tree_dbh_sum": 74.0, "tree_source": "NYC Street Tree Census", "weather_point_lat": 40.740759, "weather_point_lon": -73.981674, "weather_metric_used": "apparentTemperature", "weather_metric_display": "Feels-like temperature", "max_weather_value_f": 63.0, "heat_burden_score": 0.0, "weather_source": "https://api.weather.gov/gridpoints/OKX/34,43", "weather_source_label": "NWS / weather.gov", "weather_point_url": "https://api.weather.gov/points/40.740759,-73.981674", "weather_updated_at": "2026-04-24T11:02:02+00:00", "weather_refreshed_at": "2026-04-24T15:30:17.800398-04:00", "weather_horizon_hours": 8, "weather_summary": "Feels-like temperature forecast used for the next 8 hours", "resolved_image_path": "/home/rithwik_amajala/code4city/data/raw/stop_images/mapillary_403427.jpg", "image_provider": "Mapillary", "image_source_url": "https://scontent-lga3-1.xx.fbcdn.net/m1/v/t6/An-AETn6hunrq8Dyfe03wFGIwS1cKZBpalRB2Z6FavkJqojb7xqQlYVf876yhrNbZ1rXK9MQv37IsgSlab6MTeQ6A4olxbscfZT5mKTRO0S3-T33GBY-P5qqqHMeKPKO78wUxHZXC3yrXaB6RreO-Q?stp=s1024x768&edm=ALXxkZ8EAAAA&_nc_gid=6JwR75jSakCCaexHCVFuvA&_nc_oc=AdqQrIAmTqnJAKLH64p_9KEZBJYnJwvvqf43670YxjHQZ-_SmuXbeLmE-zUCc1GyomU&ccb=10-5&oh=00_Af1w797sKvTmqoJT-Jk5Yjk0CBJNow2V4XIbl5WeAVhS6Q&oe=6A131F9A&_nc_sid=201bca", "image_attribution_url": "https://www.mapillary.com/app/?pKey=1884402395060784", "image_author": "smartmaper", "image_license": "Mapillary Terms of Use", "image_capture_date": "2019-12-15", "image_distance_m": 26.0, "image_fetch_status": "downloaded public image", "image_available": true, "image_path": "/home/rithwik_amajala/code4city/data/raw/stop_images/mapillary_403427.jpg", "visible_tree_ratio": 0.011, "open_sky_ratio": 0.55, "shelter_image_estimate": "True", "shelter_image_confidence": 1.0, "bench_image_estimate": "True", "bench_image_confidence": 1.0, "vision_method": "OpenCV color-mask and edge-line heuristics", "vision_error": null, "route_rank": 11, "corridor_name": "New York City M101 direction 0", "corridor_id": "m101__dir_0", "shelter_present_effective": false, "bench_present_effective": false, "combined_tree_cover_score": 0.5055, "no_shelter_value": 1.0, "no_bench_value": 1.0, "low_tree_cover_value": 0.4945, "heat_burden_value": 0.0, "wait_burden_value": 0.15, "priority_score": 59.61, "normalized_priority_score": 92.38, "score_breakdown_json": { "no_shelter": { "label": "no shelter", "value": 1.0, "weight": 0.35, "score": 35.0 }, "low_tree_cover": { "label": "low tree cover", "value": 0.495, "weight": 0.25, "score": 12.36 }, "heat_burden": { "label": "high heat burden", "value": 0.0, "weight": 0.15, "score": 0.0 }, "wait_burden": { "label": "long scheduled wait exposure", "value": 0.15, "weight": 0.15, "score": 2.25 }, "no_bench": { "label": "nearby seating gap", "value": 1.0, "weight": 0.1, "score": 10.0 } }, "top_contributors": "no shelter, low tree cover, nearby seating gap", "recommended_intervention": "Install a modular shade canopy, add seating.", "recommended_action_summary": "Shade canopy | Add seating", "planner_note": "This stop is a critical priority because it combines no shelter, low tree cover, and nearby seating gap. The most practical near-term intervention is to install a modular shade canopy, add seating.", "planner_note_reason": "This stop is a critical priority because it combines no shelter, low tree cover, and nearby seating gap.", "planner_note_recommendation": "The most practical near-term intervention is to install a modular shade canopy, add seating.", "planner_note_urgency": "Critical", "planner_note_source": "Deterministic fallback" }, "geometry": { "type": "Point", "coordinates": [ -73.978434, 40.745188 ] } },
{ "type": "Feature", "properties": { "stop_id": "405154", "stop_sequence": 1, "stop_name": "ASTOR PL/COOPER SQ EAST", "stop_lat": 40.729574, "stop_lon": -73.99004, "avg_headway_minutes": 7.91, "scheduled_departures_in_window": 46, "route_id": "M101", "route_short_name": "M101", "direction_id": 0, "trip_headsign": "FT GEORGE via 3 AV via AMSTERDAM AV", "service_date": "2026-04-24", "wait_source": "MTA GTFS window 12:00:00-18:00:00", "has_shelter": false, "shelter_distance_ft": 403.7, "shelter_source": "NYC DOT Bus Stop Shelters", "has_nearby_seating": true, "seating_distance_ft": 33.6, "bench_source": "NYC DOT Seating Locations", "nearby_tree_count": 2, "nearby_tree_dbh_sum": 16.0, "tree_source": "NYC Street Tree Census", "weather_point_lat": 40.740759, "weather_point_lon": -73.981674, "weather_metric_used": "apparentTemperature", "weather_metric_display": "Feels-like temperature", "max_weather_value_f": 63.0, "heat_burden_score": 0.0, "weather_source": "https://api.weather.gov/gridpoints/OKX/34,43", "weather_source_label": "NWS / weather.gov", "weather_point_url": "https://api.weather.gov/points/40.740759,-73.981674", "weather_updated_at": "2026-04-24T11:02:02+00:00", "weather_refreshed_at": "2026-04-24T15:30:17.800398-04:00", "weather_horizon_hours": 8, "weather_summary": "Feels-like temperature forecast used for the next 8 hours", "resolved_image_path": "/home/rithwik_amajala/code4city/data/raw/stop_images/mapillary_405154.jpg", "image_provider": "Mapillary", "image_source_url": "https://scontent-lga3-1.xx.fbcdn.net/m1/v/t6/An-kyqYz7Mz7k0WXPT1YbzMgQwynUw7WYq0Rs7R7JqKiBhJ0QyDLr7YUlrsd3TGKod0QpErTL1wRLy8t-VPCzJnjaaL2vDAg5Cy-v9CXEmCMbDI-95buwZB9WKp-gPfBr0Cflk87xhmMt7MMPKVpxA?stp=s1024x768&edm=ALXxkZ8EAAAA&_nc_gid=7mrv4k6m2vn5bzG8ngBtcg&_nc_oc=AdrBRlggXJPPecmiEs94YFxgruE1TZByEIkqvuav-hkyxOvyTbJ9nr1CSbi2fetDhug&ccb=10-6&oh=00_Af0zpHG4tt1r0fZwTqgcnGncWDd7b3qzc28Es-rs8a1EsQ&oe=6A134C66&_nc_sid=201bca", "image_attribution_url": "https://www.mapillary.com/app/?pKey=528205314883128", "image_author": "smeginald", "image_license": "Mapillary Terms of Use", "image_capture_date": "2020-05-09", "image_distance_m": 8.9, "image_fetch_status": "downloaded public image", "image_available": true, "image_path": "/home/rithwik_amajala/code4city/data/raw/stop_images/mapillary_405154.jpg", "visible_tree_ratio": 0.049, "open_sky_ratio": 0.348, "shelter_image_estimate": "True", "shelter_image_confidence": 1.0, "bench_image_estimate": "True", "bench_image_confidence": 1.0, "vision_method": "OpenCV color-mask and edge-line heuristics", "vision_error": null, "route_rank": 1, "corridor_name": "New York City M101 direction 0", "corridor_id": "m101__dir_0", "shelter_present_effective": false, "bench_present_effective": true, "combined_tree_cover_score": 0.19116666666666665, "no_shelter_value": 1.0, "no_bench_value": 0.0, "low_tree_cover_value": 0.80883333333333329, "heat_burden_value": 0.0, "wait_burden_value": 0.1455, "priority_score": 57.4, "normalized_priority_score": 88.07, "score_breakdown_json": { "no_shelter": { "label": "no shelter", "value": 1.0, "weight": 0.35, "score": 35.0 }, "low_tree_cover": { "label": "low tree cover", "value": 0.809, "weight": 0.25, "score": 20.22 }, "heat_burden": { "label": "high heat burden", "value": 0.0, "weight": 0.15, "score": 0.0 }, "wait_burden": { "label": "long scheduled wait exposure", "value": 0.146, "weight": 0.15, "score": 2.18 }, "no_bench": { "label": "nearby seating gap", "value": 0.0, "weight": 0.1, "score": 0.0 } }, "top_contributors": "no shelter, low tree cover, long scheduled wait exposure", "recommended_intervention": "Install a modular shade canopy, increase tree cover near the curb.", "recommended_action_summary": "Shade canopy | Increase tree cover", "planner_note": "This stop is a critical priority because it combines no shelter, low tree cover, and long scheduled wait exposure. The most practical near-term intervention is to install a modular shade canopy, increase tree cover near the curb.", "planner_note_reason": "This stop is a critical priority because it combines no shelter, low tree cover, and long scheduled wait exposure.", "planner_note_recommendation": "The most practical near-term intervention is to install a modular shade canopy, increase tree cover near the curb.", "planner_note_urgency": "Critical", "planner_note_source": "Deterministic fallback" }, "geometry": { "type": "Point", "coordinates": [ -73.99004, 40.729574 ] } },
{ "type": "Feature", "properties": { "stop_id": "402634", "stop_sequence": 10, "stop_name": "3 AV/E 31 ST", "stop_lat": 40.743707, "stop_lon": -73.979544, "avg_headway_minutes": 8.0, "scheduled_departures_in_window": 0, "route_id": "M101", "route_short_name": "M101", "direction_id": 0, "trip_headsign": "FT GEORGE via 3 AV via AMSTERDAM AV", "service_date": "2026-04-24", "wait_source": "MTA GTFS window 12:00:00-18:00:00", "has_shelter": false, "shelter_distance_ft": 349.5, "shelter_source": "NYC DOT Bus Stop Shelters", "has_nearby_seating": true, "seating_distance_ft": 38.7, "bench_source": "NYC DOT Seating Locations", "nearby_tree_count": 4, "nearby_tree_dbh_sum": 30.0, "tree_source": "NYC Street Tree Census", "weather_point_lat": 40.740759, "weather_point_lon": -73.981674, "weather_metric_used": "apparentTemperature", "weather_metric_display": "Feels-like temperature", "max_weather_value_f": 63.0, "heat_burden_score": 0.0, "weather_source": "https://api.weather.gov/gridpoints/OKX/34,43", "weather_source_label": "NWS / weather.gov", "weather_point_url": "https://api.weather.gov/points/40.740759,-73.981674", "weather_updated_at": "2026-04-24T11:02:02+00:00", "weather_refreshed_at": "2026-04-24T15:30:17.800398-04:00", "weather_horizon_hours": 8, "weather_summary": "Feels-like temperature forecast used for the next 8 hours", "resolved_image_path": "/home/rithwik_amajala/code4city/data/raw/stop_images/mapillary_402634.jpg", "image_provider": "Mapillary", "image_source_url": "https://scontent-lga3-1.xx.fbcdn.net/m1/v/t6/An_yfLCdblQvYuJ7kvw0ixjUYfIcgz3SSnMackCuIhX5YRfsv0f26WAiR3uyUAmw1M7TG8Wqu7mwZ36l8a4MFrfAkF0_4ion7Jm_EpN-hsoyIj0dKp_rF6NUvxgYzHgydBJwi_N9FY7tD0Ut7lCa5w?stp=s1024x768&edm=ALXxkZ8EAAAA&_nc_gid=g4LZzzDHDPz5onMJhT7uwQ&_nc_oc=AdrouZHp8NOglkrHnhozHG6qBIrm6-fJEq9BGM8Pb00vAZu4cqK6TiwEsPQPaDSlqiY&ccb=10-5&oh=00_Af0JyuAXhN1ZE6cqdmJp_RV5iie-X4_wagjLrNj92c68Qg&oe=6A134BF1&_nc_sid=201bca", "image_attribution_url": "https://www.mapillary.com/app/?pKey=141372547916206", "image_author": "smartmaper", "image_license": "Mapillary Terms of Use", "image_capture_date": "2019-12-15", "image_distance_m": 31.1, "image_fetch_status": "downloaded public image", "image_available": true, "image_path": "/home/rithwik_amajala/code4city/data/raw/stop_images/mapillary_402634.jpg", "visible_tree_ratio": 0.027, "open_sky_ratio": 0.418, "shelter_image_estimate": "True", "shelter_image_confidence": 1.0, "bench_image_estimate": "True", "bench_image_confidence": 1.0, "vision_method": "OpenCV color-mask and edge-line heuristics", "vision_error": null, "route_rank": 10, "corridor_name": "New York City M101 direction 0", "corridor_id": "m101__dir_0", "shelter_present_effective": false, "bench_present_effective": true, "combined_tree_cover_score": 0.34683333333333333, "no_shelter_value": 1.0, "no_bench_value": 0.0, "low_tree_cover_value": 0.65316666666666667, "heat_burden_value": 0.0, "wait_burden_value": 0.15, "priority_score": 53.58, "normalized_priority_score": 80.62, "score_breakdown_json": { "no_shelter": { "label": "no shelter", "value": 1.0, "weight": 0.35, "score": 35.0 }, "low_tree_cover": { "label": "low tree cover", "value": 0.653, "weight": 0.25, "score": 16.33 }, "heat_burden": { "label": "high heat burden", "value": 0.0, "weight": 0.15, "score": 0.0 }, "wait_burden": { "label": "long scheduled wait exposure", "value": 0.15, "weight": 0.15, "score": 2.25 }, "no_bench": { "label": "nearby seating gap", "value": 0.0, "weight": 0.1, "score": 0.0 } }, "top_contributors": "no shelter, low tree cover, long scheduled wait exposure", "recommended_intervention": "Install a modular shade canopy, increase tree cover near the curb.", "recommended_action_summary": "Shade canopy | Increase tree cover", "planner_note": "This stop is a high priority because it combines no shelter, low tree cover, and long scheduled wait exposure. The most practical near-term intervention is to install a modular shade canopy, increase tree cover near the curb.", "planner_note_reason": "This stop is a high priority because it combines no shelter, low tree cover, and long scheduled wait exposure.", "planner_note_recommendation": "The most practical near-term intervention is to install a modular shade canopy, increase tree cover near the curb.", "planner_note_urgency": "High", "planner_note_source": "Deterministic fallback" }, "geometry": { "type": "Point", "coordinates": [ -73.979544, 40.743707 ] } },
{ "type": "Feature", "properties": { "stop_id": "405155", "stop_sequence": 2, "stop_name": "3 AV/E 9 ST", "stop_lat": 40.730389, "stop_lon": -73.989235, "avg_headway_minutes": 8.0, "scheduled_departures_in_window": 0, "route_id": "M101", "route_short_name": "M101", "direction_id": 0, "trip_headsign": "FT GEORGE via 3 AV via AMSTERDAM AV", "service_date": "2026-04-24", "wait_source": "MTA GTFS window 12:00:00-18:00:00", "has_shelter": false, "shelter_distance_ft": 676.3, "shelter_source": "NYC DOT Bus Stop Shelters", "has_nearby_seating": true, "seating_distance_ft": 37.3, "bench_source": "NYC DOT Seating Locations", "nearby_tree_count": 7, "nearby_tree_dbh_sum": 57.0, "tree_source": "NYC Street Tree Census", "weather_point_lat": 40.740759, "weather_point_lon": -73.981674, "weather_metric_used": "apparentTemperature", "weather_metric_display": "Feels-like temperature", "max_weather_value_f": 63.0, "heat_burden_score": 0.0, "weather_source": "https://api.weather.gov/gridpoints/OKX/34,43", "weather_source_label": "NWS / weather.gov", "weather_point_url": "https://api.weather.gov/points/40.740759,-73.981674", "weather_updated_at": "2026-04-24T11:02:02+00:00", "weather_refreshed_at": "2026-04-24T15:30:17.800398-04:00", "weather_horizon_hours": 8, "weather_summary": "Feels-like temperature forecast used for the next 8 hours", "resolved_image_path": "/home/rithwik_amajala/code4city/data/raw/stop_images/mapillary_405155.jpg", "image_provider": "Mapillary", "image_source_url": "https://scontent-lga3-1.xx.fbcdn.net/m1/v/t6/An9uH7aqd8qHO_SbSeYXKleyPqembkAkFJoriICayeSXh-tvpQ201udL2G1xu-8iSj4eUfkzL_pIsviU6cKiDvyOPE3ZccQqjPxgGhgUShHYDAGZ1VgDNrZUg2ASjxUT5Z7B-5CeddyMAePZIiJMmC0?stp=s1024x768&edm=ALXxkZ8EAAAA&_nc_gid=diUaO4v4VtYJ1eS0nlONdA&_nc_oc=Adq5Ggpt4bY5tPYGvT7y3K1M5Y11_f78yE8-bDpToo2eXs8F_ZdkEW-rFyuntAfEFws&ccb=10-5&oh=00_Af3oKOrbp1vPfeFE3E8gMbyaj1SiSuxzRCNmKik0jY4b2g&oe=6A1348FD&_nc_sid=201bca", "image_attribution_url": "https://www.mapillary.com/app/?pKey=958991311309117", "image_author": "smeginald", "image_license": "Mapillary Terms of Use", "image_capture_date": "2020-05-09", "image_distance_m": 26.9, "image_fetch_status": "downloaded public image", "image_available": true, "image_path": "/home/rithwik_amajala/code4city/data/raw/stop_images/mapillary_405155.jpg", "visible_tree_ratio": 0.035, "open_sky_ratio": 0.559, "shelter_image_estimate": "False", "shelter_image_confidence": 0.223, "bench_image_estimate": "False", "bench_image_confidence": 0.0, "vision_method": "OpenCV color-mask and edge-line heuristics", "vision_error": null, "route_rank": 2, "corridor_name": "New York City M101 direction 0", "corridor_id": "m101__dir_0", "shelter_present_effective": false, "bench_present_effective": true, "combined_tree_cover_score": 0.5175, "no_shelter_value": 1.0, "no_bench_value": 0.0, "low_tree_cover_value": 0.4825, "heat_burden_value": 0.0, "wait_burden_value": 0.15, "priority_score": 49.31, "normalized_priority_score": 72.29, "score_breakdown_json": { "no_shelter": { "label": "no shelter", "value": 1.0, "weight": 0.35, "score": 35.0 }, "low_tree_cover": { "label": "low tree cover", "value": 0.483, "weight": 0.25, "score": 12.06 }, "heat_burden": { "label": "high heat burden", "value": 0.0, "weight": 0.15, "score": 0.0 }, "wait_burden": { "label": "long scheduled wait exposure", "value": 0.15, "weight": 0.15, "score": 2.25 }, "no_bench": { "label": "nearby seating gap", "value": 0.0, "weight": 0.1, "score": 0.0 } }, "top_contributors": "no shelter, low tree cover, long scheduled wait exposure", "recommended_intervention": "Install a modular shade canopy.", "recommended_action_summary": "Shade canopy", "planner_note": "This stop is a high priority because it combines no shelter, low tree cover, and long scheduled wait exposure. The most practical near-term intervention is to install a modular shade canopy.", "planner_note_reason": "This stop is a high priority because it combines no shelter, low tree cover, and long scheduled wait exposure.", "planner_note_recommendation": "The most practical near-term intervention is to install a modular shade canopy.", "planner_note_urgency": "High", "planner_note_source": "Deterministic fallback" }, "geometry": { "type": "Point", "coordinates": [ -73.989235, 40.730389 ] } },
{ "type": "Feature", "properties": { "stop_id": "402678", "stop_sequence": 13, "stop_name": "3 AV/E 39 ST", "stop_lat": 40.749176, "stop_lon": -73.975519, "avg_headway_minutes": 8.0, "scheduled_departures_in_window": 0, "route_id": "M101", "route_short_name": "M101", "direction_id": 0, "trip_headsign": "FT GEORGE via 3 AV via AMSTERDAM AV", "service_date": "2026-04-24", "wait_source": "MTA GTFS window 12:00:00-18:00:00", "has_shelter": false, "shelter_distance_ft": 520.2, "shelter_source": "NYC DOT Bus Stop Shelters", "has_nearby_seating": true, "seating_distance_ft": 25.6, "bench_source": "NYC DOT Seating Locations", "nearby_tree_count": 9, "nearby_tree_dbh_sum": 74.0, "tree_source": "NYC Street Tree Census", "weather_point_lat": 40.740759, "weather_point_lon": -73.981674, "weather_metric_used": "apparentTemperature", "weather_metric_display": "Feels-like temperature", "max_weather_value_f": 63.0, "heat_burden_score": 0.0, "weather_source": "https://api.weather.gov/gridpoints/OKX/34,43", "weather_source_label": "NWS / weather.gov", "weather_point_url": "https://api.weather.gov/points/40.740759,-73.981674", "weather_updated_at": "2026-04-24T11:02:02+00:00", "weather_refreshed_at": "2026-04-24T15:30:17.800398-04:00", "weather_horizon_hours": 8, "weather_summary": "Feels-like temperature forecast used for the next 8 hours", "resolved_image_path": "/home/rithwik_amajala/code4city/data/raw/stop_images/mapillary_402678.jpg", "image_provider": "Mapillary", "image_source_url": "https://scontent-lga3-1.xx.fbcdn.net/m1/v/t6/An9Q45tUR0txtZD0k0HThTTCKGbIE4z95QN4Qz4fddISspsnaBEI7e2kyD11tP2eBcMeN6zyOYVrDUwwHTVh0Xi67YQgsRPOwCs7f1JC_wByBXmSMsCztwZXgVl9dhq7Ea7X2fd4a2VSEhx3Rfl1hsI?stp=s1024x768&edm=ALXxkZ8EAAAA&_nc_gid=GIj_7Mb95gDtx4Ob5zKfyQ&_nc_oc=AdpR0FZ984jLPXrOJhvHqK6uIps5xa_Qwkmv_MvG1Xl_lag5pIAA-NH9x9mblJauanU&ccb=10-5&oh=00_Af1F-RcrUY0FFV1BIKzpUXr1xssdectvjzPsV6xu3fJRnw&oe=6A134458&_nc_sid=201bca", "image_attribution_url": "https://www.mapillary.com/app/?pKey=316498266740625", "image_author": "smeginald", "image_license": "Mapillary Terms of Use", "image_capture_date": "2020-05-09", "image_distance_m": 10.6, "image_fetch_status": "downloaded public image", "image_available": true, "image_path": "/home/rithwik_amajala/code4city/data/raw/stop_images/mapillary_402678.jpg", "visible_tree_ratio": 0.199, "open_sky_ratio": 0.406, "shelter_image_estimate": "False", "shelter_image_confidence": 0.224, "bench_image_estimate": "False", "bench_image_confidence": 0.2, "vision_method": "OpenCV color-mask and edge-line heuristics", "vision_error": null, "route_rank": 13, "corridor_name": "New York City M101 direction 0", "corridor_id": "m101__dir_0", "shelter_present_effective": false, "bench_present_effective": true, "combined_tree_cover_score": 0.5995, "no_shelter_value": 1.0, "no_bench_value": 0.0, "low_tree_cover_value": 0.4005, "heat_burden_value": 0.0, "wait_burden_value": 0.15, "priority_score": 47.26, "normalized_priority_score": 68.3, "score_breakdown_json": { "no_shelter": { "label": "no shelter", "value": 1.0, "weight": 0.35, "score": 35.0 }, "low_tree_cover": { "label": "low tree cover", "value": 0.4, "weight": 0.25, "score": 10.01 }, "heat_burden": { "label": "high heat burden", "value": 0.0, "weight": 0.15, "score": 0.0 }, "wait_burden": { "label": "long scheduled wait exposure", "value": 0.15, "weight": 0.15, "score": 2.25 }, "no_bench": { "label": "nearby seating gap", "value": 0.0, "weight": 0.1, "score": 0.0 } }, "top_contributors": "no shelter, low tree cover, long scheduled wait exposure", "recommended_intervention": "Install a modular shade canopy.", "recommended_action_summary": "Shade canopy", "planner_note": "This stop is a high priority because it combines no shelter, low tree cover, and long scheduled wait exposure. The most practical near-term intervention is to install a modular shade canopy.", "planner_note_reason": "This stop is a high priority because it combines no shelter, low tree cover, and long scheduled wait exposure.", "planner_note_recommendation": "The most practical near-term intervention is to install a modular shade canopy.", "planner_note_urgency": "High", "planner_note_source": "Deterministic fallback" }, "geometry": { "type": "Point", "coordinates": [ -73.975519, 40.749176 ] } },
{ "type": "Feature", "properties": { "stop_id": "402673", "stop_sequence": 8, "stop_name": "3 AV/E 26 ST", "stop_lat": 40.741067, "stop_lon": -73.981419, "avg_headway_minutes": 8.0, "scheduled_departures_in_window": 0, "route_id": "M101", "route_short_name": "M101", "direction_id": 0, "trip_headsign": "FT GEORGE via 3 AV via AMSTERDAM AV", "service_date": "2026-04-24", "wait_source": "MTA GTFS window 12:00:00-18:00:00", "has_shelter": false, "shelter_distance_ft": 745.2, "shelter_source": "NYC DOT Bus Stop Shelters", "has_nearby_seating": false, "seating_distance_ft": 428.7, "bench_source": "NYC DOT Seating Locations", "nearby_tree_count": 7, "nearby_tree_dbh_sum": 66.0, "tree_source": "NYC Street Tree Census", "weather_point_lat": 40.740759, "weather_point_lon": -73.981674, "weather_metric_used": "apparentTemperature", "weather_metric_display": "Feels-like temperature", "max_weather_value_f": 63.0, "heat_burden_score": 0.0, "weather_source": "https://api.weather.gov/gridpoints/OKX/34,43", "weather_source_label": "NWS / weather.gov", "weather_point_url": "https://api.weather.gov/points/40.740759,-73.981674", "weather_updated_at": "2026-04-24T11:02:02+00:00", "weather_refreshed_at": "2026-04-24T15:30:17.800398-04:00", "weather_horizon_hours": 8, "weather_summary": "Feels-like temperature forecast used for the next 8 hours", "resolved_image_path": null, "image_provider": null, "image_source_url": null, "image_attribution_url": null, "image_author": null, "image_license": null, "image_capture_date": null, "image_distance_m": null, "image_fetch_status": "no nearby public image found", "image_available": false, "image_path": null, "visible_tree_ratio": null, "open_sky_ratio": null, "shelter_image_estimate": null, "shelter_image_confidence": null, "bench_image_estimate": null, "bench_image_confidence": null, "vision_method": null, "vision_error": "image unavailable", "route_rank": 8, "corridor_name": "New York City M101 direction 0", "corridor_id": "m101__dir_0", "shelter_present_effective": false, "bench_present_effective": false, "combined_tree_cover_score": 1.0, "no_shelter_value": 1.0, "no_bench_value": 1.0, "low_tree_cover_value": 0.0, "heat_burden_value": 0.0, "wait_burden_value": 0.15, "priority_score": 47.25, "normalized_priority_score": 68.28, "score_breakdown_json": { "no_shelter": { "label": "no shelter", "value": 1.0, "weight": 0.35, "score": 35.0 }, "low_tree_cover": { "label": "low tree cover", "value": 0.0, "weight": 0.25, "score": 0.0 }, "heat_burden": { "label": "high heat burden", "value": 0.0, "weight": 0.15, "score": 0.0 }, "wait_burden": { "label": "long scheduled wait exposure", "value": 0.15, "weight": 0.15, "score": 2.25 }, "no_bench": { "label": "nearby seating gap", "value": 1.0, "weight": 0.1, "score": 10.0 } }, "top_contributors": "no shelter, nearby seating gap, long scheduled wait exposure", "recommended_intervention": "Install a modular shade canopy, add seating.", "recommended_action_summary": "Shade canopy | Add seating", "planner_note": "This stop is a high priority because it combines no shelter, nearby seating gap, and long scheduled wait exposure. The most practical near-term intervention is to install a modular shade canopy, add seating.", "planner_note_reason": "This stop is a high priority because it combines no shelter, nearby seating gap, and long scheduled wait exposure.", "planner_note_recommendation": "The most practical near-term intervention is to install a modular shade canopy, add seating.", "planner_note_urgency": "High", "planner_note_source": "Deterministic fallback" }, "geometry": { "type": "Point", "coordinates": [ -73.981419, 40.741067 ] } },
{ "type": "Feature", "properties": { "stop_id": "402679", "stop_sequence": 14, "stop_name": "3 AV/E 42 ST", "stop_lat": 40.751085, "stop_lon": -73.974122, "avg_headway_minutes": 8.0, "scheduled_departures_in_window": 45, "route_id": "M101", "route_short_name": "M101", "direction_id": 0, "trip_headsign": "FT GEORGE via 3 AV via AMSTERDAM AV", "service_date": "2026-04-24", "wait_source": "MTA GTFS window 12:00:00-18:00:00", "has_shelter": false, "shelter_distance_ft": 203.9, "shelter_source": "NYC DOT Bus Stop Shelters", "has_nearby_seating": true, "seating_distance_ft": 0.0, "bench_source": "NYC DOT Seating Locations", "nearby_tree_count": 4, "nearby_tree_dbh_sum": 26.0, "tree_source": "NYC Street Tree Census", "weather_point_lat": 40.740759, "weather_point_lon": -73.981674, "weather_metric_used": "apparentTemperature", "weather_metric_display": "Feels-like temperature", "max_weather_value_f": 63.0, "heat_burden_score": 0.0, "weather_source": "https://api.weather.gov/gridpoints/OKX/34,43", "weather_source_label": "NWS / weather.gov", "weather_point_url": "https://api.weather.gov/points/40.740759,-73.981674", "weather_updated_at": "2026-04-24T11:02:02+00:00", "weather_refreshed_at": "2026-04-24T15:30:17.800398-04:00", "weather_horizon_hours": 8, "weather_summary": "Feels-like temperature forecast used for the next 8 hours", "resolved_image_path": null, "image_provider": null, "image_source_url": null, "image_attribution_url": null, "image_author": null, "image_license": null, "image_capture_date": null, "image_distance_m": null, "image_fetch_status": "no nearby public image found", "image_available": false, "image_path": null, "visible_tree_ratio": null, "open_sky_ratio": null, "shelter_image_estimate": null, "shelter_image_confidence": null, "bench_image_estimate": null, "bench_image_confidence": null, "vision_method": null, "vision_error": "image unavailable", "route_rank": 14, "corridor_name": "New York City M101 direction 0", "corridor_id": "m101__dir_0", "shelter_present_effective": false, "bench_present_effective": true, "combined_tree_cover_score": 0.66666666666666663, "no_shelter_value": 1.0, "no_bench_value": 0.0, "low_tree_cover_value": 0.33333333333333337, "heat_burden_value": 0.0, "wait_burden_value": 0.15, "priority_score": 45.58, "normalized_priority_score": 65.02, "score_breakdown_json": { "no_shelter": { "label": "no shelter", "value": 1.0, "weight": 0.35, "score": 35.0 }, "low_tree_cover": { "label": "low tree cover", "value": 0.333, "weight": 0.25, "score": 8.33 }, "heat_burden": { "label": "high heat burden", "value": 0.0, "weight": 0.15, "score": 0.0 }, "wait_burden": { "label": "long scheduled wait exposure", "value": 0.15, "weight": 0.15, "score": 2.25 }, "no_bench": { "label": "nearby seating gap", "value": 0.0, "weight": 0.1, "score": 0.0 } }, "top_contributors": "no shelter, low tree cover, long scheduled wait exposure", "recommended_intervention": "Install a modular shade canopy.", "recommended_action_summary": "Shade canopy", "planner_note": "This stop is a high priority because it combines no shelter, low tree cover, and long scheduled wait exposure. The most practical near-term intervention is to install a modular shade canopy.", "planner_note_reason": "This stop is a high priority because it combines no shelter, low tree cover, and long scheduled wait exposure.", "planner_note_recommendation": "The most practical near-term intervention is to install a modular shade canopy.", "planner_note_urgency": "High", "planner_note_source": "Deterministic fallback" }, "geometry": { "type": "Point", "coordinates": [ -73.974122, 40.751085 ] } },
{ "type": "Feature", "properties": { "stop_id": "405061", "stop_sequence": 6, "stop_name": "3 AV/E 21 ST", "stop_lat": 40.737436, "stop_lon": -73.984124, "avg_headway_minutes": 8.0, "scheduled_departures_in_window": 0, "route_id": "M101", "route_short_name": "M101", "direction_id": 0, "trip_headsign": "FT GEORGE via 3 AV via AMSTERDAM AV", "service_date": "2026-04-24", "wait_source": "MTA GTFS window 12:00:00-18:00:00", "has_shelter": false, "shelter_distance_ft": 658.6, "shelter_source": "NYC DOT Bus Stop Shelters", "has_nearby_seating": true, "seating_distance_ft": 50.6, "bench_source": "NYC DOT Seating Locations", "nearby_tree_count": 5, "nearby_tree_dbh_sum": 62.0, "tree_source": "NYC Street Tree Census", "weather_point_lat": 40.740759, "weather_point_lon": -73.981674, "weather_metric_used": "apparentTemperature", "weather_metric_display": "Feels-like temperature", "max_weather_value_f": 63.0, "heat_burden_score": 0.0, "weather_source": "https://api.weather.gov/gridpoints/OKX/34,43", "weather_source_label": "NWS / weather.gov", "weather_point_url": "https://api.weather.gov/points/40.740759,-73.981674", "weather_updated_at": "2026-04-24T11:02:02+00:00", "weather_refreshed_at": "2026-04-24T15:30:17.800398-04:00", "weather_horizon_hours": 8, "weather_summary": "Feels-like temperature forecast used for the next 8 hours", "resolved_image_path": null, "image_provider": null, "image_source_url": null, "image_attribution_url": null, "image_author": null, "image_license": null, "image_capture_date": null, "image_distance_m": null, "image_fetch_status": "no nearby public image found", "image_available": false, "image_path": null, "visible_tree_ratio": null, "open_sky_ratio": null, "shelter_image_estimate": null, "shelter_image_confidence": null, "bench_image_estimate": null, "bench_image_confidence": null, "vision_method": null, "vision_error": "image unavailable", "route_rank": 6, "corridor_name": "New York City M101 direction 0", "corridor_id": "m101__dir_0", "shelter_present_effective": false, "bench_present_effective": true, "combined_tree_cover_score": 0.83333333333333337, "no_shelter_value": 1.0, "no_bench_value": 0.0, "low_tree_cover_value": 0.16666666666666663, "heat_burden_value": 0.0, "wait_burden_value": 0.15, "priority_score": 41.42, "normalized_priority_score": 56.91, "score_breakdown_json": { "no_shelter": { "label": "no shelter", "value": 1.0, "weight": 0.35, "score": 35.0 }, "low_tree_cover": { "label": "low tree cover", "value": 0.167, "weight": 0.25, "score": 4.17 }, "heat_burden": { "label": "high heat burden", "value": 0.0, "weight": 0.15, "score": 0.0 }, "wait_burden": { "label": "long scheduled wait exposure", "value": 0.15, "weight": 0.15, "score": 2.25 }, "no_bench": { "label": "nearby seating gap", "value": 0.0, "weight": 0.1, "score": 0.0 } }, "top_contributors": "no shelter, low tree cover, long scheduled wait exposure", "recommended_intervention": "Install a modular shade canopy.", "recommended_action_summary": "Shade canopy", "planner_note": "This stop is a medium priority because it combines no shelter, low tree cover, and long scheduled wait exposure. The most practical near-term intervention is to install a modular shade canopy.", "planner_note_reason": "This stop is a medium priority because it combines no shelter, low tree cover, and long scheduled wait exposure.", "planner_note_recommendation": "The most practical near-term intervention is to install a modular shade canopy.", "planner_note_urgency": "Medium", "planner_note_source": "Deterministic fallback" }, "geometry": { "type": "Point", "coordinates": [ -73.984124, 40.737436 ] } },
{ "type": "Feature", "properties": { "stop_id": "403526", "stop_sequence": 3, "stop_name": "3 AV/E 11 ST", "stop_lat": 40.73168, "stop_lon": -73.988278, "avg_headway_minutes": 8.0, "scheduled_departures_in_window": 0, "route_id": "M101", "route_short_name": "M101", "direction_id": 0, "trip_headsign": "FT GEORGE via 3 AV via AMSTERDAM AV", "service_date": "2026-04-24", "wait_source": "MTA GTFS window 12:00:00-18:00:00", "has_shelter": false, "shelter_distance_ft": 523.4, "shelter_source": "NYC DOT Bus Stop Shelters", "has_nearby_seating": true, "seating_distance_ft": 49.3, "bench_source": "NYC DOT Seating Locations", "nearby_tree_count": 6, "nearby_tree_dbh_sum": 38.0, "tree_source": "NYC Street Tree Census", "weather_point_lat": 40.740759, "weather_point_lon": -73.981674, "weather_metric_used": "apparentTemperature", "weather_metric_display": "Feels-like temperature", "max_weather_value_f": 63.0, "heat_burden_score": 0.0, "weather_source": "https://api.weather.gov/gridpoints/OKX/34,43", "weather_source_label": "NWS / weather.gov", "weather_point_url": "https://api.weather.gov/points/40.740759,-73.981674", "weather_updated_at": "2026-04-24T11:02:02+00:00", "weather_refreshed_at": "2026-04-24T15:30:17.800398-04:00", "weather_horizon_hours": 8, "weather_summary": "Feels-like temperature forecast used for the next 8 hours", "resolved_image_path": null, "image_provider": null, "image_source_url": null, "image_attribution_url": null, "image_author": null, "image_license": null, "image_capture_date": null, "image_distance_m": null, "image_fetch_status": "no nearby public image found", "image_available": false, "image_path": null, "visible_tree_ratio": null, "open_sky_ratio": null, "shelter_image_estimate": null, "shelter_image_confidence": null, "bench_image_estimate": null, "bench_image_confidence": null, "vision_method": null, "vision_error": "image unavailable", "route_rank": 3, "corridor_name": "New York City M101 direction 0", "corridor_id": "m101__dir_0", "shelter_present_effective": false, "bench_present_effective": true, "combined_tree_cover_score": 1.0, "no_shelter_value": 1.0, "no_bench_value": 0.0, "low_tree_cover_value": 0.0, "heat_burden_value": 0.0, "wait_burden_value": 0.15, "priority_score": 37.25, "normalized_priority_score": 48.78, "score_breakdown_json": { "no_shelter": { "label": "no shelter", "value": 1.0, "weight": 0.35, "score": 35.0 }, "low_tree_cover": { "label": "low tree cover", "value": 0.0, "weight": 0.25, "score": 0.0 }, "heat_burden": { "label": "high heat burden", "value": 0.0, "weight": 0.15, "score": 0.0 }, "wait_burden": { "label": "long scheduled wait exposure", "value": 0.15, "weight": 0.15, "score": 2.25 }, "no_bench": { "label": "nearby seating gap", "value": 0.0, "weight": 0.1, "score": 0.0 } }, "top_contributors": "no shelter, long scheduled wait exposure", "recommended_intervention": "Install a modular shade canopy.", "recommended_action_summary": "Shade canopy", "planner_note": "This stop is a medium priority because it combines no shelter and long scheduled wait exposure. The most practical near-term intervention is to install a modular shade canopy.", "planner_note_reason": "This stop is a medium priority because it combines no shelter and long scheduled wait exposure.", "planner_note_recommendation": "The most practical near-term intervention is to install a modular shade canopy.", "planner_note_urgency": "Medium", "planner_note_source": "Deterministic fallback" }, "geometry": { "type": "Point", "coordinates": [ -73.988278, 40.73168 ] } },
{ "type": "Feature", "properties": { "stop_id": "402674", "stop_sequence": 9, "stop_name": "3 AV/E 29 ST", "stop_lat": 40.742894, "stop_lon": -73.980105, "avg_headway_minutes": 8.0, "scheduled_departures_in_window": 0, "route_id": "M101", "route_short_name": "M101", "direction_id": 0, "trip_headsign": "FT GEORGE via 3 AV via AMSTERDAM AV", "service_date": "2026-04-24", "wait_source": "MTA GTFS window 12:00:00-18:00:00", "has_shelter": true, "shelter_distance_ft": 26.4, "shelter_source": "NYC DOT Bus Stop Shelters", "has_nearby_seating": false, "seating_distance_ft": 309.6, "bench_source": "NYC DOT Seating Locations", "nearby_tree_count": 5, "nearby_tree_dbh_sum": 43.0, "tree_source": "NYC Street Tree Census", "weather_point_lat": 40.740759, "weather_point_lon": -73.981674, "weather_metric_used": "apparentTemperature", "weather_metric_display": "Feels-like temperature", "max_weather_value_f": 63.0, "heat_burden_score": 0.0, "weather_source": "https://api.weather.gov/gridpoints/OKX/34,43", "weather_source_label": "NWS / weather.gov", "weather_point_url": "https://api.weather.gov/points/40.740759,-73.981674", "weather_updated_at": "2026-04-24T11:02:02+00:00", "weather_refreshed_at": "2026-04-24T15:30:17.800398-04:00", "weather_horizon_hours": 8, "weather_summary": "Feels-like temperature forecast used for the next 8 hours", "resolved_image_path": "/home/rithwik_amajala/code4city/data/raw/stop_images/mapillary_402674.jpg", "image_provider": "Mapillary", "image_source_url": "https://scontent-lga3-1.xx.fbcdn.net/m1/v/t6/An-DtuPLKhhRaF6x7grLSPVjus2G5hIw-974_xVAs6cS588NV3VhMiXjV58SYZxIjaWgttfNJwSP0mQgf8rM8Hy-J8CNgpQQMweZOSV9fcsoE_q7ajnPbrslJ8r8760DW9ld0pFvUjKVDXDj9fBMGA?stp=s1024x768&edm=ALXxkZ8EAAAA&_nc_gid=0aJdPwBEl1dbrGeKtvyAIw&_nc_oc=AdpxS1wWU4JtOHIQSYOO-T2FeZ3BgzAsszVEknuN4NPBLxSwxm9StDJOGfuHT25jyeE&ccb=10-6&oh=00_Af0VVRbpWtWefY7FDXTcMvqjbvhbgcm2vVvxfVh32srnTg&oe=6A134485&_nc_sid=201bca", "image_attribution_url": "https://www.mapillary.com/app/?pKey=292232312445440", "image_author": "smartmaper", "image_license": "Mapillary Terms of Use", "image_capture_date": "2019-12-15", "image_distance_m": 24.2, "image_fetch_status": "downloaded public image", "image_available": true, "image_path": "/home/rithwik_amajala/code4city/data/raw/stop_images/mapillary_402674.jpg", "visible_tree_ratio": 0.127, "open_sky_ratio": 0.398, "shelter_image_estimate": "True", "shelter_image_confidence": 1.0, "bench_image_estimate": "True", "bench_image_confidence": 1.0, "vision_method": "OpenCV color-mask and edge-line heuristics", "vision_error": null, "route_rank": 9, "corridor_name": "New York City M101 direction 0", "corridor_id": "m101__dir_0", "shelter_present_effective": true, "bench_present_effective": false, "combined_tree_cover_score": 0.48016666666666669, "no_shelter_value": 0.0, "no_bench_value": 1.0, "low_tree_cover_value": 0.51983333333333337, "heat_burden_value": 0.0, "wait_burden_value": 0.15, "priority_score": 25.25, "normalized_priority_score": 25.39, "score_breakdown_json": { "no_shelter": { "label": "no shelter", "value": 0.0, "weight": 0.35, "score": 0.0 }, "low_tree_cover": { "label": "low tree cover", "value": 0.52, "weight": 0.25, "score": 13.0 }, "heat_burden": { "label": "high heat burden", "value": 0.0, "weight": 0.15, "score": 0.0 }, "wait_burden": { "label": "long scheduled wait exposure", "value": 0.15, "weight": 0.15, "score": 2.25 }, "no_bench": { "label": "nearby seating gap", "value": 1.0, "weight": 0.1, "score": 10.0 } }, "top_contributors": "low tree cover, nearby seating gap, long scheduled wait exposure", "recommended_intervention": "Add seating.", "recommended_action_summary": "Add seating", "planner_note": "This stop is a low priority because it combines low tree cover, nearby seating gap, and long scheduled wait exposure. The most practical near-term intervention is to add seating.", "planner_note_reason": "This stop is a low priority because it combines low tree cover, nearby seating gap, and long scheduled wait exposure.", "planner_note_recommendation": "The most practical near-term intervention is to add seating.", "planner_note_urgency": "Low", "planner_note_source": "Deterministic fallback" }, "geometry": { "type": "Point", "coordinates": [ -73.980105, 40.742894 ] } },
{ "type": "Feature", "properties": { "stop_id": "402670", "stop_sequence": 5, "stop_name": "3 AV/E 17 ST", "stop_lat": 40.735511, "stop_lon": -73.985465, "avg_headway_minutes": 8.0, "scheduled_departures_in_window": 0, "route_id": "M101", "route_short_name": "M101", "direction_id": 0, "trip_headsign": "FT GEORGE via 3 AV via AMSTERDAM AV", "service_date": "2026-04-24", "wait_source": "MTA GTFS window 12:00:00-18:00:00", "has_shelter": true, "shelter_distance_ft": 30.0, "shelter_source": "NYC DOT Bus Stop Shelters", "has_nearby_seating": false, "seating_distance_ft": 555.2, "bench_source": "NYC DOT Seating Locations", "nearby_tree_count": 7, "nearby_tree_dbh_sum": 72.0, "tree_source": "NYC Street Tree Census", "weather_point_lat": 40.740759, "weather_point_lon": -73.981674, "weather_metric_used": "apparentTemperature", "weather_metric_display": "Feels-like temperature", "max_weather_value_f": 63.0, "heat_burden_score": 0.0, "weather_source": "https://api.weather.gov/gridpoints/OKX/34,43", "weather_source_label": "NWS / weather.gov", "weather_point_url": "https://api.weather.gov/points/40.740759,-73.981674", "weather_updated_at": "2026-04-24T11:02:02+00:00", "weather_refreshed_at": "2026-04-24T15:30:17.800398-04:00", "weather_horizon_hours": 8, "weather_summary": "Feels-like temperature forecast used for the next 8 hours", "resolved_image_path": "/home/rithwik_amajala/code4city/data/raw/stop_images/mapillary_402670.jpg", "image_provider": "Mapillary", "image_source_url": "https://scontent-lga3-1.xx.fbcdn.net/m1/v/t6/An9XKidCoyHA542YAiqAR_AFTN5gzf1VU3drGriMiSBXrRso_RK0k16057u4VzRkinO7IQSnz_-_2t_mLF-bK3xmhu4XK7it5owSGpKgpe_0zXvCQY4vJlmMyhfEE9vPsikrLZvdGEKBH2klGxPgvw?stp=s1024x768&edm=ALXxkZ8EAAAA&_nc_gid=1bH9OaWfzJbPo4ah_9D2Hg&_nc_oc=AdoRJZ8DzVEgCxvEslXAfE-0k1rClLomysm9UoNlo8gvdoHBWF7Fc54D7h96dGOXwTw&ccb=10-5&oh=00_Af0R8C_YS--i2lLCdvHVpuIwptPNoCmywAWzKB29FlsYgA&oe=6A133F57&_nc_sid=201bca", "image_attribution_url": "https://www.mapillary.com/app/?pKey=470973027497509", "image_author": "smeginald", "image_license": "Mapillary Terms of Use", "image_capture_date": "2020-05-09", "image_distance_m": 34.5, "image_fetch_status": "downloaded public image", "image_available": true, "image_path": "/home/rithwik_amajala/code4city/data/raw/stop_images/mapillary_402670.jpg", "visible_tree_ratio": 0.045, "open_sky_ratio": 0.712, "shelter_image_estimate": "False", "shelter_image_confidence": 0.017, "bench_image_estimate": "False", "bench_image_confidence": 0.2, "vision_method": "OpenCV color-mask and edge-line heuristics", "vision_error": null, "route_rank": 5, "corridor_name": "New York City M101 direction 0", "corridor_id": "m101__dir_0", "shelter_present_effective": true, "bench_present_effective": false, "combined_tree_cover_score": 0.5225, "no_shelter_value": 0.0, "no_bench_value": 1.0, "low_tree_cover_value": 0.4775, "heat_burden_value": 0.0, "wait_burden_value": 0.15, "priority_score": 24.19, "normalized_priority_score": 23.32, "score_breakdown_json": { "no_shelter": { "label": "no shelter", "value": 0.0, "weight": 0.35, "score": 0.0 }, "low_tree_cover": { "label": "low tree cover", "value": 0.478, "weight": 0.25, "score": 11.94 }, "heat_burden": { "label": "high heat burden", "value": 0.0, "weight": 0.15, "score": 0.0 }, "wait_burden": { "label": "long scheduled wait exposure", "value": 0.15, "weight": 0.15, "score": 2.25 }, "no_bench": { "label": "nearby seating gap", "value": 1.0, "weight": 0.1, "score": 10.0 } }, "top_contributors": "low tree cover, nearby seating gap, long scheduled wait exposure", "recommended_intervention": "Add seating.", "recommended_action_summary": "Add seating", "planner_note": "This stop is a low priority because it combines low tree cover, nearby seating gap, and long scheduled wait exposure. The most practical near-term intervention is to add seating.", "planner_note_reason": "This stop is a low priority because it combines low tree cover, nearby seating gap, and long scheduled wait exposure.", "planner_note_recommendation": "The most practical near-term intervention is to add seating.", "planner_note_urgency": "Low", "planner_note_source": "Deterministic fallback" }, "geometry": { "type": "Point", "coordinates": [ -73.985465, 40.735511 ] } },
{ "type": "Feature", "properties": { "stop_id": "402680", "stop_sequence": 15, "stop_name": "3 AV/E 45 ST", "stop_lat": 40.752407, "stop_lon": -73.973161, "avg_headway_minutes": 8.0, "scheduled_departures_in_window": 0, "route_id": "M101", "route_short_name": "M101", "direction_id": 0, "trip_headsign": "FT GEORGE via 3 AV via AMSTERDAM AV", "service_date": "2026-04-24", "wait_source": "MTA GTFS window 12:00:00-18:00:00", "has_shelter": true, "shelter_distance_ft": 28.2, "shelter_source": "NYC DOT Bus Stop Shelters", "has_nearby_seating": false, "seating_distance_ft": 550.3, "bench_source": "NYC DOT Seating Locations", "nearby_tree_count": 6, "nearby_tree_dbh_sum": 40.0, "tree_source": "NYC Street Tree Census", "weather_point_lat": 40.740759, "weather_point_lon": -73.981674, "weather_metric_used": "apparentTemperature", "weather_metric_display": "Feels-like temperature", "max_weather_value_f": 63.0, "heat_burden_score": 0.0, "weather_source": "https://api.weather.gov/gridpoints/OKX/34,43", "weather_source_label": "NWS / weather.gov", "weather_point_url": "https://api.weather.gov/points/40.740759,-73.981674", "weather_updated_at": "2026-04-24T11:02:02+00:00", "weather_refreshed_at": "2026-04-24T15:30:17.800398-04:00", "weather_horizon_hours": 8, "weather_summary": "Feels-like temperature forecast used for the next 8 hours", "resolved_image_path": "/home/rithwik_amajala/code4city/data/raw/stop_images/mapillary_402680.jpg", "image_provider": "Mapillary", "image_source_url": "https://scontent-lga3-1.xx.fbcdn.net/m1/v/t6/An9m4VKCTc0y8sb27ilmV5lfEb1BE02EcbF8p16yciVtI0E-JrCyKK2A6EhkbzHCA8AHL1lwJcf0dWRxt7ykoIc6LmJnVgYCLowsS15S5Gvs8Ei0uJ09_Mxn4xSAXryJbwAMDLMc6YGFkP7YXuMBOQ?stp=s1024x768&edm=ALXxkZ8EAAAA&_nc_gid=qAlBF7_BC0qB6E-WfHUIqQ&_nc_oc=Adoxkk9ouDYj4O3BvAEbQcGt2lA78FHsgEfuw3YjOFMTjQc7cMMY-CD6ZvGzp7VJ634&ccb=10-5&oh=00_Af3oQEk6sAqeAyC9XRv6Sz_YDhFydZ7x6iluNsc66qnXtQ&oe=6A132429&_nc_sid=201bca", "image_attribution_url": "https://www.mapillary.com/app/?pKey=507337217061433", "image_author": "smartmaper", "image_license": "Mapillary Terms of Use", "image_capture_date": "2019-12-15", "image_distance_m": 18.5, "image_fetch_status": "downloaded public image", "image_available": true, "image_path": "/home/rithwik_amajala/code4city/data/raw/stop_images/mapillary_402680.jpg", "visible_tree_ratio": 0.086, "open_sky_ratio": 0.551, "shelter_image_estimate": "False", "shelter_image_confidence": 0.364, "bench_image_estimate": "False", "bench_image_confidence": 0.0, "vision_method": "OpenCV color-mask and edge-line heuristics", "vision_error": null, "route_rank": 15, "corridor_name": "New York City M101 direction 0", "corridor_id": "m101__dir_0", "shelter_present_effective": true, "bench_present_effective": false, "combined_tree_cover_score": 0.543, "no_shelter_value": 0.0, "no_bench_value": 1.0, "low_tree_cover_value": 0.457, "heat_burden_value": 0.0, "wait_burden_value": 0.15, "priority_score": 23.67, "normalized_priority_score": 22.3, "score_breakdown_json": { "no_shelter": { "label": "no shelter", "value": 0.0, "weight": 0.35, "score": 0.0 }, "low_tree_cover": { "label": "low tree cover", "value": 0.457, "weight": 0.25, "score": 11.42 }, "heat_burden": { "label": "high heat burden", "value": 0.0, "weight": 0.15, "score": 0.0 }, "wait_burden": { "label": "long scheduled wait exposure", "value": 0.15, "weight": 0.15, "score": 2.25 }, "no_bench": { "label": "nearby seating gap", "value": 1.0, "weight": 0.1, "score": 10.0 } }, "top_contributors": "low tree cover, nearby seating gap, long scheduled wait exposure", "recommended_intervention": "Add seating.", "recommended_action_summary": "Add seating", "planner_note": "This stop is a low priority because it combines low tree cover, nearby seating gap, and long scheduled wait exposure. The most practical near-term intervention is to add seating.", "planner_note_reason": "This stop is a low priority because it combines low tree cover, nearby seating gap, and long scheduled wait exposure.", "planner_note_recommendation": "The most practical near-term intervention is to add seating.", "planner_note_urgency": "Low", "planner_note_source": "Deterministic fallback" }, "geometry": { "type": "Point", "coordinates": [ -73.973161, 40.752407 ] } },
{ "type": "Feature", "properties": { "stop_id": "402677", "stop_sequence": 12, "stop_name": "3 AV/E 37 ST", "stop_lat": 40.747988, "stop_lon": -73.97637, "avg_headway_minutes": 8.0, "scheduled_departures_in_window": 0, "route_id": "M101", "route_short_name": "M101", "direction_id": 0, "trip_headsign": "FT GEORGE via 3 AV via AMSTERDAM AV", "service_date": "2026-04-24", "wait_source": "MTA GTFS window 12:00:00-18:00:00", "has_shelter": true, "shelter_distance_ft": 31.0, "shelter_source": "NYC DOT Bus Stop Shelters", "has_nearby_seating": false, "seating_distance_ft": 477.9, "bench_source": "NYC DOT Seating Locations", "nearby_tree_count": 9, "nearby_tree_dbh_sum": 74.0, "tree_source": "NYC Street Tree Census", "weather_point_lat": 40.740759, "weather_point_lon": -73.981674, "weather_metric_used": "apparentTemperature", "weather_metric_display": "Feels-like temperature", "max_weather_value_f": 63.0, "heat_burden_score": 0.0, "weather_source": "https://api.weather.gov/gridpoints/OKX/34,43", "weather_source_label": "NWS / weather.gov", "weather_point_url": "https://api.weather.gov/points/40.740759,-73.981674", "weather_updated_at": "2026-04-24T11:02:02+00:00", "weather_refreshed_at": "2026-04-24T15:30:17.800398-04:00", "weather_horizon_hours": 8, "weather_summary": "Feels-like temperature forecast used for the next 8 hours", "resolved_image_path": null, "image_provider": null, "image_source_url": null, "image_attribution_url": null, "image_author": null, "image_license": null, "image_capture_date": null, "image_distance_m": null, "image_fetch_status": "no nearby public image found", "image_available": false, "image_path": null, "visible_tree_ratio": null, "open_sky_ratio": null, "shelter_image_estimate": null, "shelter_image_confidence": null, "bench_image_estimate": null, "bench_image_confidence": null, "vision_method": null, "vision_error": "image unavailable", "route_rank": 12, "corridor_name": "New York City M101 direction 0", "corridor_id": "m101__dir_0", "shelter_present_effective": true, "bench_present_effective": false, "combined_tree_cover_score": 1.0, "no_shelter_value": 0.0, "no_bench_value": 1.0, "low_tree_cover_value": 0.0, "heat_burden_value": 0.0, "wait_burden_value": 0.15, "priority_score": 12.25, "normalized_priority_score": 0.04, "score_breakdown_json": { "no_shelter": { "label": "no shelter", "value": 0.0, "weight": 0.35, "score": 0.0 }, "low_tree_cover": { "label": "low tree cover", "value": 0.0, "weight": 0.25, "score": 0.0 }, "heat_burden": { "label": "high heat burden", "value": 0.0, "weight": 0.15, "score": 0.0 }, "wait_burden": { "label": "long scheduled wait exposure", "value": 0.15, "weight": 0.15, "score": 2.25 }, "no_bench": { "label": "nearby seating gap", "value": 1.0, "weight": 0.1, "score": 10.0 } }, "top_contributors": "nearby seating gap, long scheduled wait exposure", "recommended_intervention": "Add seating.", "recommended_action_summary": "Add seating", "planner_note": "This stop is a low priority because it combines nearby seating gap and long scheduled wait exposure. The most practical near-term intervention is to add seating.", "planner_note_reason": "This stop is a low priority because it combines nearby seating gap and long scheduled wait exposure.", "planner_note_recommendation": "The most practical near-term intervention is to add seating.", "planner_note_urgency": "Low", "planner_note_source": "Deterministic fallback" }, "geometry": { "type": "Point", "coordinates": [ -73.97637, 40.747988 ] } },
{ "type": "Feature", "properties": { "stop_id": "403913", "stop_sequence": 4, "stop_name": "3 AV/E 14 ST", "stop_lat": 40.733689, "stop_lon": -73.986787, "avg_headway_minutes": 7.97, "scheduled_departures_in_window": 45, "route_id": "M101", "route_short_name": "M101", "direction_id": 0, "trip_headsign": "FT GEORGE via 3 AV via AMSTERDAM AV", "service_date": "2026-04-24", "wait_source": "MTA GTFS window 12:00:00-18:00:00", "has_shelter": true, "shelter_distance_ft": 25.1, "shelter_source": "NYC DOT Bus Stop Shelters", "has_nearby_seating": false, "seating_distance_ft": 522.5, "bench_source": "NYC DOT Seating Locations", "nearby_tree_count": 7, "nearby_tree_dbh_sum": 51.0, "tree_source": "NYC Street Tree Census", "weather_point_lat": 40.740759, "weather_point_lon": -73.981674, "weather_metric_used": "apparentTemperature", "weather_metric_display": "Feels-like temperature", "max_weather_value_f": 63.0, "heat_burden_score": 0.0, "weather_source": "https://api.weather.gov/gridpoints/OKX/34,43", "weather_source_label": "NWS / weather.gov", "weather_point_url": "https://api.weather.gov/points/40.740759,-73.981674", "weather_updated_at": "2026-04-24T11:02:02+00:00", "weather_refreshed_at": "2026-04-24T15:30:17.800398-04:00", "weather_horizon_hours": 8, "weather_summary": "Feels-like temperature forecast used for the next 8 hours", "resolved_image_path": null, "image_provider": null, "image_source_url": null, "image_attribution_url": null, "image_author": null, "image_license": null, "image_capture_date": null, "image_distance_m": null, "image_fetch_status": "no nearby public image found", "image_available": false, "image_path": null, "visible_tree_ratio": null, "open_sky_ratio": null, "shelter_image_estimate": null, "shelter_image_confidence": null, "bench_image_estimate": null, "bench_image_confidence": null, "vision_method": null, "vision_error": "image unavailable", "route_rank": 4, "corridor_name": "New York City M101 direction 0", "corridor_id": "m101__dir_0", "shelter_present_effective": true, "bench_present_effective": false, "combined_tree_cover_score": 1.0, "no_shelter_value": 0.0, "no_bench_value": 1.0, "low_tree_cover_value": 0.0, "heat_burden_value": 0.0, "wait_burden_value": 0.1485, "priority_score": 12.23, "normalized_priority_score": 0.0, "score_breakdown_json": { "no_shelter": { "label": "no shelter", "value": 0.0, "weight": 0.35, "score": 0.0 }, "low_tree_cover": { "label": "low tree cover", "value": 0.0, "weight": 0.25, "score": 0.0 }, "heat_burden": { "label": "high heat burden", "value": 0.0, "weight": 0.15, "score": 0.0 }, "wait_burden": { "label": "long scheduled wait exposure", "value": 0.148, "weight": 0.15, "score": 2.23 }, "no_bench": { "label": "nearby seating gap", "value": 1.0, "weight": 0.1, "score": 10.0 } }, "top_contributors": "nearby seating gap, long scheduled wait exposure", "recommended_intervention": "Add seating.", "recommended_action_summary": "Add seating", "planner_note": "This stop is a low priority because it combines nearby seating gap and long scheduled wait exposure. The most practical near-term intervention is to add seating.", "planner_note_reason": "This stop is a low priority because it combines nearby seating gap and long scheduled wait exposure.", "planner_note_recommendation": "The most practical near-term intervention is to add seating.", "planner_note_urgency": "Low", "planner_note_source": "Deterministic fallback" }, "geometry": { "type": "Point", "coordinates": [ -73.986787, 40.733689 ] } }
]
}
