{
"type": "FeatureCollection",
"name": "stops_scored",
"crs": { "type": "name", "properties": { "name": "urn:ogc:def:crs:OGC:1.3:CRS84" } },
"features": [
{ "type": "Feature", "properties": { "stop_id": "405083", "stop_sequence": 1, "stop_name": "SOUTH ST/WHITEHALL ST", "stop_lat": 40.701556, "stop_lon": -74.012461, "avg_headway_minutes": 19.22, "scheduled_departures_in_window": 19, "route_id": "M15", "route_short_name": "M15", "direction_id": 0, "trip_headsign": "EAST HARLEM 125 ST via 1 AV", "service_date": "2026-04-24", "wait_source": "MTA GTFS window 12:00:00-18:00:00", "has_shelter": false, "shelter_distance_ft": 2031.4, "shelter_source": "NYC DOT Bus Stop Shelters", "has_nearby_seating": false, "seating_distance_ft": 1382.2, "bench_source": "NYC DOT Seating Locations", "nearby_tree_count": 0, "nearby_tree_dbh_sum": 0.0, "tree_source": "NYC Street Tree Census", "weather_point_lat": 40.711645, "weather_point_lon": -73.998712, "weather_metric_used": "apparentTemperature", "weather_metric_display": "Feels-like temperature", "max_weather_value_f": 63.0, "heat_burden_score": 0.0, "weather_source": "https://api.weather.gov/gridpoints/OKX/34,42", "weather_source_label": "NWS / weather.gov", "weather_point_url": "https://api.weather.gov/points/40.711645,-73.998712", "weather_updated_at": "2026-04-24T11:02:02+00:00", "weather_refreshed_at": "2026-04-24T15:29:38.584149-04:00", "weather_horizon_hours": 8, "weather_summary": "Feels-like temperature forecast used for the next 8 hours", "resolved_image_path": null, "image_provider": null, "image_source_url": null, "image_attribution_url": null, "image_author": null, "image_license": null, "image_capture_date": null, "image_distance_m": null, "image_fetch_status": "no nearby public image found", "image_available": false, "image_path": null, "visible_tree_ratio": null, "open_sky_ratio": null, "shelter_image_estimate": null, "shelter_image_confidence": null, "bench_image_estimate": null, "bench_image_confidence": null, "vision_method": null, "vision_error": "image unavailable", "route_rank": 1, "corridor_name": "New York City M15 direction 0", "corridor_id": "m15__dir_0", "shelter_present_effective": false, "bench_present_effective": false, "combined_tree_cover_score": 0.0, "no_shelter_value": 1.0, "no_bench_value": 1.0, "low_tree_cover_value": 1.0, "heat_burden_value": 0.0, "wait_burden_value": 0.711, "priority_score": 80.66, "normalized_priority_score": 100.0, "score_breakdown_json": { "no_shelter": { "label": "no shelter", "value": 1.0, "weight": 0.35, "score": 35.0 }, "low_tree_cover": { "label": "low tree cover", "value": 1.0, "weight": 0.25, "score": 25.0 }, "heat_burden": { "label": "high heat burden", "value": 0.0, "weight": 0.15, "score": 0.0 }, "wait_burden": { "label": "long scheduled wait exposure", "value": 0.711, "weight": 0.15, "score": 10.66 }, "no_bench": { "label": "nearby seating gap", "value": 1.0, "weight": 0.1, "score": 10.0 } }, "top_contributors": "no shelter, low tree cover, long scheduled wait exposure", "recommended_intervention": "Install a modular shade canopy, add seating, increase tree cover near the curb.", "recommended_action_summary": "Shade canopy | Add seating | Increase tree cover", "planner_note": "This stop is a critical priority because it combines no shelter, low tree cover, and long scheduled wait exposure. The most practical near-term intervention is to install a modular shade canopy, add seating, increase tree cover near the curb.", "planner_note_reason": "This stop is a critical priority because it combines no shelter, low tree cover, and long scheduled wait exposure.", "planner_note_recommendation": "The most practical near-term intervention is to install a modular shade canopy, add seating, increase tree cover near the curb.", "planner_note_urgency": "Critical", "planner_note_source": "Deterministic fallback" }, "geometry": { "type": "Point", "coordinates": [ -74.012461, 40.701556 ] } },
{ "type": "Feature", "properties": { "stop_id": "401664", "stop_sequence": 2, "stop_name": "WATER ST/BROAD ST", "stop_lat": 40.703036, "stop_lon": -74.010834, "avg_headway_minutes": 19.21, "scheduled_departures_in_window": 19, "route_id": "M15", "route_short_name": "M15", "direction_id": 0, "trip_headsign": "EAST HARLEM 125 ST via 1 AV", "service_date": "2026-04-24", "wait_source": "MTA GTFS window 12:00:00-18:00:00", "has_shelter": false, "shelter_distance_ft": 1338.5, "shelter_source": "NYC DOT Bus Stop Shelters", "has_nearby_seating": false, "seating_distance_ft": 679.7, "bench_source": "NYC DOT Seating Locations", "nearby_tree_count": 1, "nearby_tree_dbh_sum": 3.0, "tree_source": "NYC Street Tree Census", "weather_point_lat": 40.711645, "weather_point_lon": -73.998712, "weather_metric_used": "apparentTemperature", "weather_metric_display": "Feels-like temperature", "max_weather_value_f": 63.0, "heat_burden_score": 0.0, "weather_source": "https://api.weather.gov/gridpoints/OKX/34,42", "weather_source_label": "NWS / weather.gov", "weather_point_url": "https://api.weather.gov/points/40.711645,-73.998712", "weather_updated_at": "2026-04-24T11:02:02+00:00", "weather_refreshed_at": "2026-04-24T15:29:38.584149-04:00", "weather_horizon_hours": 8, "weather_summary": "Feels-like temperature forecast used for the next 8 hours", "resolved_image_path": "/home/rithwik_amajala/code4city/data/raw/stop_images/mapillary_401664.jpg", "image_provider": "Mapillary", "image_source_url": "https://scontent-lga3-1.xx.fbcdn.net/m1/v/t6/An_MtykTbu8FbTUe3g-zvtJKJkpAiOUsrsgOIDXEVSeDMgx2DaasvapHCJOeA029S6Vf73qd8svdGgzKTu272QJpNOGbxOzi0bkt6eEEwNLMCV0BUrXPjyd6vS39y7AekS5tbQ3J1vT3mGm7ddJnffw?stp=s1024x576&edm=ALXxkZ8EAAAA&_nc_gid=rTOJyy0ukaQ9ejEY2rZ03Q&_nc_oc=Adp-4YZ9uUBCP-x3832T3Q09PQtT_DHjcE3co2GGhANT8bDKxtCcSYM-SWj3KZSgCqw&ccb=10-5&oh=00_Af2XsabOQVAjfbxjetytxDlRjNuVhA_yH1TStDubrRivsQ&oe=6A134185&_nc_sid=201bca", "image_attribution_url": "https://www.mapillary.com/app/?pKey=151163150315500", "image_author": "lvl5", "image_license": "Mapillary Terms of Use", "image_capture_date": "2018-10-22", "image_distance_m": 16.2, "image_fetch_status": "downloaded public image", "image_available": true, "image_path": "/home/rithwik_amajala/code4city/data/raw/stop_images/mapillary_401664.jpg", "visible_tree_ratio": 0.017, "open_sky_ratio": 0.518, "shelter_image_estimate": "False", "shelter_image_confidence": 0.104, "bench_image_estimate": "False", "bench_image_confidence": 0.3, "vision_method": "OpenCV color-mask and edge-line heuristics", "vision_error": null, "route_rank": 2, "corridor_name": "New York City M15 direction 0", "corridor_id": "m15__dir_0", "shelter_present_effective": false, "bench_present_effective": false, "combined_tree_cover_score": 0.091833333333333322, "no_shelter_value": 1.0, "no_bench_value": 1.0, "low_tree_cover_value": 0.90816666666666668, "heat_burden_value": 0.0, "wait_burden_value": 0.7105, "priority_score": 78.36, "normalized_priority_score": 96.58, "score_breakdown_json": { "no_shelter": { "label": "no shelter", "value": 1.0, "weight": 0.35, "score": 35.0 }, "low_tree_cover": { "label": "low tree cover", "value": 0.908, "weight": 0.25, "score": 22.7 }, "heat_burden": { "label": "high heat burden", "value": 0.0, "weight": 0.15, "score": 0.0 }, "wait_burden": { "label": "long scheduled wait exposure", "value": 0.711, "weight": 0.15, "score": 10.66 }, "no_bench": { "label": "nearby seating gap", "value": 1.0, "weight": 0.1, "score": 10.0 } }, "top_contributors": "no shelter, low tree cover, long scheduled wait exposure", "recommended_intervention": "Install a modular shade canopy, add seating, increase tree cover near the curb.", "recommended_action_summary": "Shade canopy | Add seating | Increase tree cover", "planner_note": "This stop is a critical priority because it combines no shelter, low tree cover, and long scheduled wait exposure. The most practical near-term intervention is to install a modular shade canopy, add seating, increase tree cover near the curb.", "planner_note_reason": "This stop is a critical priority because it combines no shelter, low tree cover, and long scheduled wait exposure.", "planner_note_recommendation": "The most practical near-term intervention is to install a modular shade canopy, add seating, increase tree cover near the curb.", "planner_note_urgency": "Critical", "planner_note_source": "Deterministic fallback" }, "geometry": { "type": "Point", "coordinates": [ -74.010834, 40.703036 ] } },
{ "type": "Feature", "properties": { "stop_id": "402090", "stop_sequence": 9, "stop_name": "MADISON ST/MARKET ST", "stop_lat": 40.712207, "stop_lon": -73.994092, "avg_headway_minutes": 19.12, "scheduled_departures_in_window": 19, "route_id": "M15", "route_short_name": "M15", "direction_id": 0, "trip_headsign": "EAST HARLEM 125 ST via 1 AV", "service_date": "2026-04-24", "wait_source": "MTA GTFS window 12:00:00-18:00:00", "has_shelter": false, "shelter_distance_ft": 434.1, "shelter_source": "NYC DOT Bus Stop Shelters", "has_nearby_seating": false, "seating_distance_ft": 568.2, "bench_source": "NYC DOT Seating Locations", "nearby_tree_count": 5, "nearby_tree_dbh_sum": 19.0, "tree_source": "NYC Street Tree Census", "weather_point_lat": 40.711645, "weather_point_lon": -73.998712, "weather_metric_used": "apparentTemperature", "weather_metric_display": "Feels-like temperature", "max_weather_value_f": 63.0, "heat_burden_score": 0.0, "weather_source": "https://api.weather.gov/gridpoints/OKX/34,42", "weather_source_label": "NWS / weather.gov", "weather_point_url": "https://api.weather.gov/points/40.711645,-73.998712", "weather_updated_at": "2026-04-24T11:02:02+00:00", "weather_refreshed_at": "2026-04-24T15:29:38.584149-04:00", "weather_horizon_hours": 8, "weather_summary": "Feels-like temperature forecast used for the next 8 hours", "resolved_image_path": "/home/rithwik_amajala/code4city/data/raw/stop_images/mapillary_402090.jpg", "image_provider": "Mapillary", "image_source_url": "https://scontent-lga3-1.xx.fbcdn.net/m1/v/t6/An_tta1xwbE08Om3MtzlOl4JXsmkWTannx304pr943elagDIDYn8wizva1dKmVCsJRH5tCpwCIoiepS8qeQhLGCUQFp65egW6hsZ2W9PRDJDxcmT4jKvSNvHfl7uADRv2zCusHYpF7kEvD_3EgzIqg?stp=s1024x768&edm=ALXxkZ8EAAAA&_nc_gid=QhfHmXMndyAe433c0polVA&_nc_oc=AdrlLdKlsqk0uf6hscAEciaQYaFMQrMvLexqQk2QJqKyTTshC_zimNArcP_mgqqKK9s&ccb=10-5&oh=00_Af2L_TneKAPvIE4x4uqEyDN86qjyNNZitW3khSXcoKOd9w&oe=6A1347C1&_nc_sid=201bca", "image_attribution_url": "https://www.mapillary.com/app/?pKey=295964348634907", "image_author": "alyssa", "image_license": "Mapillary Terms of Use", "image_capture_date": "2017-05-22", "image_distance_m": 9.0, "image_fetch_status": "downloaded public image", "image_available": true, "image_path": "/home/rithwik_amajala/code4city/data/raw/stop_images/mapillary_402090.jpg", "visible_tree_ratio": 0.082, "open_sky_ratio": 0.121, "shelter_image_estimate": "False", "shelter_image_confidence": 0.283, "bench_image_estimate": "False", "bench_image_confidence": 0.0, "vision_method": "OpenCV color-mask and edge-line heuristics", "vision_error": null, "route_rank": 9, "corridor_name": "New York City M15 direction 0", "corridor_id": "m15__dir_0", "shelter_present_effective": false, "bench_present_effective": false, "combined_tree_cover_score": 0.45766666666666667, "no_shelter_value": 1.0, "no_bench_value": 1.0, "low_tree_cover_value": 0.54233333333333333, "heat_burden_value": 0.0, "wait_burden_value": 0.706, "priority_score": 69.15, "normalized_priority_score": 82.88, "score_breakdown_json": { "no_shelter": { "label": "no shelter", "value": 1.0, "weight": 0.35, "score": 35.0 }, "low_tree_cover": { "label": "low tree cover", "value": 0.542, "weight": 0.25, "score": 13.56 }, "heat_burden": { "label": "high heat burden", "value": 0.0, "weight": 0.15, "score": 0.0 }, "wait_burden": { "label": "long scheduled wait exposure", "value": 0.706, "weight": 0.15, "score": 10.59 }, "no_bench": { "label": "nearby seating gap", "value": 1.0, "weight": 0.1, "score": 10.0 } }, "top_contributors": "no shelter, low tree cover, long scheduled wait exposure", "recommended_intervention": "Install a modular shade canopy, add seating, review service spacing or stop consolidation.", "recommended_action_summary": "Shade canopy | Add seating | Service review", "planner_note": "This stop is a high priority because it combines no shelter, low tree cover, and long scheduled wait exposure. The most practical near-term intervention is to install a modular shade canopy, add seating, review service spacing or stop consolidation.", "planner_note_reason": "This stop is a high priority because it combines no shelter, low tree cover, and long scheduled wait exposure.", "planner_note_recommendation": "The most practical near-term intervention is to install a modular shade canopy, add seating, review service spacing or stop consolidation.", "planner_note_urgency": "High", "planner_note_source": "Deterministic fallback" }, "geometry": { "type": "Point", "coordinates": [ -73.994092, 40.712207 ] } },
{ "type": "Feature", "properties": { "stop_id": "404850", "stop_sequence": 5, "stop_name": "PEARL ST/FULTON ST", "stop_lat": 40.70755, "stop_lon": -74.003857, "avg_headway_minutes": 19.2, "scheduled_departures_in_window": 19, "route_id": "M15", "route_short_name": "M15", "direction_id": 0, "trip_headsign": "EAST HARLEM 125 ST via 1 AV", "service_date": "2026-04-24", "wait_source": "MTA GTFS window 12:00:00-18:00:00", "has_shelter": false, "shelter_distance_ft": 145.2, "shelter_source": "NYC DOT Bus Stop Shelters", "has_nearby_seating": false, "seating_distance_ft": 220.1, "bench_source": "NYC DOT Seating Locations", "nearby_tree_count": 5, "nearby_tree_dbh_sum": 73.0, "tree_source": "NYC Street Tree Census", "weather_point_lat": 40.711645, "weather_point_lon": -73.998712, "weather_metric_used": "apparentTemperature", "weather_metric_display": "Feels-like temperature", "max_weather_value_f": 63.0, "heat_burden_score": 0.0, "weather_source": "https://api.weather.gov/gridpoints/OKX/34,42", "weather_source_label": "NWS / weather.gov", "weather_point_url": "https://api.weather.gov/points/40.711645,-73.998712", "weather_updated_at": "2026-04-24T11:02:02+00:00", "weather_refreshed_at": "2026-04-24T15:29:38.584149-04:00", "weather_horizon_hours": 8, "weather_summary": "Feels-like temperature forecast used for the next 8 hours", "resolved_image_path": null, "image_provider": null, "image_source_url": null, "image_attribution_url": null, "image_author": null, "image_license": null, "image_capture_date": null, "image_distance_m": null, "image_fetch_status": "no nearby public image found", "image_available": false, "image_path": null, "visible_tree_ratio": null, "open_sky_ratio": null, "shelter_image_estimate": null, "shelter_image_confidence": null, "bench_image_estimate": null, "bench_image_confidence": null, "vision_method": null, "vision_error": "image unavailable", "route_rank": 5, "corridor_name": "New York City M15 direction 0", "corridor_id": "m15__dir_0", "shelter_present_effective": false, "bench_present_effective": false, "combined_tree_cover_score": 0.83333333333333337, "no_shelter_value": 1.0, "no_bench_value": 1.0, "low_tree_cover_value": 0.16666666666666663, "heat_burden_value": 0.0, "wait_burden_value": 0.71, "priority_score": 59.82, "normalized_priority_score": 69.0, "score_breakdown_json": { "no_shelter": { "label": "no shelter", "value": 1.0, "weight": 0.35, "score": 35.0 }, "low_tree_cover": { "label": "low tree cover", "value": 0.167, "weight": 0.25, "score": 4.17 }, "heat_burden": { "label": "high heat burden", "value": 0.0, "weight": 0.15, "score": 0.0 }, "wait_burden": { "label": "long scheduled wait exposure", "value": 0.71, "weight": 0.15, "score": 10.65 }, "no_bench": { "label": "nearby seating gap", "value": 1.0, "weight": 0.1, "score": 10.0 } }, "top_contributors": "no shelter, long scheduled wait exposure, nearby seating gap", "recommended_intervention": "Install a modular shade canopy, add seating, review service spacing or stop consolidation.", "recommended_action_summary": "Shade canopy | Add seating | Service review", "planner_note": "This stop is a high priority because it combines no shelter, long scheduled wait exposure, and nearby seating gap. The most practical near-term intervention is to install a modular shade canopy, add seating, review service spacing or stop consolidation.", "planner_note_reason": "This stop is a high priority because it combines no shelter, long scheduled wait exposure, and nearby seating gap.", "planner_note_recommendation": "The most practical near-term intervention is to install a modular shade canopy, add seating, review service spacing or stop consolidation.", "planner_note_urgency": "High", "planner_note_source": "Deterministic fallback" }, "geometry": { "type": "Point", "coordinates": [ -74.003857, 40.70755 ] } },
{ "type": "Feature", "properties": { "stop_id": "401665", "stop_sequence": 3, "stop_name": "WATER ST/OLD SLIP", "stop_lat": 40.704274, "stop_lon": -74.00849, "avg_headway_minutes": 19.21, "scheduled_departures_in_window": 19, "route_id": "M15", "route_short_name": "M15", "direction_id": 0, "trip_headsign": "EAST HARLEM 125 ST via 1 AV", "service_date": "2026-04-24", "wait_source": "MTA GTFS window 12:00:00-18:00:00", "has_shelter": false, "shelter_distance_ft": 550.6, "shelter_source": "NYC DOT Bus Stop Shelters", "has_nearby_seating": false, "seating_distance_ft": 188.8, "bench_source": "NYC DOT Seating Locations", "nearby_tree_count": 9, "nearby_tree_dbh_sum": 33.0, "tree_source": "NYC Street Tree Census", "weather_point_lat": 40.711645, "weather_point_lon": -73.998712, "weather_metric_used": "apparentTemperature", "weather_metric_display": "Feels-like temperature", "max_weather_value_f": 63.0, "heat_burden_score": 0.0, "weather_source": "https://api.weather.gov/gridpoints/OKX/34,42", "weather_source_label": "NWS / weather.gov", "weather_point_url": "https://api.weather.gov/points/40.711645,-73.998712", "weather_updated_at": "2026-04-24T11:02:02+00:00", "weather_refreshed_at": "2026-04-24T15:29:38.584149-04:00", "weather_horizon_hours": 8, "weather_summary": "Feels-like temperature forecast used for the next 8 hours", "resolved_image_path": null, "image_provider": null, "image_source_url": null, "image_attribution_url": null, "image_author": null, "image_license": null, "image_capture_date": null, "image_distance_m": null, "image_fetch_status": "no nearby public image found", "image_available": false, "image_path": null, "visible_tree_ratio": null, "open_sky_ratio": null, "shelter_image_estimate": null, "shelter_image_confidence": null, "bench_image_estimate": null, "bench_image_confidence": null, "vision_method": null, "vision_error": "image unavailable", "route_rank": 3, "corridor_name": "New York City M15 direction 0", "corridor_id": "m15__dir_0", "shelter_present_effective": false, "bench_present_effective": false, "combined_tree_cover_score": 1.0, "no_shelter_value": 1.0, "no_bench_value": 1.0, "low_tree_cover_value": 0.0, "heat_burden_value": 0.0, "wait_burden_value": 0.7105, "priority_score": 55.66, "normalized_priority_score": 62.81, "score_breakdown_json": { "no_shelter": { "label": "no shelter", "value": 1.0, "weight": 0.35, "score": 35.0 }, "low_tree_cover": { "label": "low tree cover", "value": 0.0, "weight": 0.25, "score": 0.0 }, "heat_burden": { "label": "high heat burden", "value": 0.0, "weight": 0.15, "score": 0.0 }, "wait_burden": { "label": "long scheduled wait exposure", "value": 0.711, "weight": 0.15, "score": 10.66 }, "no_bench": { "label": "nearby seating gap", "value": 1.0, "weight": 0.1, "score": 10.0 } }, "top_contributors": "no shelter, long scheduled wait exposure, nearby seating gap", "recommended_intervention": "Install a modular shade canopy, add seating, review service spacing or stop consolidation.", "recommended_action_summary": "Shade canopy | Add seating | Service review", "planner_note": "This stop is a medium priority because it combines no shelter, long scheduled wait exposure, and nearby seating gap. The most practical near-term intervention is to install a modular shade canopy, add seating, review service spacing or stop consolidation.", "planner_note_reason": "This stop is a medium priority because it combines no shelter, long scheduled wait exposure, and nearby seating gap.", "planner_note_recommendation": "The most practical near-term intervention is to install a modular shade canopy, add seating, review service spacing or stop consolidation.", "planner_note_urgency": "Medium", "planner_note_source": "Deterministic fallback" }, "geometry": { "type": "Point", "coordinates": [ -74.00849, 40.704274 ] } },
{ "type": "Feature", "properties": { "stop_id": "401679", "stop_sequence": 13, "stop_name": "ALLEN ST/DELANCEY ST", "stop_lat": 40.719558, "stop_lon": -73.989999, "avg_headway_minutes": 9.57, "scheduled_departures_in_window": 37, "route_id": "M15", "route_short_name": "M15", "direction_id": 0, "trip_headsign": "EAST HARLEM 125 ST via 1 AV", "service_date": "2026-04-24", "wait_source": "MTA GTFS window 12:00:00-18:00:00", "has_shelter": false, "shelter_distance_ft": 883.8, "shelter_source": "NYC DOT Bus Stop Shelters", "has_nearby_seating": false, "seating_distance_ft": 113.1, "bench_source": "NYC DOT Seating Locations", "nearby_tree_count": 5, "nearby_tree_dbh_sum": 57.0, "tree_source": "NYC Street Tree Census", "weather_point_lat": 40.711645, "weather_point_lon": -73.998712, "weather_metric_used": "apparentTemperature", "weather_metric_display": "Feels-like temperature", "max_weather_value_f": 63.0, "heat_burden_score": 0.0, "weather_source": "https://api.weather.gov/gridpoints/OKX/34,42", "weather_source_label": "NWS / weather.gov", "weather_point_url": "https://api.weather.gov/points/40.711645,-73.998712", "weather_updated_at": "2026-04-24T11:02:02+00:00", "weather_refreshed_at": "2026-04-24T15:29:38.584149-04:00", "weather_horizon_hours": 8, "weather_summary": "Feels-like temperature forecast used for the next 8 hours", "resolved_image_path": null, "image_provider": null, "image_source_url": null, "image_attribution_url": null, "image_author": null, "image_license": null, "image_capture_date": null, "image_distance_m": null, "image_fetch_status": "no nearby public image found", "image_available": false, "image_path": null, "visible_tree_ratio": null, "open_sky_ratio": null, "shelter_image_estimate": null, "shelter_image_confidence": null, "bench_image_estimate": null, "bench_image_confidence": null, "vision_method": null, "vision_error": "image unavailable", "route_rank": 13, "corridor_name": "New York City M15 direction 0", "corridor_id": "m15__dir_0", "shelter_present_effective": false, "bench_present_effective": false, "combined_tree_cover_score": 0.83333333333333337, "no_shelter_value": 1.0, "no_bench_value": 1.0, "low_tree_cover_value": 0.16666666666666663, "heat_burden_value": 0.0, "wait_burden_value": 0.2285, "priority_score": 52.6, "normalized_priority_score": 58.26, "score_breakdown_json": { "no_shelter": { "label": "no shelter", "value": 1.0, "weight": 0.35, "score": 35.0 }, "low_tree_cover": { "label": "low tree cover", "value": 0.167, "weight": 0.25, "score": 4.17 }, "heat_burden": { "label": "high heat burden", "value": 0.0, "weight": 0.15, "score": 0.0 }, "wait_burden": { "label": "long scheduled wait exposure", "value": 0.229, "weight": 0.15, "score": 3.43 }, "no_bench": { "label": "nearby seating gap", "value": 1.0, "weight": 0.1, "score": 10.0 } }, "top_contributors": "no shelter, nearby seating gap, low tree cover", "recommended_intervention": "Install a modular shade canopy, add seating.", "recommended_action_summary": "Shade canopy | Add seating", "planner_note": "This stop is a medium priority because it combines no shelter, nearby seating gap, and low tree cover. The most practical near-term intervention is to install a modular shade canopy, add seating.", "planner_note_reason": "This stop is a medium priority because it combines no shelter, nearby seating gap, and low tree cover.", "planner_note_recommendation": "The most practical near-term intervention is to install a modular shade canopy, add seating.", "planner_note_urgency": "Medium", "planner_note_source": "Deterministic fallback" }, "geometry": { "type": "Point", "coordinates": [ -73.989999, 40.719558 ] } },
{ "type": "Feature", "properties": { "stop_id": "404843", "stop_sequence": 10, "stop_name": "PIKE ST/MADISON ST", "stop_lat": 40.71288, "stop_lon": -73.992288, "avg_headway_minutes": 9.54, "scheduled_departures_in_window": 38, "route_id": "M15", "route_short_name": "M15", "direction_id": 0, "trip_headsign": "EAST HARLEM 125 ST via 1 AV", "service_date": "2026-04-24", "wait_source": "MTA GTFS window 12:00:00-18:00:00", "has_shelter": false, "shelter_distance_ft": 122.9, "shelter_source": "NYC DOT Bus Stop Shelters", "has_nearby_seating": true, "seating_distance_ft": 11.3, "bench_source": "NYC DOT Seating Locations", "nearby_tree_count": 10, "nearby_tree_dbh_sum": 125.0, "tree_source": "NYC Street Tree Census", "weather_point_lat": 40.711645, "weather_point_lon": -73.998712, "weather_metric_used": "apparentTemperature", "weather_metric_display": "Feels-like temperature", "max_weather_value_f": 63.0, "heat_burden_score": 0.0, "weather_source": "https://api.weather.gov/gridpoints/OKX/34,42", "weather_source_label": "NWS / weather.gov", "weather_point_url": "https://api.weather.gov/points/40.711645,-73.998712", "weather_updated_at": "2026-04-24T11:02:02+00:00", "weather_refreshed_at": "2026-04-24T15:29:38.584149-04:00", "weather_horizon_hours": 8, "weather_summary": "Feels-like temperature forecast used for the next 8 hours", "resolved_image_path": "/home/rithwik_amajala/code4city/data/raw/stop_images/mapillary_404843.jpg", "image_provider": "Mapillary", "image_source_url": "https://scontent-lga3-1.xx.fbcdn.net/m1/v/t6/An9pAg2NpEeqfdPHQHhsamHheNBj2iIcq_4sTa8w8_Q_QNezh1f81PKrvDtnuCXlVH_O5B6jcqyOQ5u0cUOat5n6mc3RWB9THA9TsgR0QXfHHkWtrSVRnxrGDNh_i-7TW_aIe0VmqbGRdut9mSVNWw?stp=s1024x576&edm=ALXxkZ8EAAAA&_nc_gid=tOb7F9QEWlux8Pn4QPD-kA&_nc_oc=Adr8siLkKP6dExcQh_wcQdP_SxKiRIKmw7HAB076nh_EDqcYOB0UE91ZSW3vOuEcKHQ&ccb=10-5&oh=00_Af3BrignpNyGx6yztz7QA_tSIrr2I2tTZjQUC9GM3lKeTw&oe=6A13502F&_nc_sid=201bca", "image_attribution_url": "https://www.mapillary.com/app/?pKey=2995545077237377", "image_author": "bhousel", "image_license": "Mapillary Terms of Use", "image_capture_date": "2016-08-12", "image_distance_m": 27.2, "image_fetch_status": "downloaded public image", "image_available": true, "image_path": "/home/rithwik_amajala/code4city/data/raw/stop_images/mapillary_404843.jpg", "visible_tree_ratio": 0.099, "open_sky_ratio": 0.5, "shelter_image_estimate": "False", "shelter_image_confidence": 0.181, "bench_image_estimate": "False", "bench_image_confidence": 0.1, "vision_method": "OpenCV color-mask and edge-line heuristics", "vision_error": null, "route_rank": 10, "corridor_name": "New York City M15 direction 0", "corridor_id": "m15__dir_0", "shelter_present_effective": false, "bench_present_effective": true, "combined_tree_cover_score": 0.5495, "no_shelter_value": 1.0, "no_bench_value": 0.0, "low_tree_cover_value": 0.4505, "heat_burden_value": 0.0, "wait_burden_value": 0.227, "priority_score": 49.66, "normalized_priority_score": 53.89, "score_breakdown_json": { "no_shelter": { "label": "no shelter", "value": 1.0, "weight": 0.35, "score": 35.0 }, "low_tree_cover": { "label": "low tree cover", "value": 0.451, "weight": 0.25, "score": 11.26 }, "heat_burden": { "label": "high heat burden", "value": 0.0, "weight": 0.15, "score": 0.0 }, "wait_burden": { "label": "long scheduled wait exposure", "value": 0.227, "weight": 0.15, "score": 3.4 }, "no_bench": { "label": "nearby seating gap", "value": 0.0, "weight": 0.1, "score": 0.0 } }, "top_contributors": "no shelter, low tree cover, long scheduled wait exposure", "recommended_intervention": "Install a modular shade canopy.", "recommended_action_summary": "Shade canopy", "planner_note": "This stop is a medium priority because it combines no shelter, low tree cover, and long scheduled wait exposure. The most practical near-term intervention is to install a modular shade canopy.", "planner_note_reason": "This stop is a medium priority because it combines no shelter, low tree cover, and long scheduled wait exposure.", "planner_note_recommendation": "The most practical near-term intervention is to install a modular shade canopy.", "planner_note_urgency": "Medium", "planner_note_source": "Deterministic fallback" }, "geometry": { "type": "Point", "coordinates": [ -73.992288, 40.71288 ] } },
{ "type": "Feature", "properties": { "stop_id": "401666", "stop_sequence": 4, "stop_name": "WATER ST/WALL ST", "stop_lat": 40.705287, "stop_lon": -74.007109, "avg_headway_minutes": 19.21, "scheduled_departures_in_window": 19, "route_id": "M15", "route_short_name": "M15", "direction_id": 0, "trip_headsign": "EAST HARLEM 125 ST via 1 AV", "service_date": "2026-04-24", "wait_source": "MTA GTFS window 12:00:00-18:00:00", "has_shelter": true, "shelter_distance_ft": 21.7, "shelter_source": "NYC DOT Bus Stop Shelters", "has_nearby_seating": false, "seating_distance_ft": 217.5, "bench_source": "NYC DOT Seating Locations", "nearby_tree_count": 1, "nearby_tree_dbh_sum": 2.0, "tree_source": "NYC Street Tree Census", "weather_point_lat": 40.711645, "weather_point_lon": -73.998712, "weather_metric_used": "apparentTemperature", "weather_metric_display": "Feels-like temperature", "max_weather_value_f": 63.0, "heat_burden_score": 0.0, "weather_source": "https://api.weather.gov/gridpoints/OKX/34,42", "weather_source_label": "NWS / weather.gov", "weather_point_url": "https://api.weather.gov/points/40.711645,-73.998712", "weather_updated_at": "2026-04-24T11:02:02+00:00", "weather_refreshed_at": "2026-04-24T15:29:38.584149-04:00", "weather_horizon_hours": 8, "weather_summary": "Feels-like temperature forecast used for the next 8 hours", "resolved_image_path": "/home/rithwik_amajala/code4city/data/raw/stop_images/mapillary_401666.jpg", "image_provider": "Mapillary", "image_source_url": "https://scontent-lga3-1.xx.fbcdn.net/m1/v/t6/An9JxqCElFUFi5LOQn1v9oTk2QbCq154V3SipROC9xnuKmIoFhn3efhK626hH4F7smt7xFd4VQdShc_I1Cj8a0tw2U3BB6CuurGUAwXwsREnfukwxiVVYJB98xp8DVwR3SkdFUckrF_DXIT1ukNVNOw?stp=s1024x576&edm=ALXxkZ8EAAAA&_nc_gid=ZvykFCg8soSkptzPcDWknw&_nc_oc=Adpikiyd_Vzagi1S9KQ_D2pWI_gLjyjj8y-OUwtLRM_v095j04RduvoYfJNeFfBKUDk&ccb=10-5&oh=00_Af0b-6opAFWM9-T3QpCUHWI55nEBjd_IJvAXck4qJSv8Ew&oe=6A1336F2&_nc_sid=201bca", "image_attribution_url": "https://www.mapillary.com/app/?pKey=380647033258088", "image_author": "lvl5", "image_license": "Mapillary Terms of Use", "image_capture_date": "2018-10-22", "image_distance_m": 13.3, "image_fetch_status": "downloaded public image", "image_available": true, "image_path": "/home/rithwik_amajala/code4city/data/raw/stop_images/mapillary_401666.jpg", "visible_tree_ratio": 0.029, "open_sky_ratio": 0.266, "shelter_image_estimate": "True", "shelter_image_confidence": 1.0, "bench_image_estimate": "False", "bench_image_confidence": 0.2, "vision_method": "OpenCV color-mask and edge-line heuristics", "vision_error": null, "route_rank": 4, "corridor_name": "New York City M15 direction 0", "corridor_id": "m15__dir_0", "shelter_present_effective": true, "bench_present_effective": false, "combined_tree_cover_score": 0.097833333333333328, "no_shelter_value": 0.0, "no_bench_value": 1.0, "low_tree_cover_value": 0.90216666666666667, "heat_burden_value": 0.0, "wait_burden_value": 0.7105, "priority_score": 43.21, "normalized_priority_score": 44.3, "score_breakdown_json": { "no_shelter": { "label": "no shelter", "value": 0.0, "weight": 0.35, "score": 0.0 }, "low_tree_cover": { "label": "low tree cover", "value": 0.902, "weight": 0.25, "score": 22.55 }, "heat_burden": { "label": "high heat burden", "value": 0.0, "weight": 0.15, "score": 0.0 }, "wait_burden": { "label": "long scheduled wait exposure", "value": 0.711, "weight": 0.15, "score": 10.66 }, "no_bench": { "label": "nearby seating gap", "value": 1.0, "weight": 0.1, "score": 10.0 } }, "top_contributors": "low tree cover, long scheduled wait exposure, nearby seating gap", "recommended_intervention": "Add seating, increase tree cover near the curb, review service spacing or stop consolidation.", "recommended_action_summary": "Add seating | Increase tree cover | Service review", "planner_note": "This stop is a medium priority because it combines low tree cover, long scheduled wait exposure, and nearby seating gap. The most practical near-term intervention is to add seating, increase tree cover near the curb, review service spacing or stop consolidation.", "planner_note_reason": "This stop is a medium priority because it combines low tree cover, long scheduled wait exposure, and nearby seating gap.", "planner_note_recommendation": "The most practical near-term intervention is to add seating, increase tree cover near the curb, review service spacing or stop consolidation.", "planner_note_urgency": "Medium", "planner_note_source": "Deterministic fallback" }, "geometry": { "type": "Point", "coordinates": [ -74.007109, 40.705287 ] } },
{ "type": "Feature", "properties": { "stop_id": "402088", "stop_sequence": 8, "stop_name": "MADISON ST/OLIVER ST", "stop_lat": 40.711877, "stop_lon": -73.997922, "avg_headway_minutes": 19.19, "scheduled_departures_in_window": 18, "route_id": "M15", "route_short_name": "M15", "direction_id": 0, "trip_headsign": "EAST HARLEM 125 ST via 1 AV", "service_date": "2026-04-24", "wait_source": "MTA GTFS window 12:00:00-18:00:00", "has_shelter": true, "shelter_distance_ft": 2.5, "shelter_source": "NYC DOT Bus Stop Shelters", "has_nearby_seating": false, "seating_distance_ft": 213.0, "bench_source": "NYC DOT Seating Locations", "nearby_tree_count": 4, "nearby_tree_dbh_sum": 27.0, "tree_source": "NYC Street Tree Census", "weather_point_lat": 40.711645, "weather_point_lon": -73.998712, "weather_metric_used": "apparentTemperature", "weather_metric_display": "Feels-like temperature", "max_weather_value_f": 63.0, "heat_burden_score": 0.0, "weather_source": "https://api.weather.gov/gridpoints/OKX/34,42", "weather_source_label": "NWS / weather.gov", "weather_point_url": "https://api.weather.gov/points/40.711645,-73.998712", "weather_updated_at": "2026-04-24T11:02:02+00:00", "weather_refreshed_at": "2026-04-24T15:29:38.584149-04:00", "weather_horizon_hours": 8, "weather_summary": "Feels-like temperature forecast used for the next 8 hours", "resolved_image_path": "/home/rithwik_amajala/code4city/data/raw/stop_images/mapillary_402088.jpg", "image_provider": "Mapillary", "image_source_url": "https://scontent-lga3-1.xx.fbcdn.net/m1/v/t6/An8WF1P8-VAYNILblK7duJI7yTD3jSty0QGo6X5XT1S0VCChaZJvvOyF30UVzG5E3oqGwZ7iLTjfow13ytzUPZkg6UHgMJfbM2ygM0QXGmINh4BLQafefG9aOMngzHcEqTW_hboGHNWLkkKRCUX3hg?stp=s1024x576&edm=ALXxkZ8EAAAA&_nc_gid=bo6yNnI5VedKdQ6HoLMOrA&_nc_oc=AdrPw7DHpiXmN2jCyPw9PD1idDM7b4HwfzF1X6rgbTBQtAj6ooAx9d-GRDP0l1hjIwE&ccb=10-5&oh=00_Af2bPVlRPktmXjBiDaVCARwsdDHtbp52f06i27KF5JEhUA&oe=6A133F94&_nc_sid=201bca", "image_attribution_url": "https://www.mapillary.com/app/?pKey=307839127362026", "image_author": "bhousel", "image_license": "Mapillary Terms of Use", "image_capture_date": "2016-08-12", "image_distance_m": 28.1, "image_fetch_status": "downloaded public image", "image_available": true, "image_path": "/home/rithwik_amajala/code4city/data/raw/stop_images/mapillary_402088.jpg", "visible_tree_ratio": 0.164, "open_sky_ratio": 0.311, "shelter_image_estimate": "True", "shelter_image_confidence": 1.0, "bench_image_estimate": "True", "bench_image_confidence": 1.0, "vision_method": "OpenCV color-mask and edge-line heuristics", "vision_error": null, "route_rank": 8, "corridor_name": "New York City M15 direction 0", "corridor_id": "m15__dir_0", "shelter_present_effective": true, "bench_present_effective": false, "combined_tree_cover_score": 0.41533333333333333, "no_shelter_value": 0.0, "no_bench_value": 1.0, "low_tree_cover_value": 0.58466666666666667, "heat_burden_value": 0.0, "wait_burden_value": 0.7095, "priority_score": 35.26, "normalized_priority_score": 32.47, "score_breakdown_json": { "no_shelter": { "label": "no shelter", "value": 0.0, "weight": 0.35, "score": 0.0 }, "low_tree_cover": { "label": "low tree cover", "value": 0.585, "weight": 0.25, "score": 14.62 }, "heat_burden": { "label": "high heat burden", "value": 0.0, "weight": 0.15, "score": 0.0 }, "wait_burden": { "label": "long scheduled wait exposure", "value": 0.71, "weight": 0.15, "score": 10.64 }, "no_bench": { "label": "nearby seating gap", "value": 1.0, "weight": 0.1, "score": 10.0 } }, "top_contributors": "low tree cover, long scheduled wait exposure, nearby seating gap", "recommended_intervention": "Add seating, review service spacing or stop consolidation.", "recommended_action_summary": "Add seating | Service review", "planner_note": "This stop is a low priority because it combines low tree cover, long scheduled wait exposure, and nearby seating gap. The most practical near-term intervention is to add seating, review service spacing or stop consolidation.", "planner_note_reason": "This stop is a low priority because it combines low tree cover, long scheduled wait exposure, and nearby seating gap.", "planner_note_recommendation": "The most practical near-term intervention is to add seating, review service spacing or stop consolidation.", "planner_note_urgency": "Low", "planner_note_source": "Deterministic fallback" }, "geometry": { "type": "Point", "coordinates": [ -73.997922, 40.711877 ] } },
{ "type": "Feature", "properties": { "stop_id": "401669", "stop_sequence": 6, "stop_name": "PEARL ST/PECK SLIP", "stop_lat": 40.708968, "stop_lon": -74.002171, "avg_headway_minutes": 19.19, "scheduled_departures_in_window": 19, "route_id": "M15", "route_short_name": "M15", "direction_id": 0, "trip_headsign": "EAST HARLEM 125 ST via 1 AV", "service_date": "2026-04-24", "wait_source": "MTA GTFS window 12:00:00-18:00:00", "has_shelter": true, "shelter_distance_ft": 31.8, "shelter_source": "NYC DOT Bus Stop Shelters", "has_nearby_seating": false, "seating_distance_ft": 759.8, "bench_source": "NYC DOT Seating Locations", "nearby_tree_count": 3, "nearby_tree_dbh_sum": 20.0, "tree_source": "NYC Street Tree Census", "weather_point_lat": 40.711645, "weather_point_lon": -73.998712, "weather_metric_used": "apparentTemperature", "weather_metric_display": "Feels-like temperature", "max_weather_value_f": 63.0, "heat_burden_score": 0.0, "weather_source": "https://api.weather.gov/gridpoints/OKX/34,42", "weather_source_label": "NWS / weather.gov", "weather_point_url": "https://api.weather.gov/points/40.711645,-73.998712", "weather_updated_at": "2026-04-24T11:02:02+00:00", "weather_refreshed_at": "2026-04-24T15:29:38.584149-04:00", "weather_horizon_hours": 8, "weather_summary": "Feels-like temperature forecast used for the next 8 hours", "resolved_image_path": null, "image_provider": null, "image_source_url": null, "image_attribution_url": null, "image_author": null, "image_license": null, "image_capture_date": null, "image_distance_m": null, "image_fetch_status": "no nearby public image found", "image_available": false, "image_path": null, "visible_tree_ratio": null, "open_sky_ratio": null, "shelter_image_estimate": null, "shelter_image_confidence": null, "bench_image_estimate": null, "bench_image_confidence": null, "vision_method": null, "vision_error": "image unavailable", "route_rank": 6, "corridor_name": "New York City M15 direction 0", "corridor_id": "m15__dir_0", "shelter_present_effective": true, "bench_present_effective": false, "combined_tree_cover_score": 0.5, "no_shelter_value": 0.0, "no_bench_value": 1.0, "low_tree_cover_value": 0.5, "heat_burden_value": 0.0, "wait_burden_value": 0.7095, "priority_score": 33.14, "normalized_priority_score": 29.32, "score_breakdown_json": { "no_shelter": { "label": "no shelter", "value": 0.0, "weight": 0.35, "score": 0.0 }, "low_tree_cover": { "label": "low tree cover", "value": 0.5, "weight": 0.25, "score": 12.5 }, "heat_burden": { "label": "high heat burden", "value": 0.0, "weight": 0.15, "score": 0.0 }, "wait_burden": { "label": "long scheduled wait exposure", "value": 0.71, "weight": 0.15, "score": 10.64 }, "no_bench": { "label": "nearby seating gap", "value": 1.0, "weight": 0.1, "score": 10.0 } }, "top_contributors": "low tree cover, long scheduled wait exposure, nearby seating gap", "recommended_intervention": "Add seating, review service spacing or stop consolidation.", "recommended_action_summary": "Add seating | Service review", "planner_note": "This stop is a low priority because it combines low tree cover, long scheduled wait exposure, and nearby seating gap. The most practical near-term intervention is to add seating, review service spacing or stop consolidation.", "planner_note_reason": "This stop is a low priority because it combines low tree cover, long scheduled wait exposure, and nearby seating gap.", "planner_note_recommendation": "The most practical near-term intervention is to add seating, review service spacing or stop consolidation.", "planner_note_urgency": "Low", "planner_note_source": "Deterministic fallback" }, "geometry": { "type": "Point", "coordinates": [ -74.002171, 40.708968 ] } },
{ "type": "Feature", "properties": { "stop_id": "401670", "stop_sequence": 7, "stop_name": "SAINT JAMES PL/ROBERT F WAGNER SR PL", "stop_lat": 40.710594, "stop_lon": -74.000752, "avg_headway_minutes": 19.19, "scheduled_departures_in_window": 19, "route_id": "M15", "route_short_name": "M15", "direction_id": 0, "trip_headsign": "EAST HARLEM 125 ST via 1 AV", "service_date": "2026-04-24", "wait_source": "MTA GTFS window 12:00:00-18:00:00", "has_shelter": true, "shelter_distance_ft": 44.4, "shelter_source": "NYC DOT Bus Stop Shelters", "has_nearby_seating": false, "seating_distance_ft": 73.1, "bench_source": "NYC DOT Seating Locations", "nearby_tree_count": 8, "nearby_tree_dbh_sum": 77.0, "tree_source": "NYC Street Tree Census", "weather_point_lat": 40.711645, "weather_point_lon": -73.998712, "weather_metric_used": "apparentTemperature", "weather_metric_display": "Feels-like temperature", "max_weather_value_f": 63.0, "heat_burden_score": 0.0, "weather_source": "https://api.weather.gov/gridpoints/OKX/34,42", "weather_source_label": "NWS / weather.gov", "weather_point_url": "https://api.weather.gov/points/40.711645,-73.998712", "weather_updated_at": "2026-04-24T11:02:02+00:00", "weather_refreshed_at": "2026-04-24T15:29:38.584149-04:00", "weather_horizon_hours": 8, "weather_summary": "Feels-like temperature forecast used for the next 8 hours", "resolved_image_path": "/home/rithwik_amajala/code4city/data/raw/stop_images/mapillary_401670.jpg", "image_provider": "Mapillary", "image_source_url": "https://scontent-lga3-1.xx.fbcdn.net/m1/v/t6/An-QYWWcsG3-8j145bPOPUDUjxv_pTr0WtEss0srthswtSO3dS3Pcq5McabxkyPFoU33cXhYo1lWtQ7ucQL90UKVZscPgQgwWcQACc0a-ogi9gzQcR28NjTH88JDy8bHsfZHNSNnjm8lPufMRRvMRNQ?stp=s1024x576&edm=ALXxkZ8EAAAA&_nc_gid=bhr7KCRBNgiLBc2SHSNmfQ&_nc_oc=Adr_UsFsZFzWFhht34_JyahGuvuhA93H86ojz8VLx5yUqPvOyVNhbgQLQMJp3D7m6oM&ccb=10-5&oh=00_Af3Gg1mz23PbmnS93tdZKOiAOHK6vfrAA56qtzdSXC9VKw&oe=6A134D63&_nc_sid=201bca", "image_attribution_url": "https://www.mapillary.com/app/?pKey=138411018196682", "image_author": "bhousel", "image_license": "Mapillary Terms of Use", "image_capture_date": "2016-08-13", "image_distance_m": 29.3, "image_fetch_status": "downloaded public image", "image_available": true, "image_path": "/home/rithwik_amajala/code4city/data/raw/stop_images/mapillary_401670.jpg", "visible_tree_ratio": 0.206, "open_sky_ratio": 0.448, "shelter_image_estimate": "True", "shelter_image_confidence": 1.0, "bench_image_estimate": "False", "bench_image_confidence": 0.2, "vision_method": "OpenCV color-mask and edge-line heuristics", "vision_error": null, "route_rank": 7, "corridor_name": "New York City M15 direction 0", "corridor_id": "m15__dir_0", "shelter_present_effective": true, "bench_present_effective": false, "combined_tree_cover_score": 0.603, "no_shelter_value": 0.0, "no_bench_value": 1.0, "low_tree_cover_value": 0.397, "heat_burden_value": 0.0, "wait_burden_value": 0.7095, "priority_score": 30.57, "normalized_priority_score": 25.49, "score_breakdown_json": { "no_shelter": { "label": "no shelter", "value": 0.0, "weight": 0.35, "score": 0.0 }, "low_tree_cover": { "label": "low tree cover", "value": 0.397, "weight": 0.25, "score": 9.93 }, "heat_burden": { "label": "high heat burden", "value": 0.0, "weight": 0.15, "score": 0.0 }, "wait_burden": { "label": "long scheduled wait exposure", "value": 0.71, "weight": 0.15, "score": 10.64 }, "no_bench": { "label": "nearby seating gap", "value": 1.0, "weight": 0.1, "score": 10.0 } }, "top_contributors": "long scheduled wait exposure, nearby seating gap, low tree cover", "recommended_intervention": "Add seating, review service spacing or stop consolidation.", "recommended_action_summary": "Add seating | Service review", "planner_note": "This stop is a low priority because it combines long scheduled wait exposure, nearby seating gap, and low tree cover. The most practical near-term intervention is to add seating, review service spacing or stop consolidation.", "planner_note_reason": "This stop is a low priority because it combines long scheduled wait exposure, nearby seating gap, and low tree cover.", "planner_note_recommendation": "The most practical near-term intervention is to add seating, review service spacing or stop consolidation.", "planner_note_urgency": "Low", "planner_note_source": "Deterministic fallback" }, "geometry": { "type": "Point", "coordinates": [ -74.000752, 40.710594 ] } },
{ "type": "Feature", "properties": { "stop_id": "401675", "stop_sequence": 11, "stop_name": "PIKE ST/DIVISION ST", "stop_lat": 40.714303, "stop_lon": -73.992468, "avg_headway_minutes": 9.54, "scheduled_departures_in_window": 38, "route_id": "M15", "route_short_name": "M15", "direction_id": 0, "trip_headsign": "EAST HARLEM 125 ST via 1 AV", "service_date": "2026-04-24", "wait_source": "MTA GTFS window 12:00:00-18:00:00", "has_shelter": true, "shelter_distance_ft": 20.0, "shelter_source": "NYC DOT Bus Stop Shelters", "has_nearby_seating": false, "seating_distance_ft": 196.5, "bench_source": "NYC DOT Seating Locations", "nearby_tree_count": 5, "nearby_tree_dbh_sum": 39.0, "tree_source": "NYC Street Tree Census", "weather_point_lat": 40.711645, "weather_point_lon": -73.998712, "weather_metric_used": "apparentTemperature", "weather_metric_display": "Feels-like temperature", "max_weather_value_f": 63.0, "heat_burden_score": 0.0, "weather_source": "https://api.weather.gov/gridpoints/OKX/34,42", "weather_source_label": "NWS / weather.gov", "weather_point_url": "https://api.weather.gov/points/40.711645,-73.998712", "weather_updated_at": "2026-04-24T11:02:02+00:00", "weather_refreshed_at": "2026-04-24T15:29:38.584149-04:00", "weather_horizon_hours": 8, "weather_summary": "Feels-like temperature forecast used for the next 8 hours", "resolved_image_path": "/home/rithwik_amajala/code4city/data/raw/stop_images/mapillary_401675.jpg", "image_provider": "Mapillary", "image_source_url": "https://scontent-lga3-1.xx.fbcdn.net/m1/v/t6/An_JrZNx4IQW1Rt3oVXQOCTEmjKaPOt063xHcewxONMdy3CAgGWo1MVKAjT8xL64hQfl8w4rdtmprdqYvBnBsQc1U7px1fOiFZgN5RFY9LI9ZoQk59XYTYK2DZbQxnPI1vv_EIez58rRv5QpkS1p_w?stp=s1024x576&edm=ALXxkZ8EAAAA&_nc_gid=cQGEtLqIokO6Rwz83_nhYw&_nc_oc=Adq_K9eHnQJqf2nkeA05LSugdmDKiLthq5xq1s3jI-Ja3S5YNyeiy8SoYEocMCD-zE8&ccb=10-5&oh=00_Af0Kg5DwZmwPyPzyDv-nPi66JLD_ww5njPxsDzZpHFi_fg&oe=6A134D5B&_nc_sid=201bca", "image_attribution_url": "https://www.mapillary.com/app/?pKey=736202677065015", "image_author": "bhousel", "image_license": "Mapillary Terms of Use", "image_capture_date": "2016-08-12", "image_distance_m": 23.8, "image_fetch_status": "downloaded public image", "image_available": true, "image_path": "/home/rithwik_amajala/code4city/data/raw/stop_images/mapillary_401675.jpg", "visible_tree_ratio": 0.008, "open_sky_ratio": 0.772, "shelter_image_estimate": "True", "shelter_image_confidence": 1.0, "bench_image_estimate": "True", "bench_image_confidence": 1.0, "vision_method": "OpenCV color-mask and edge-line heuristics", "vision_error": null, "route_rank": 11, "corridor_name": "New York City M15 direction 0", "corridor_id": "m15__dir_0", "shelter_present_effective": true, "bench_present_effective": false, "combined_tree_cover_score": 0.42066666666666669, "no_shelter_value": 0.0, "no_bench_value": 1.0, "low_tree_cover_value": 0.57933333333333326, "heat_burden_value": 0.0, "wait_burden_value": 0.227, "priority_score": 27.88, "normalized_priority_score": 21.49, "score_breakdown_json": { "no_shelter": { "label": "no shelter", "value": 0.0, "weight": 0.35, "score": 0.0 }, "low_tree_cover": { "label": "low tree cover", "value": 0.579, "weight": 0.25, "score": 14.48 }, "heat_burden": { "label": "high heat burden", "value": 0.0, "weight": 0.15, "score": 0.0 }, "wait_burden": { "label": "long scheduled wait exposure", "value": 0.227, "weight": 0.15, "score": 3.4 }, "no_bench": { "label": "nearby seating gap", "value": 1.0, "weight": 0.1, "score": 10.0 } }, "top_contributors": "low tree cover, nearby seating gap, long scheduled wait exposure", "recommended_intervention": "Add seating.", "recommended_action_summary": "Add seating", "planner_note": "This stop is a low priority because it combines low tree cover, nearby seating gap, and long scheduled wait exposure. The most practical near-term intervention is to add seating.", "planner_note_reason": "This stop is a low priority because it combines low tree cover, nearby seating gap, and long scheduled wait exposure.", "planner_note_recommendation": "The most practical near-term intervention is to add seating.", "planner_note_urgency": "Low", "planner_note_source": "Deterministic fallback" }, "geometry": { "type": "Point", "coordinates": [ -73.992468, 40.714303 ] } },
{ "type": "Feature", "properties": { "stop_id": "405470", "stop_sequence": 12, "stop_name": "ALLEN ST/GRAND ST", "stop_lat": 40.717202, "stop_lon": -73.991191, "avg_headway_minutes": 9.55, "scheduled_departures_in_window": 38, "route_id": "M15", "route_short_name": "M15", "direction_id": 0, "trip_headsign": "EAST HARLEM 125 ST via 1 AV", "service_date": "2026-04-24", "wait_source": "MTA GTFS window 12:00:00-18:00:00", "has_shelter": true, "shelter_distance_ft": 13.9, "shelter_source": "NYC DOT Bus Stop Shelters", "has_nearby_seating": false, "seating_distance_ft": 873.1, "bench_source": "NYC DOT Seating Locations", "nearby_tree_count": 8, "nearby_tree_dbh_sum": 63.0, "tree_source": "NYC Street Tree Census", "weather_point_lat": 40.711645, "weather_point_lon": -73.998712, "weather_metric_used": "apparentTemperature", "weather_metric_display": "Feels-like temperature", "max_weather_value_f": 63.0, "heat_burden_score": 0.0, "weather_source": "https://api.weather.gov/gridpoints/OKX/34,42", "weather_source_label": "NWS / weather.gov", "weather_point_url": "https://api.weather.gov/points/40.711645,-73.998712", "weather_updated_at": "2026-04-24T11:02:02+00:00", "weather_refreshed_at": "2026-04-24T15:29:38.584149-04:00", "weather_horizon_hours": 8, "weather_summary": "Feels-like temperature forecast used for the next 8 hours", "resolved_image_path": "/home/rithwik_amajala/code4city/data/raw/stop_images/mapillary_405470.jpg", "image_provider": "Mapillary", "image_source_url": "https://scontent-lga3-1.xx.fbcdn.net/m1/v/t6/An-32SP8iGmgi7LMr8OTpRkv_2ppxUYU4EJRNWAa0EvPfNbhAdLCl3lOVvmGXMw-TA2q88QgbUSb5zBPVcS_l4LgGLXHAGqFMwIm_bNLr5GYB7igQEZM81J14xD7P2BSfSmILkBOmFO6VwSklsOCD_g?stp=s1024x512&edm=ALXxkZ8EAAAA&_nc_gid=FfQqgJb9WKGuG8OuA_VUJA&_nc_oc=Adr8kfXpfDM3yHYyqpe90lj3oqjY43gZo0Pom9qo7CAxSTFZ4oDGR0E2QwBtlCUJVaU&ccb=10-5&oh=00_Af3iCWMELhnxca7EMHQNueQz82u_24rif1SemW08EPUSgA&oe=6A133E97&_nc_sid=201bca", "image_attribution_url": "https://www.mapillary.com/app/?pKey=2241201782911579", "image_author": "BetaNYC_Noel", "image_license": "Mapillary Terms of Use", "image_capture_date": "2024-05-28", "image_distance_m": 15.1, "image_fetch_status": "downloaded public image", "image_available": true, "image_path": "/home/rithwik_amajala/code4city/data/raw/stop_images/mapillary_405470.jpg", "visible_tree_ratio": 0.004, "open_sky_ratio": 0.674, "shelter_image_estimate": "True", "shelter_image_confidence": 1.0, "bench_image_estimate": "False", "bench_image_confidence": 0.3, "vision_method": "OpenCV color-mask and edge-line heuristics", "vision_error": null, "route_rank": 12, "corridor_name": "New York City M15 direction 0", "corridor_id": "m15__dir_0", "shelter_present_effective": true, "bench_present_effective": false, "combined_tree_cover_score": 0.502, "no_shelter_value": 0.0, "no_bench_value": 1.0, "low_tree_cover_value": 0.498, "heat_burden_value": 0.0, "wait_burden_value": 0.2275, "priority_score": 25.86, "normalized_priority_score": 18.49, "score_breakdown_json": { "no_shelter": { "label": "no shelter", "value": 0.0, "weight": 0.35, "score": 0.0 }, "low_tree_cover": { "label": "low tree cover", "value": 0.498, "weight": 0.25, "score": 12.45 }, "heat_burden": { "label": "high heat burden", "value": 0.0, "weight": 0.15, "score": 0.0 }, "wait_burden": { "label": "long scheduled wait exposure", "value": 0.228, "weight": 0.15, "score": 3.41 }, "no_bench": { "label": "nearby seating gap", "value": 1.0, "weight": 0.1, "score": 10.0 } }, "top_contributors": "low tree cover, nearby seating gap, long scheduled wait exposure", "recommended_intervention": "Add seating.", "recommended_action_summary": "Add seating", "planner_note": "This stop is a low priority because it combines low tree cover, nearby seating gap, and long scheduled wait exposure. The most practical near-term intervention is to add seating.", "planner_note_reason": "This stop is a low priority because it combines low tree cover, nearby seating gap, and long scheduled wait exposure.", "planner_note_recommendation": "The most practical near-term intervention is to add seating.", "planner_note_urgency": "Low", "planner_note_source": "Deterministic fallback" }, "geometry": { "type": "Point", "coordinates": [ -73.991191, 40.717202 ] } },
{ "type": "Feature", "properties": { "stop_id": "401681", "stop_sequence": 14, "stop_name": "ALLEN ST/STANTON ST", "stop_lat": 40.721896, "stop_lon": -73.988839, "avg_headway_minutes": 9.58, "scheduled_departures_in_window": 37, "route_id": "M15", "route_short_name": "M15", "direction_id": 0, "trip_headsign": "EAST HARLEM 125 ST via 1 AV", "service_date": "2026-04-24", "wait_source": "MTA GTFS window 12:00:00-18:00:00", "has_shelter": true, "shelter_distance_ft": 28.8, "shelter_source": "NYC DOT Bus Stop Shelters", "has_nearby_seating": false, "seating_distance_ft": 640.9, "bench_source": "NYC DOT Seating Locations", "nearby_tree_count": 7, "nearby_tree_dbh_sum": 89.0, "tree_source": "NYC Street Tree Census", "weather_point_lat": 40.711645, "weather_point_lon": -73.998712, "weather_metric_used": "apparentTemperature", "weather_metric_display": "Feels-like temperature", "max_weather_value_f": 63.0, "heat_burden_score": 0.0, "weather_source": "https://api.weather.gov/gridpoints/OKX/34,42", "weather_source_label": "NWS / weather.gov", "weather_point_url": "https://api.weather.gov/points/40.711645,-73.998712", "weather_updated_at": "2026-04-24T11:02:02+00:00", "weather_refreshed_at": "2026-04-24T15:29:38.584149-04:00", "weather_horizon_hours": 8, "weather_summary": "Feels-like temperature forecast used for the next 8 hours", "resolved_image_path": "/home/rithwik_amajala/code4city/data/raw/stop_images/mapillary_401681.jpg", "image_provider": "Mapillary", "image_source_url": "https://scontent-lga3-1.xx.fbcdn.net/m1/v/t6/An_4Z3lNlezDQS1l2fciBdj6V6bDA-lBgPRpwnj_nZ6uMGC27BDTzv3ipeRu7BX2ZidLZeb7P7ZmhzI1zBnFjZbdnqHFF0K-C3tyIO618M-_S47nZV4TMJmVt4m5LoNiL_z2joo85EXUb-4fbMR6Fzc?stp=s1024x768&edm=ALXxkZ8EAAAA&_nc_gid=0-gLjvmsLhnjSwlrvLy8lA&_nc_oc=AdpTLzK4rwps-tkNe1KiZOT9FlUs7-H6jvYjTYmq33hT_z61fEwJ52u6L6cSA_wlGP4&ccb=10-5&oh=00_Af2zS-EH21NTEgPUbEAz4GbXAlBI4dtfslVsRxfZpi2ejw&oe=6A131A3C&_nc_sid=201bca", "image_attribution_url": "https://www.mapillary.com/app/?pKey=1481125916432260", "image_author": "jlin4529", "image_license": "Mapillary Terms of Use", "image_capture_date": "2025-10-02", "image_distance_m": 34.2, "image_fetch_status": "downloaded public image", "image_available": true, "image_path": "/home/rithwik_amajala/code4city/data/raw/stop_images/mapillary_401681.jpg", "visible_tree_ratio": 0.047, "open_sky_ratio": 0.73, "shelter_image_estimate": "False", "shelter_image_confidence": 0.009, "bench_image_estimate": "False", "bench_image_confidence": 0.2, "vision_method": "OpenCV color-mask and edge-line heuristics", "vision_error": null, "route_rank": 14, "corridor_name": "New York City M15 direction 0", "corridor_id": "m15__dir_0", "shelter_present_effective": true, "bench_present_effective": false, "combined_tree_cover_score": 0.5235, "no_shelter_value": 0.0, "no_bench_value": 1.0, "low_tree_cover_value": 0.4765, "heat_burden_value": 0.0, "wait_burden_value": 0.229, "priority_score": 25.35, "normalized_priority_score": 17.73, "score_breakdown_json": { "no_shelter": { "label": "no shelter", "value": 0.0, "weight": 0.35, "score": 0.0 }, "low_tree_cover": { "label": "low tree cover", "value": 0.477, "weight": 0.25, "score": 11.91 }, "heat_burden": { "label": "high heat burden", "value": 0.0, "weight": 0.15, "score": 0.0 }, "wait_burden": { "label": "long scheduled wait exposure", "value": 0.229, "weight": 0.15, "score": 3.44 }, "no_bench": { "label": "nearby seating gap", "value": 1.0, "weight": 0.1, "score": 10.0 } }, "top_contributors": "low tree cover, nearby seating gap, long scheduled wait exposure", "recommended_intervention": "Add seating.", "recommended_action_summary": "Add seating", "planner_note": "This stop is a low priority because it combines low tree cover, nearby seating gap, and long scheduled wait exposure. The most practical near-term intervention is to add seating.", "planner_note_reason": "This stop is a low priority because it combines low tree cover, nearby seating gap, and long scheduled wait exposure.", "planner_note_recommendation": "The most practical near-term intervention is to add seating.", "planner_note_urgency": "Low", "planner_note_source": "Deterministic fallback" }, "geometry": { "type": "Point", "coordinates": [ -73.988839, 40.721896 ] } },
{ "type": "Feature", "properties": { "stop_id": "405321", "stop_sequence": 15, "stop_name": "1 AV/E 1 ST", "stop_lat": 40.723486, "stop_lon": -73.988208, "avg_headway_minutes": 9.57, "scheduled_departures_in_window": 38, "route_id": "M15", "route_short_name": "M15", "direction_id": 0, "trip_headsign": "EAST HARLEM 125 ST via 1 AV", "service_date": "2026-04-24", "wait_source": "MTA GTFS window 12:00:00-18:00:00", "has_shelter": true, "shelter_distance_ft": 11.4, "shelter_source": "NYC DOT Bus Stop Shelters", "has_nearby_seating": false, "seating_distance_ft": 712.6, "bench_source": "NYC DOT Seating Locations", "nearby_tree_count": 6, "nearby_tree_dbh_sum": 70.0, "tree_source": "NYC Street Tree Census", "weather_point_lat": 40.711645, "weather_point_lon": -73.998712, "weather_metric_used": "apparentTemperature", "weather_metric_display": "Feels-like temperature", "max_weather_value_f": 63.0, "heat_burden_score": 0.0, "weather_source": "https://api.weather.gov/gridpoints/OKX/34,42", "weather_source_label": "NWS / weather.gov", "weather_point_url": "https://api.weather.gov/points/40.711645,-73.998712", "weather_updated_at": "2026-04-24T11:02:02+00:00", "weather_refreshed_at": "2026-04-24T15:29:38.584149-04:00", "weather_horizon_hours": 8, "weather_summary": "Feels-like temperature forecast used for the next 8 hours", "resolved_image_path": null, "image_provider": null, "image_source_url": null, "image_attribution_url": null, "image_author": null, "image_license": null, "image_capture_date": null, "image_distance_m": null, "image_fetch_status": "no nearby public image found", "image_available": false, "image_path": null, "visible_tree_ratio": null, "open_sky_ratio": null, "shelter_image_estimate": null, "shelter_image_confidence": null, "bench_image_estimate": null, "bench_image_confidence": null, "vision_method": null, "vision_error": "image unavailable", "route_rank": 15, "corridor_name": "New York City M15 direction 0", "corridor_id": "m15__dir_0", "shelter_present_effective": true, "bench_present_effective": false, "combined_tree_cover_score": 1.0, "no_shelter_value": 0.0, "no_bench_value": 1.0, "low_tree_cover_value": 0.0, "heat_burden_value": 0.0, "wait_burden_value": 0.2285, "priority_score": 13.43, "normalized_priority_score": 0.0, "score_breakdown_json": { "no_shelter": { "label": "no shelter", "value": 0.0, "weight": 0.35, "score": 0.0 }, "low_tree_cover": { "label": "low tree cover", "value": 0.0, "weight": 0.25, "score": 0.0 }, "heat_burden": { "label": "high heat burden", "value": 0.0, "weight": 0.15, "score": 0.0 }, "wait_burden": { "label": "long scheduled wait exposure", "value": 0.229, "weight": 0.15, "score": 3.43 }, "no_bench": { "label": "nearby seating gap", "value": 1.0, "weight": 0.1, "score": 10.0 } }, "top_contributors": "nearby seating gap, long scheduled wait exposure", "recommended_intervention": "Add seating.", "recommended_action_summary": "Add seating", "planner_note": "This stop is a low priority because it combines nearby seating gap and long scheduled wait exposure. The most practical near-term intervention is to add seating.", "planner_note_reason": "This stop is a low priority because it combines nearby seating gap and long scheduled wait exposure.", "planner_note_recommendation": "The most practical near-term intervention is to add seating.", "planner_note_urgency": "Low", "planner_note_source": "Deterministic fallback" }, "geometry": { "type": "Point", "coordinates": [ -73.988208, 40.723486 ] } }
]
}
