{
"type": "FeatureCollection",
"name": "stops_scored",
"crs": { "type": "name", "properties": { "name": "urn:ogc:def:crs:OGC:1.3:CRS84" } },
"features": [
{ "type": "Feature", "properties": { "stop_id": "405577", "stop_sequence": 13, "stop_name": "AVENUE A/EAST HOUSTON ST", "stop_lat": 40.72236, "stop_lon": -73.986267, "avg_headway_minutes": 10.94, "scheduled_departures_in_window": 33, "route_id": "M14A+", "route_short_name": "M14A-SBS", "direction_id": 0, "trip_headsign": "SELECT BUS LES GRAND-FDR via 14 ST", "service_date": "2026-04-24", "wait_source": "MTA GTFS window 12:00:00-18:00:00", "has_shelter": false, "shelter_distance_ft": 675.5, "shelter_source": "NYC DOT Bus Stop Shelters", "has_nearby_seating": false, "seating_distance_ft": 175.8, "bench_source": "NYC DOT Seating Locations", "nearby_tree_count": 0, "nearby_tree_dbh_sum": 0.0, "tree_source": "NYC Street Tree Census", "weather_point_lat": 40.730546, "weather_point_lon": -73.989855, "weather_metric_used": "apparentTemperature", "weather_metric_display": "Feels-like temperature", "max_weather_value_f": 63.0, "heat_burden_score": 0.0, "weather_source": "https://api.weather.gov/gridpoints/OKX/34,43", "weather_source_label": "NWS / weather.gov", "weather_point_url": "https://api.weather.gov/points/40.730546,-73.989855", "weather_updated_at": "2026-04-24T11:02:02+00:00", "weather_refreshed_at": "2026-04-24T15:31:17.836529-04:00", "weather_horizon_hours": 8, "weather_summary": "Feels-like temperature forecast used for the next 8 hours", "resolved_image_path": null, "image_provider": null, "image_source_url": null, "image_attribution_url": null, "image_author": null, "image_license": null, "image_capture_date": null, "image_distance_m": null, "image_fetch_status": "no nearby public image found", "image_available": false, "image_path": null, "visible_tree_ratio": null, "open_sky_ratio": null, "shelter_image_estimate": null, "shelter_image_confidence": null, "bench_image_estimate": null, "bench_image_confidence": null, "vision_method": null, "vision_error": "image unavailable", "route_rank": 13, "corridor_name": "New York City M14A-SBS direction 0", "corridor_id": "m14a_sbs__dir_0", "shelter_present_effective": false, "bench_present_effective": false, "combined_tree_cover_score": 0.0, "no_shelter_value": 1.0, "no_bench_value": 1.0, "low_tree_cover_value": 1.0, "heat_burden_value": 0.0, "wait_burden_value": 0.297, "priority_score": 74.46, "normalized_priority_score": 100.0, "score_breakdown_json": { "no_shelter": { "label": "no shelter", "value": 1.0, "weight": 0.35, "score": 35.0 }, "low_tree_cover": { "label": "low tree cover", "value": 1.0, "weight": 0.25, "score": 25.0 }, "heat_burden": { "label": "high heat burden", "value": 0.0, "weight": 0.15, "score": 0.0 }, "wait_burden": { "label": "long scheduled wait exposure", "value": 0.297, "weight": 0.15, "score": 4.46 }, "no_bench": { "label": "nearby seating gap", "value": 1.0, "weight": 0.1, "score": 10.0 } }, "top_contributors": "no shelter, low tree cover, nearby seating gap", "recommended_intervention": "Install a modular shade canopy, add seating, increase tree cover near the curb.", "recommended_action_summary": "Shade canopy | Add seating | Increase tree cover", "planner_note": "This stop is a critical priority because it combines no shelter, low tree cover, and nearby seating gap. The most practical near-term intervention is to install a modular shade canopy, add seating, increase tree cover near the curb.", "planner_note_reason": "This stop is a critical priority because it combines no shelter, low tree cover, and nearby seating gap.", "planner_note_recommendation": "The most practical near-term intervention is to install a modular shade canopy, add seating, increase tree cover near the curb.", "planner_note_urgency": "Critical", "planner_note_source": "Deterministic fallback" }, "geometry": { "type": "Point", "coordinates": [ -73.986267, 40.72236 ] } },
{ "type": "Feature", "properties": { "stop_id": "401577", "stop_sequence": 4, "stop_name": "W 14 ST/6 AV", "stop_lat": 40.737093, "stop_lon": -73.996431, "avg_headway_minutes": 10.9, "scheduled_departures_in_window": 33, "route_id": "M14A+", "route_short_name": "M14A-SBS", "direction_id": 0, "trip_headsign": "SELECT BUS LES GRAND-FDR via 14 ST", "service_date": "2026-04-24", "wait_source": "MTA GTFS window 12:00:00-18:00:00", "has_shelter": false, "shelter_distance_ft": 922.7, "shelter_source": "NYC DOT Bus Stop Shelters", "has_nearby_seating": false, "seating_distance_ft": 334.8, "bench_source": "NYC DOT Seating Locations", "nearby_tree_count": 0, "nearby_tree_dbh_sum": 0.0, "tree_source": "NYC Street Tree Census", "weather_point_lat": 40.730546, "weather_point_lon": -73.989855, "weather_metric_used": "apparentTemperature", "weather_metric_display": "Feels-like temperature", "max_weather_value_f": 63.0, "heat_burden_score": 0.0, "weather_source": "https://api.weather.gov/gridpoints/OKX/34,43", "weather_source_label": "NWS / weather.gov", "weather_point_url": "https://api.weather.gov/points/40.730546,-73.989855", "weather_updated_at": "2026-04-24T11:02:02+00:00", "weather_refreshed_at": "2026-04-24T15:31:17.836529-04:00", "weather_horizon_hours": 8, "weather_summary": "Feels-like temperature forecast used for the next 8 hours", "resolved_image_path": null, "image_provider": null, "image_source_url": null, "image_attribution_url": null, "image_author": null, "image_license": null, "image_capture_date": null, "image_distance_m": null, "image_fetch_status": "no nearby public image found", "image_available": false, "image_path": null, "visible_tree_ratio": null, "open_sky_ratio": null, "shelter_image_estimate": null, "shelter_image_confidence": null, "bench_image_estimate": null, "bench_image_confidence": null, "vision_method": null, "vision_error": "image unavailable", "route_rank": 4, "corridor_name": "New York City M14A-SBS direction 0", "corridor_id": "m14a_sbs__dir_0", "shelter_present_effective": false, "bench_present_effective": false, "combined_tree_cover_score": 0.0, "no_shelter_value": 1.0, "no_bench_value": 1.0, "low_tree_cover_value": 1.0, "heat_burden_value": 0.0, "wait_burden_value": 0.295, "priority_score": 74.43, "normalized_priority_score": 99.95, "score_breakdown_json": { "no_shelter": { "label": "no shelter", "value": 1.0, "weight": 0.35, "score": 35.0 }, "low_tree_cover": { "label": "low tree cover", "value": 1.0, "weight": 0.25, "score": 25.0 }, "heat_burden": { "label": "high heat burden", "value": 0.0, "weight": 0.15, "score": 0.0 }, "wait_burden": { "label": "long scheduled wait exposure", "value": 0.295, "weight": 0.15, "score": 4.43 }, "no_bench": { "label": "nearby seating gap", "value": 1.0, "weight": 0.1, "score": 10.0 } }, "top_contributors": "no shelter, low tree cover, nearby seating gap", "recommended_intervention": "Install a modular shade canopy, add seating, increase tree cover near the curb.", "recommended_action_summary": "Shade canopy | Add seating | Increase tree cover", "planner_note": "This stop is a critical priority because it combines no shelter, low tree cover, and nearby seating gap. The most practical near-term intervention is to install a modular shade canopy, add seating, increase tree cover near the curb.", "planner_note_reason": "This stop is a critical priority because it combines no shelter, low tree cover, and nearby seating gap.", "planner_note_recommendation": "The most practical near-term intervention is to install a modular shade canopy, add seating, increase tree cover near the curb.", "planner_note_urgency": "Critical", "planner_note_source": "Deterministic fallback" }, "geometry": { "type": "Point", "coordinates": [ -73.996431, 40.737093 ] } },
{ "type": "Feature", "properties": { "stop_id": "401575", "stop_sequence": 2, "stop_name": "W 14 ST/8 AV", "stop_lat": 40.739621, "stop_lon": -74.002394, "avg_headway_minutes": 10.92, "scheduled_departures_in_window": 33, "route_id": "M14A+", "route_short_name": "M14A-SBS", "direction_id": 0, "trip_headsign": "SELECT BUS LES GRAND-FDR via 14 ST", "service_date": "2026-04-24", "wait_source": "MTA GTFS window 12:00:00-18:00:00", "has_shelter": false, "shelter_distance_ft": 204.9, "shelter_source": "NYC DOT Bus Stop Shelters", "has_nearby_seating": false, "seating_distance_ft": 823.6, "bench_source": "NYC DOT Seating Locations", "nearby_tree_count": 1, "nearby_tree_dbh_sum": 6.0, "tree_source": "NYC Street Tree Census", "weather_point_lat": 40.730546, "weather_point_lon": -73.989855, "weather_metric_used": "apparentTemperature", "weather_metric_display": "Feels-like temperature", "max_weather_value_f": 63.0, "heat_burden_score": 0.0, "weather_source": "https://api.weather.gov/gridpoints/OKX/34,43", "weather_source_label": "NWS / weather.gov", "weather_point_url": "https://api.weather.gov/points/40.730546,-73.989855", "weather_updated_at": "2026-04-24T11:02:02+00:00", "weather_refreshed_at": "2026-04-24T15:31:17.836529-04:00", "weather_horizon_hours": 8, "weather_summary": "Feels-like temperature forecast used for the next 8 hours", "resolved_image_path": "/home/rithwik_amajala/code4city/data/raw/stop_images/mapillary_401575.jpg", "image_provider": "Mapillary", "image_source_url": "https://scontent-lga3-1.xx.fbcdn.net/m1/v/t6/An8y3txyEIzctpQY6wt17zwXcYbW8u64bf6Op-FR6zjfi1_MRk5M8bIDFhABlf7QeLE1m4E1fUEHzsxqlb6ppq7RkIqe0UtNj_P2rjxcW8gwLP0qKhHjJB4CDJ3dCWUrODdy8Ao6v7qybG-vEg0OSok?stp=s1024x768&edm=ALXxkZ8EAAAA&_nc_gid=KKSz27lpbwVumq3PD_LTMg&_nc_oc=AdoTFV4-eL1btmT1aWQS9l-0-UsN8lDJUp_aNQJU9ngRFMhgOUD8Ak0sFYj_0Cgp1iM&ccb=10-5&oh=00_Af3K48rPH61MslDJ9PZ5krcF3nXa5NSaeZSKGbogqJJrtA&oe=6A133C52&_nc_sid=201bca", "image_attribution_url": "https://www.mapillary.com/app/?pKey=1349743343022818", "image_author": "jlin4529", "image_license": "Mapillary Terms of Use", "image_capture_date": "2025-11-03", "image_distance_m": 5.9, "image_fetch_status": "downloaded public image", "image_available": true, "image_path": "/home/rithwik_amajala/code4city/data/raw/stop_images/mapillary_401575.jpg", "visible_tree_ratio": 0.013, "open_sky_ratio": 0.43, "shelter_image_estimate": "False", "shelter_image_confidence": 0.144, "bench_image_estimate": "True", "bench_image_confidence": 1.0, "vision_method": "OpenCV color-mask and edge-line heuristics", "vision_error": null, "route_rank": 2, "corridor_name": "New York City M14A-SBS direction 0", "corridor_id": "m14a_sbs__dir_0", "shelter_present_effective": false, "bench_present_effective": false, "combined_tree_cover_score": 0.089833333333333334, "no_shelter_value": 1.0, "no_bench_value": 1.0, "low_tree_cover_value": 0.91016666666666668, "heat_burden_value": 0.0, "wait_burden_value": 0.296, "priority_score": 72.19, "normalized_priority_score": 96.22, "score_breakdown_json": { "no_shelter": { "label": "no shelter", "value": 1.0, "weight": 0.35, "score": 35.0 }, "low_tree_cover": { "label": "low tree cover", "value": 0.91, "weight": 0.25, "score": 22.75 }, "heat_burden": { "label": "high heat burden", "value": 0.0, "weight": 0.15, "score": 0.0 }, "wait_burden": { "label": "long scheduled wait exposure", "value": 0.296, "weight": 0.15, "score": 4.44 }, "no_bench": { "label": "nearby seating gap", "value": 1.0, "weight": 0.1, "score": 10.0 } }, "top_contributors": "no shelter, low tree cover, nearby seating gap", "recommended_intervention": "Install a modular shade canopy, add seating, increase tree cover near the curb.", "recommended_action_summary": "Shade canopy | Add seating | Increase tree cover", "planner_note": "This stop is a critical priority because it combines no shelter, low tree cover, and nearby seating gap. The most practical near-term intervention is to install a modular shade canopy, add seating, increase tree cover near the curb.", "planner_note_reason": "This stop is a critical priority because it combines no shelter, low tree cover, and nearby seating gap.", "planner_note_recommendation": "The most practical near-term intervention is to install a modular shade canopy, add seating, increase tree cover near the curb.", "planner_note_urgency": "Critical", "planner_note_source": "Deterministic fallback" }, "geometry": { "type": "Point", "coordinates": [ -74.002394, 40.739621 ] } },
{ "type": "Feature", "properties": { "stop_id": "403318", "stop_sequence": 14, "stop_name": "ESSEX ST/DELANCEY ST", "stop_lat": 40.718247, "stop_lon": -73.988474, "avg_headway_minutes": 10.94, "scheduled_departures_in_window": 33, "route_id": "M14A+", "route_short_name": "M14A-SBS", "direction_id": 0, "trip_headsign": "SELECT BUS LES GRAND-FDR via 14 ST", "service_date": "2026-04-24", "wait_source": "MTA GTFS window 12:00:00-18:00:00", "has_shelter": false, "shelter_distance_ft": 481.8, "shelter_source": "NYC DOT Bus Stop Shelters", "has_nearby_seating": false, "seating_distance_ft": 84.9, "bench_source": "NYC DOT Seating Locations", "nearby_tree_count": 1, "nearby_tree_dbh_sum": 10.0, "tree_source": "NYC Street Tree Census", "weather_point_lat": 40.730546, "weather_point_lon": -73.989855, "weather_metric_used": "apparentTemperature", "weather_metric_display": "Feels-like temperature", "max_weather_value_f": 63.0, "heat_burden_score": 0.0, "weather_source": "https://api.weather.gov/gridpoints/OKX/34,43", "weather_source_label": "NWS / weather.gov", "weather_point_url": "https://api.weather.gov/points/40.730546,-73.989855", "weather_updated_at": "2026-04-24T11:02:02+00:00", "weather_refreshed_at": "2026-04-24T15:31:17.836529-04:00", "weather_horizon_hours": 8, "weather_summary": "Feels-like temperature forecast used for the next 8 hours", "resolved_image_path": null, "image_provider": null, "image_source_url": null, "image_attribution_url": null, "image_author": null, "image_license": null, "image_capture_date": null, "image_distance_m": null, "image_fetch_status": "no nearby public image found", "image_available": false, "image_path": null, "visible_tree_ratio": null, "open_sky_ratio": null, "shelter_image_estimate": null, "shelter_image_confidence": null, "bench_image_estimate": null, "bench_image_confidence": null, "vision_method": null, "vision_error": "image unavailable", "route_rank": 14, "corridor_name": "New York City M14A-SBS direction 0", "corridor_id": "m14a_sbs__dir_0", "shelter_present_effective": false, "bench_present_effective": false, "combined_tree_cover_score": 0.16666666666666666, "no_shelter_value": 1.0, "no_bench_value": 1.0, "low_tree_cover_value": 0.83333333333333337, "heat_burden_value": 0.0, "wait_burden_value": 0.297, "priority_score": 70.29, "normalized_priority_score": 93.06, "score_breakdown_json": { "no_shelter": { "label": "no shelter", "value": 1.0, "weight": 0.35, "score": 35.0 }, "low_tree_cover": { "label": "low tree cover", "value": 0.833, "weight": 0.25, "score": 20.83 }, "heat_burden": { "label": "high heat burden", "value": 0.0, "weight": 0.15, "score": 0.0 }, "wait_burden": { "label": "long scheduled wait exposure", "value": 0.297, "weight": 0.15, "score": 4.46 }, "no_bench": { "label": "nearby seating gap", "value": 1.0, "weight": 0.1, "score": 10.0 } }, "top_contributors": "no shelter, low tree cover, nearby seating gap", "recommended_intervention": "Install a modular shade canopy, add seating, increase tree cover near the curb.", "recommended_action_summary": "Shade canopy | Add seating | Increase tree cover", "planner_note": "This stop is a critical priority because it combines no shelter, low tree cover, and nearby seating gap. The most practical near-term intervention is to install a modular shade canopy, add seating, increase tree cover near the curb.", "planner_note_reason": "This stop is a critical priority because it combines no shelter, low tree cover, and nearby seating gap.", "planner_note_recommendation": "The most practical near-term intervention is to install a modular shade canopy, add seating, increase tree cover near the curb.", "planner_note_urgency": "Critical", "planner_note_source": "Deterministic fallback" }, "geometry": { "type": "Point", "coordinates": [ -73.988474, 40.718247 ] } },
{ "type": "Feature", "properties": { "stop_id": "401191", "stop_sequence": 7, "stop_name": "E 14 ST/3 AV", "stop_lat": 40.733008, "stop_lon": -73.986729, "avg_headway_minutes": 10.88, "scheduled_departures_in_window": 33, "route_id": "M14A+", "route_short_name": "M14A-SBS", "direction_id": 0, "trip_headsign": "SELECT BUS LES GRAND-FDR via 14 ST", "service_date": "2026-04-24", "wait_source": "MTA GTFS window 12:00:00-18:00:00", "has_shelter": false, "shelter_distance_ft": 231.4, "shelter_source": "NYC DOT Bus Stop Shelters", "has_nearby_seating": false, "seating_distance_ft": 610.7, "bench_source": "NYC DOT Seating Locations", "nearby_tree_count": 3, "nearby_tree_dbh_sum": 39.0, "tree_source": "NYC Street Tree Census", "weather_point_lat": 40.730546, "weather_point_lon": -73.989855, "weather_metric_used": "apparentTemperature", "weather_metric_display": "Feels-like temperature", "max_weather_value_f": 63.0, "heat_burden_score": 0.0, "weather_source": "https://api.weather.gov/gridpoints/OKX/34,43", "weather_source_label": "NWS / weather.gov", "weather_point_url": "https://api.weather.gov/points/40.730546,-73.989855", "weather_updated_at": "2026-04-24T11:02:02+00:00", "weather_refreshed_at": "2026-04-24T15:31:17.836529-04:00", "weather_horizon_hours": 8, "weather_summary": "Feels-like temperature forecast used for the next 8 hours", "resolved_image_path": "/home/rithwik_amajala/code4city/data/raw/stop_images/mapillary_401191.jpg", "image_provider": "Mapillary", "image_source_url": "https://scontent-lga3-1.xx.fbcdn.net/m1/v/t6/An9N0UMml0R62-lZ-SLHU8T2jOF86Z9SenAkzRQhzvOgpXpnXExVtFrUUSCGWMwXvjSwcMFK8R9MLa_kKKJsnFzIHuyv2c3JO6vA_0WXCy5O3-Y_bUNiYZyi0rtQd_PMX64JGtVXlui8l5fRhjExUAY?stp=s1024x512&edm=ALXxkZ8EAAAA&_nc_gid=sghXMwYeC6jiLGgzs_k4dg&_nc_oc=Adq1fhE7_MhCxtF_Rl4jR3Vg9kiHFViwNfCyDWtwrnxXhvHqQukU2Iqz44ZeaoKceVk&ccb=10-5&oh=00_Af0d9tgaFNRnCqz3zy7NGH5_-ymxlNvhtzEwWAtFPixZ7g&oe=6A134142&_nc_sid=201bca", "image_attribution_url": "https://www.mapillary.com/app/?pKey=1220259602986659", "image_author": "jlin4529", "image_license": "Mapillary Terms of Use", "image_capture_date": "2026-01-31", "image_distance_m": 19.1, "image_fetch_status": "downloaded public image", "image_available": true, "image_path": "/home/rithwik_amajala/code4city/data/raw/stop_images/mapillary_401191.jpg", "visible_tree_ratio": 0.02, "open_sky_ratio": 0.572, "shelter_image_estimate": "True", "shelter_image_confidence": 0.836, "bench_image_estimate": "True", "bench_image_confidence": 1.0, "vision_method": "OpenCV color-mask and edge-line heuristics", "vision_error": null, "route_rank": 7, "corridor_name": "New York City M14A-SBS direction 0", "corridor_id": "m14a_sbs__dir_0", "shelter_present_effective": false, "bench_present_effective": false, "combined_tree_cover_score": 0.26, "no_shelter_value": 1.0, "no_bench_value": 1.0, "low_tree_cover_value": 0.74, "heat_burden_value": 0.0, "wait_burden_value": 0.294, "priority_score": 67.91, "normalized_priority_score": 89.09, "score_breakdown_json": { "no_shelter": { "label": "no shelter", "value": 1.0, "weight": 0.35, "score": 35.0 }, "low_tree_cover": { "label": "low tree cover", "value": 0.74, "weight": 0.25, "score": 18.5 }, "heat_burden": { "label": "high heat burden", "value": 0.0, "weight": 0.15, "score": 0.0 }, "wait_burden": { "label": "long scheduled wait exposure", "value": 0.294, "weight": 0.15, "score": 4.41 }, "no_bench": { "label": "nearby seating gap", "value": 1.0, "weight": 0.1, "score": 10.0 } }, "top_contributors": "no shelter, low tree cover, nearby seating gap", "recommended_intervention": "Install a modular shade canopy, add seating, increase tree cover near the curb.", "recommended_action_summary": "Shade canopy | Add seating | Increase tree cover", "planner_note": "This stop is a critical priority because it combines no shelter, low tree cover, and nearby seating gap. The most practical near-term intervention is to install a modular shade canopy, add seating, increase tree cover near the curb.", "planner_note_reason": "This stop is a critical priority because it combines no shelter, low tree cover, and nearby seating gap.", "planner_note_recommendation": "The most practical near-term intervention is to install a modular shade canopy, add seating, increase tree cover near the curb.", "planner_note_urgency": "Critical", "planner_note_source": "Deterministic fallback" }, "geometry": { "type": "Point", "coordinates": [ -73.986729, 40.733008 ] } },
{ "type": "Feature", "properties": { "stop_id": "405576", "stop_sequence": 12, "stop_name": "AVENUE A/E 5 ST", "stop_lat": 40.724805, "stop_lon": -73.984499, "avg_headway_minutes": 10.88, "scheduled_departures_in_window": 33, "route_id": "M14A+", "route_short_name": "M14A-SBS", "direction_id": 0, "trip_headsign": "SELECT BUS LES GRAND-FDR via 14 ST", "service_date": "2026-04-24", "wait_source": "MTA GTFS window 12:00:00-18:00:00", "has_shelter": false, "shelter_distance_ft": 151.6, "shelter_source": "NYC DOT Bus Stop Shelters", "has_nearby_seating": false, "seating_distance_ft": 100.0, "bench_source": "NYC DOT Seating Locations", "nearby_tree_count": 4, "nearby_tree_dbh_sum": 35.0, "tree_source": "NYC Street Tree Census", "weather_point_lat": 40.730546, "weather_point_lon": -73.989855, "weather_metric_used": "apparentTemperature", "weather_metric_display": "Feels-like temperature", "max_weather_value_f": 63.0, "heat_burden_score": 0.0, "weather_source": "https://api.weather.gov/gridpoints/OKX/34,43", "weather_source_label": "NWS / weather.gov", "weather_point_url": "https://api.weather.gov/points/40.730546,-73.989855", "weather_updated_at": "2026-04-24T11:02:02+00:00", "weather_refreshed_at": "2026-04-24T15:31:17.836529-04:00", "weather_horizon_hours": 8, "weather_summary": "Feels-like temperature forecast used for the next 8 hours", "resolved_image_path": "/home/rithwik_amajala/code4city/data/raw/stop_images/mapillary_405576.jpg", "image_provider": "Mapillary", "image_source_url": "https://scontent-lga3-1.xx.fbcdn.net/m1/v/t6/An9Nsy_iaCjT5YM6OPn3iOVrstm3n6YL4GSEc6DNvVNkfjRkgmBzHy3_q_hmBjf6JTR9_YklgPiW3aUzaoN-O7BaR79v2j6KCgTykovYWwyFB8pSgzyOAOt1cNpV9B1RTEiOQjpfxhlsU1j_07-U-g?stp=s1024x576&edm=ALXxkZ8EAAAA&_nc_gid=douwFyHRtuOBSjP43bKemw&_nc_oc=AdoYYA1-TZmXXlqRZQUYVh8xiI_gCYWiSujm51mj2OzMWqaGaj3tqOiuLJXfR9CWuVI&ccb=10-5&oh=00_Af3t4T1MpjBS4jsoiM4PP6-2TK54F__FUs43FcCM2ex7-g&oe=6A134D17&_nc_sid=201bca", "image_attribution_url": "https://www.mapillary.com/app/?pKey=296063508905098", "image_author": "bhousel", "image_license": "Mapillary Terms of Use", "image_capture_date": "2016-08-12", "image_distance_m": 33.0, "image_fetch_status": "downloaded public image", "image_available": true, "image_path": "/home/rithwik_amajala/code4city/data/raw/stop_images/mapillary_405576.jpg", "visible_tree_ratio": 0.091, "open_sky_ratio": 0.551, "shelter_image_estimate": "True", "shelter_image_confidence": 0.915, "bench_image_estimate": "False", "bench_image_confidence": 0.2, "vision_method": "OpenCV color-mask and edge-line heuristics", "vision_error": null, "route_rank": 12, "corridor_name": "New York City M14A-SBS direction 0", "corridor_id": "m14a_sbs__dir_0", "shelter_present_effective": false, "bench_present_effective": false, "combined_tree_cover_score": 0.3788333333333333, "no_shelter_value": 1.0, "no_bench_value": 1.0, "low_tree_cover_value": 0.62116666666666664, "heat_burden_value": 0.0, "wait_burden_value": 0.294, "priority_score": 64.94, "normalized_priority_score": 84.15, "score_breakdown_json": { "no_shelter": { "label": "no shelter", "value": 1.0, "weight": 0.35, "score": 35.0 }, "low_tree_cover": { "label": "low tree cover", "value": 0.621, "weight": 0.25, "score": 15.53 }, "heat_burden": { "label": "high heat burden", "value": 0.0, "weight": 0.15, "score": 0.0 }, "wait_burden": { "label": "long scheduled wait exposure", "value": 0.294, "weight": 0.15, "score": 4.41 }, "no_bench": { "label": "nearby seating gap", "value": 1.0, "weight": 0.1, "score": 10.0 } }, "top_contributors": "no shelter, low tree cover, nearby seating gap", "recommended_intervention": "Install a modular shade canopy, add seating.", "recommended_action_summary": "Shade canopy | Add seating", "planner_note": "This stop is a high priority because it combines no shelter, low tree cover, and nearby seating gap. The most practical near-term intervention is to install a modular shade canopy, add seating.", "planner_note_reason": "This stop is a high priority because it combines no shelter, low tree cover, and nearby seating gap.", "planner_note_recommendation": "The most practical near-term intervention is to install a modular shade canopy, add seating.", "planner_note_urgency": "High", "planner_note_source": "Deterministic fallback" }, "geometry": { "type": "Point", "coordinates": [ -73.984499, 40.724805 ] } },
{ "type": "Feature", "properties": { "stop_id": "401194", "stop_sequence": 10, "stop_name": "E 14 ST/AVENUE A", "stop_lat": 40.730404, "stop_lon": -73.980445, "avg_headway_minutes": 10.88, "scheduled_departures_in_window": 33, "route_id": "M14A+", "route_short_name": "M14A-SBS", "direction_id": 0, "trip_headsign": "SELECT BUS LES GRAND-FDR via 14 ST", "service_date": "2026-04-24", "wait_source": "MTA GTFS window 12:00:00-18:00:00", "has_shelter": false, "shelter_distance_ft": 83.4, "shelter_source": "NYC DOT Bus Stop Shelters", "has_nearby_seating": false, "seating_distance_ft": 101.5, "bench_source": "NYC DOT Seating Locations", "nearby_tree_count": 5, "nearby_tree_dbh_sum": 53.0, "tree_source": "NYC Street Tree Census", "weather_point_lat": 40.730546, "weather_point_lon": -73.989855, "weather_metric_used": "apparentTemperature", "weather_metric_display": "Feels-like temperature", "max_weather_value_f": 63.0, "heat_burden_score": 0.0, "weather_source": "https://api.weather.gov/gridpoints/OKX/34,43", "weather_source_label": "NWS / weather.gov", "weather_point_url": "https://api.weather.gov/points/40.730546,-73.989855", "weather_updated_at": "2026-04-24T11:02:02+00:00", "weather_refreshed_at": "2026-04-24T15:31:17.836529-04:00", "weather_horizon_hours": 8, "weather_summary": "Feels-like temperature forecast used for the next 8 hours", "resolved_image_path": "/home/rithwik_amajala/code4city/data/raw/stop_images/mapillary_401194.jpg", "image_provider": "Mapillary", "image_source_url": "https://scontent-lga3-1.xx.fbcdn.net/m1/v/t6/An-XHn0kOgQpONfN2_xLvZzK7G0ctXqB2aefwAtciZ9d54QUhQLXTYXhr7K__G0G55au9ih0580qMujKNulYhoOK54XfREIHWbM3o6YPbKc6twb6-NsUU8QGATEIJ6C3tB792s0inEiPL08WNIMlbQ?stp=s1024x768&edm=ALXxkZ8EAAAA&_nc_gid=So71r0jZ7gm-u5GBaudk8A&_nc_oc=AdonTdTl6HNiStcJ2uk9_bboltmTgtW4ccP9bTnLVVOSpxoEueWJFIxCCU5l-tryrmc&ccb=10-5&oh=00_Af156w8TEeHeiHkFPjXz_22VOWS4tecLzlKbA-sgYVLT-Q&oe=6A132AC3&_nc_sid=201bca", "image_attribution_url": "https://www.mapillary.com/app/?pKey=175849727787871", "image_author": "kylemsnyder", "image_license": "Mapillary Terms of Use", "image_capture_date": "2020-04-04", "image_distance_m": 33.8, "image_fetch_status": "downloaded public image", "image_available": true, "image_path": "/home/rithwik_amajala/code4city/data/raw/stop_images/mapillary_401194.jpg", "visible_tree_ratio": 0.046, "open_sky_ratio": 0.547, "shelter_image_estimate": "False", "shelter_image_confidence": 0.091, "bench_image_estimate": "False", "bench_image_confidence": 0.0, "vision_method": "OpenCV color-mask and edge-line heuristics", "vision_error": null, "route_rank": 10, "corridor_name": "New York City M14A-SBS direction 0", "corridor_id": "m14a_sbs__dir_0", "shelter_present_effective": false, "bench_present_effective": false, "combined_tree_cover_score": 0.43966666666666671, "no_shelter_value": 1.0, "no_bench_value": 1.0, "low_tree_cover_value": 0.56033333333333335, "heat_burden_value": 0.0, "wait_burden_value": 0.294, "priority_score": 63.42, "normalized_priority_score": 81.62, "score_breakdown_json": { "no_shelter": { "label": "no shelter", "value": 1.0, "weight": 0.35, "score": 35.0 }, "low_tree_cover": { "label": "low tree cover", "value": 0.56, "weight": 0.25, "score": 14.01 }, "heat_burden": { "label": "high heat burden", "value": 0.0, "weight": 0.15, "score": 0.0 }, "wait_burden": { "label": "long scheduled wait exposure", "value": 0.294, "weight": 0.15, "score": 4.41 }, "no_bench": { "label": "nearby seating gap", "value": 1.0, "weight": 0.1, "score": 10.0 } }, "top_contributors": "no shelter, low tree cover, nearby seating gap", "recommended_intervention": "Install a modular shade canopy, add seating.", "recommended_action_summary": "Shade canopy | Add seating", "planner_note": "This stop is a high priority because it combines no shelter, low tree cover, and nearby seating gap. The most practical near-term intervention is to install a modular shade canopy, add seating.", "planner_note_reason": "This stop is a high priority because it combines no shelter, low tree cover, and nearby seating gap.", "planner_note_recommendation": "The most practical near-term intervention is to install a modular shade canopy, add seating.", "planner_note_urgency": "High", "planner_note_source": "Deterministic fallback" }, "geometry": { "type": "Point", "coordinates": [ -73.980445, 40.730404 ] } },
{ "type": "Feature", "properties": { "stop_id": "401610", "stop_sequence": 11, "stop_name": "AVENUE A/E 11 ST", "stop_lat": 40.728215, "stop_lon": -73.982068, "avg_headway_minutes": 10.88, "scheduled_departures_in_window": 33, "route_id": "M14A+", "route_short_name": "M14A-SBS", "direction_id": 0, "trip_headsign": "SELECT BUS LES GRAND-FDR via 14 ST", "service_date": "2026-04-24", "wait_source": "MTA GTFS window 12:00:00-18:00:00", "has_shelter": false, "shelter_distance_ft": 228.6, "shelter_source": "NYC DOT Bus Stop Shelters", "has_nearby_seating": false, "seating_distance_ft": 155.5, "bench_source": "NYC DOT Seating Locations", "nearby_tree_count": 8, "nearby_tree_dbh_sum": 73.0, "tree_source": "NYC Street Tree Census", "weather_point_lat": 40.730546, "weather_point_lon": -73.989855, "weather_metric_used": "apparentTemperature", "weather_metric_display": "Feels-like temperature", "max_weather_value_f": 63.0, "heat_burden_score": 0.0, "weather_source": "https://api.weather.gov/gridpoints/OKX/34,43", "weather_source_label": "NWS / weather.gov", "weather_point_url": "https://api.weather.gov/points/40.730546,-73.989855", "weather_updated_at": "2026-04-24T11:02:02+00:00", "weather_refreshed_at": "2026-04-24T15:31:17.836529-04:00", "weather_horizon_hours": 8, "weather_summary": "Feels-like temperature forecast used for the next 8 hours", "resolved_image_path": "/home/rithwik_amajala/code4city/data/raw/stop_images/mapillary_401610.jpg", "image_provider": "Mapillary", "image_source_url": "https://scontent-lga3-1.xx.fbcdn.net/m1/v/t6/An-mGEdmnadU4Bnu4WgkUOgCimwMU1cMmuTwavyGoOSd3Y3u-YNKbZsK2qpd3B2zucjTGWe0TfkvkPcWZfGQqV0jRWf8lP-Yfa_-rsEdg0ZCjcfg5YJNV8epo9KwVpk6VYX_GO05Scs-gjDDncetNGk?stp=s1024x768&edm=ALXxkZ8EAAAA&_nc_gid=ImGaVjQG5yZ3OvfvueR2Ag&_nc_oc=AdrnQcbKncbTPWPSQ3bM6L22gFtiCPBJ1xwyKNDpEbjrFYslpVp_rdBhC_kuIhGlNik&ccb=10-5&oh=00_Af1oXJSyNW_b3-hvSluOUpO_jbTHCHt--05PxSbtAuNa7A&oe=6A134FCE&_nc_sid=201bca", "image_attribution_url": "https://www.mapillary.com/app/?pKey=690139660762489", "image_author": "jlin4529", "image_license": "Mapillary Terms of Use", "image_capture_date": "2025-09-25", "image_distance_m": 21.4, "image_fetch_status": "downloaded public image", "image_available": true, "image_path": "/home/rithwik_amajala/code4city/data/raw/stop_images/mapillary_401610.jpg", "visible_tree_ratio": 0.048, "open_sky_ratio": 0.442, "shelter_image_estimate": "False", "shelter_image_confidence": 0.208, "bench_image_estimate": "False", "bench_image_confidence": 0.1, "vision_method": "OpenCV color-mask and edge-line heuristics", "vision_error": null, "route_rank": 11, "corridor_name": "New York City M14A-SBS direction 0", "corridor_id": "m14a_sbs__dir_0", "shelter_present_effective": false, "bench_present_effective": false, "combined_tree_cover_score": 0.524, "no_shelter_value": 1.0, "no_bench_value": 1.0, "low_tree_cover_value": 0.476, "heat_burden_value": 0.0, "wait_burden_value": 0.294, "priority_score": 61.31, "normalized_priority_score": 78.1, "score_breakdown_json": { "no_shelter": { "label": "no shelter", "value": 1.0, "weight": 0.35, "score": 35.0 }, "low_tree_cover": { "label": "low tree cover", "value": 0.476, "weight": 0.25, "score": 11.9 }, "heat_burden": { "label": "high heat burden", "value": 0.0, "weight": 0.15, "score": 0.0 }, "wait_burden": { "label": "long scheduled wait exposure", "value": 0.294, "weight": 0.15, "score": 4.41 }, "no_bench": { "label": "nearby seating gap", "value": 1.0, "weight": 0.1, "score": 10.0 } }, "top_contributors": "no shelter, low tree cover, nearby seating gap", "recommended_intervention": "Install a modular shade canopy, add seating.", "recommended_action_summary": "Shade canopy | Add seating", "planner_note": "This stop is a high priority because it combines no shelter, low tree cover, and nearby seating gap. The most practical near-term intervention is to install a modular shade canopy, add seating.", "planner_note_reason": "This stop is a high priority because it combines no shelter, low tree cover, and nearby seating gap.", "planner_note_recommendation": "The most practical near-term intervention is to install a modular shade canopy, add seating.", "planner_note_urgency": "High", "planner_note_source": "Deterministic fallback" }, "geometry": { "type": "Point", "coordinates": [ -73.982068, 40.728215 ] } },
{ "type": "Feature", "properties": { "stop_id": "401193", "stop_sequence": 9, "stop_name": "E 14 ST/1 AV", "stop_lat": 40.731086, "stop_lon": -73.982172, "avg_headway_minutes": 10.88, "scheduled_departures_in_window": 33, "route_id": "M14A+", "route_short_name": "M14A-SBS", "direction_id": 0, "trip_headsign": "SELECT BUS LES GRAND-FDR via 14 ST", "service_date": "2026-04-24", "wait_source": "MTA GTFS window 12:00:00-18:00:00", "has_shelter": false, "shelter_distance_ft": 89.2, "shelter_source": "NYC DOT Bus Stop Shelters", "has_nearby_seating": true, "seating_distance_ft": 0.0, "bench_source": "NYC DOT Seating Locations", "nearby_tree_count": 4, "nearby_tree_dbh_sum": 57.0, "tree_source": "NYC Street Tree Census", "weather_point_lat": 40.730546, "weather_point_lon": -73.989855, "weather_metric_used": "apparentTemperature", "weather_metric_display": "Feels-like temperature", "max_weather_value_f": 63.0, "heat_burden_score": 0.0, "weather_source": "https://api.weather.gov/gridpoints/OKX/34,43", "weather_source_label": "NWS / weather.gov", "weather_point_url": "https://api.weather.gov/points/40.730546,-73.989855", "weather_updated_at": "2026-04-24T11:02:02+00:00", "weather_refreshed_at": "2026-04-24T15:31:17.836529-04:00", "weather_horizon_hours": 8, "weather_summary": "Feels-like temperature forecast used for the next 8 hours", "resolved_image_path": "/home/rithwik_amajala/code4city/data/raw/stop_images/mapillary_401193.jpg", "image_provider": "Mapillary", "image_source_url": "https://scontent-lga3-1.xx.fbcdn.net/m1/v/t6/An9XOEpzMzMCZtE_AaUkwQgaZGQvHPYgw0es0e4k7xfgh7JE-VVMDf1HVLMgfsDwqpqpkWAYBABbzv5kMTNAZCEdpkloWRVevGd-r4M81Cee0Qxl_pCtgkPUNRvZN5nEdWf5KbpN3UF5kYX_sWtq250?stp=s1024x512&edm=ALXxkZ8EAAAA&_nc_gid=rAXRbTF4tHm0Ih0PVKN5PQ&_nc_oc=Adpl9M-wbA0ksy1jIVWa_YqVdk-KvNBbHHebZb7ndKzYLOcD258IRcZKuzXsl50RPpM&ccb=10-5&oh=00_Af2i486Pa79W5YLwrWJ3g98UKiZALuw3m2kniOHwm5GvEA&oe=6A133964&_nc_sid=201bca", "image_attribution_url": "https://www.mapillary.com/app/?pKey=1157084189647584", "image_author": "jlin4529", "image_license": "Mapillary Terms of Use", "image_capture_date": "2026-02-03", "image_distance_m": 30.1, "image_fetch_status": "downloaded public image", "image_available": true, "image_path": "/home/rithwik_amajala/code4city/data/raw/stop_images/mapillary_401193.jpg", "visible_tree_ratio": 0.015, "open_sky_ratio": 0.816, "shelter_image_estimate": "True", "shelter_image_confidence": 1.0, "bench_image_estimate": "True", "bench_image_confidence": 1.0, "vision_method": "OpenCV color-mask and edge-line heuristics", "vision_error": null, "route_rank": 9, "corridor_name": "New York City M14A-SBS direction 0", "corridor_id": "m14a_sbs__dir_0", "shelter_present_effective": false, "bench_present_effective": true, "combined_tree_cover_score": 0.34083333333333332, "no_shelter_value": 1.0, "no_bench_value": 0.0, "low_tree_cover_value": 0.65916666666666668, "heat_burden_value": 0.0, "wait_burden_value": 0.294, "priority_score": 55.89, "normalized_priority_score": 69.08, "score_breakdown_json": { "no_shelter": { "label": "no shelter", "value": 1.0, "weight": 0.35, "score": 35.0 }, "low_tree_cover": { "label": "low tree cover", "value": 0.659, "weight": 0.25, "score": 16.48 }, "heat_burden": { "label": "high heat burden", "value": 0.0, "weight": 0.15, "score": 0.0 }, "wait_burden": { "label": "long scheduled wait exposure", "value": 0.294, "weight": 0.15, "score": 4.41 }, "no_bench": { "label": "nearby seating gap", "value": 0.0, "weight": 0.1, "score": 0.0 } }, "top_contributors": "no shelter, low tree cover, long scheduled wait exposure", "recommended_intervention": "Install a modular shade canopy, increase tree cover near the curb.", "recommended_action_summary": "Shade canopy | Increase tree cover", "planner_note": "This stop is a high priority because it combines no shelter, low tree cover, and long scheduled wait exposure. The most practical near-term intervention is to install a modular shade canopy, increase tree cover near the curb.", "planner_note_reason": "This stop is a high priority because it combines no shelter, low tree cover, and long scheduled wait exposure.", "planner_note_recommendation": "The most practical near-term intervention is to install a modular shade canopy, increase tree cover near the curb.", "planner_note_urgency": "High", "planner_note_source": "Deterministic fallback" }, "geometry": { "type": "Point", "coordinates": [ -73.982172, 40.731086 ] } },
{ "type": "Feature", "properties": { "stop_id": "404271", "stop_sequence": 5, "stop_name": "E 14 ST/UNIVERSITY PL", "stop_lat": 40.735177, "stop_lon": -73.991881, "avg_headway_minutes": 10.89, "scheduled_departures_in_window": 33, "route_id": "M14A+", "route_short_name": "M14A-SBS", "direction_id": 0, "trip_headsign": "SELECT BUS LES GRAND-FDR via 14 ST", "service_date": "2026-04-24", "wait_source": "MTA GTFS window 12:00:00-18:00:00", "has_shelter": false, "shelter_distance_ft": 774.1, "shelter_source": "NYC DOT Bus Stop Shelters", "has_nearby_seating": false, "seating_distance_ft": 434.7, "bench_source": "NYC DOT Seating Locations", "nearby_tree_count": 5, "nearby_tree_dbh_sum": 33.0, "tree_source": "NYC Street Tree Census", "weather_point_lat": 40.730546, "weather_point_lon": -73.989855, "weather_metric_used": "apparentTemperature", "weather_metric_display": "Feels-like temperature", "max_weather_value_f": 63.0, "heat_burden_score": 0.0, "weather_source": "https://api.weather.gov/gridpoints/OKX/34,43", "weather_source_label": "NWS / weather.gov", "weather_point_url": "https://api.weather.gov/points/40.730546,-73.989855", "weather_updated_at": "2026-04-24T11:02:02+00:00", "weather_refreshed_at": "2026-04-24T15:31:17.836529-04:00", "weather_horizon_hours": 8, "weather_summary": "Feels-like temperature forecast used for the next 8 hours", "resolved_image_path": null, "image_provider": null, "image_source_url": null, "image_attribution_url": null, "image_author": null, "image_license": null, "image_capture_date": null, "image_distance_m": null, "image_fetch_status": "no nearby public image found", "image_available": false, "image_path": null, "visible_tree_ratio": null, "open_sky_ratio": null, "shelter_image_estimate": null, "shelter_image_confidence": null, "bench_image_estimate": null, "bench_image_confidence": null, "vision_method": null, "vision_error": "image unavailable", "route_rank": 5, "corridor_name": "New York City M14A-SBS direction 0", "corridor_id": "m14a_sbs__dir_0", "shelter_present_effective": false, "bench_present_effective": false, "combined_tree_cover_score": 0.83333333333333337, "no_shelter_value": 1.0, "no_bench_value": 1.0, "low_tree_cover_value": 0.16666666666666663, "heat_burden_value": 0.0, "wait_burden_value": 0.2945, "priority_score": 53.59, "normalized_priority_score": 65.25, "score_breakdown_json": { "no_shelter": { "label": "no shelter", "value": 1.0, "weight": 0.35, "score": 35.0 }, "low_tree_cover": { "label": "low tree cover", "value": 0.167, "weight": 0.25, "score": 4.17 }, "heat_burden": { "label": "high heat burden", "value": 0.0, "weight": 0.15, "score": 0.0 }, "wait_burden": { "label": "long scheduled wait exposure", "value": 0.295, "weight": 0.15, "score": 4.42 }, "no_bench": { "label": "nearby seating gap", "value": 1.0, "weight": 0.1, "score": 10.0 } }, "top_contributors": "no shelter, nearby seating gap, long scheduled wait exposure", "recommended_intervention": "Install a modular shade canopy, add seating.", "recommended_action_summary": "Shade canopy | Add seating", "planner_note": "This stop is a high priority because it combines no shelter, nearby seating gap, and long scheduled wait exposure. The most practical near-term intervention is to install a modular shade canopy, add seating.", "planner_note_reason": "This stop is a high priority because it combines no shelter, nearby seating gap, and long scheduled wait exposure.", "planner_note_recommendation": "The most practical near-term intervention is to install a modular shade canopy, add seating.", "planner_note_urgency": "High", "planner_note_source": "Deterministic fallback" }, "geometry": { "type": "Point", "coordinates": [ -73.991881, 40.735177 ] } },
{ "type": "Feature", "properties": { "stop_id": "403556", "stop_sequence": 6, "stop_name": "E 14 ST/IRVING PL", "stop_lat": 40.733947, "stop_lon": -73.988902, "avg_headway_minutes": 10.88, "scheduled_departures_in_window": 33, "route_id": "M14A+", "route_short_name": "M14A-SBS", "direction_id": 0, "trip_headsign": "SELECT BUS LES GRAND-FDR via 14 ST", "service_date": "2026-04-24", "wait_source": "MTA GTFS window 12:00:00-18:00:00", "has_shelter": false, "shelter_distance_ft": 235.3, "shelter_source": "NYC DOT Bus Stop Shelters", "has_nearby_seating": true, "seating_distance_ft": 33.9, "bench_source": "NYC DOT Seating Locations", "nearby_tree_count": 3, "nearby_tree_dbh_sum": 18.0, "tree_source": "NYC Street Tree Census", "weather_point_lat": 40.730546, "weather_point_lon": -73.989855, "weather_metric_used": "apparentTemperature", "weather_metric_display": "Feels-like temperature", "max_weather_value_f": 63.0, "heat_burden_score": 0.0, "weather_source": "https://api.weather.gov/gridpoints/OKX/34,43", "weather_source_label": "NWS / weather.gov", "weather_point_url": "https://api.weather.gov/points/40.730546,-73.989855", "weather_updated_at": "2026-04-24T11:02:02+00:00", "weather_refreshed_at": "2026-04-24T15:31:17.836529-04:00", "weather_horizon_hours": 8, "weather_summary": "Feels-like temperature forecast used for the next 8 hours", "resolved_image_path": null, "image_provider": null, "image_source_url": null, "image_attribution_url": null, "image_author": null, "image_license": null, "image_capture_date": null, "image_distance_m": null, "image_fetch_status": "no nearby public image found", "image_available": false, "image_path": null, "visible_tree_ratio": null, "open_sky_ratio": null, "shelter_image_estimate": null, "shelter_image_confidence": null, "bench_image_estimate": null, "bench_image_confidence": null, "vision_method": null, "vision_error": "image unavailable", "route_rank": 6, "corridor_name": "New York City M14A-SBS direction 0", "corridor_id": "m14a_sbs__dir_0", "shelter_present_effective": false, "bench_present_effective": true, "combined_tree_cover_score": 0.5, "no_shelter_value": 1.0, "no_bench_value": 0.0, "low_tree_cover_value": 0.5, "heat_burden_value": 0.0, "wait_burden_value": 0.294, "priority_score": 51.91, "normalized_priority_score": 62.45, "score_breakdown_json": { "no_shelter": { "label": "no shelter", "value": 1.0, "weight": 0.35, "score": 35.0 }, "low_tree_cover": { "label": "low tree cover", "value": 0.5, "weight": 0.25, "score": 12.5 }, "heat_burden": { "label": "high heat burden", "value": 0.0, "weight": 0.15, "score": 0.0 }, "wait_burden": { "label": "long scheduled wait exposure", "value": 0.294, "weight": 0.15, "score": 4.41 }, "no_bench": { "label": "nearby seating gap", "value": 0.0, "weight": 0.1, "score": 0.0 } }, "top_contributors": "no shelter, low tree cover, long scheduled wait exposure", "recommended_intervention": "Install a modular shade canopy.", "recommended_action_summary": "Shade canopy", "planner_note": "This stop is a medium priority because it combines no shelter, low tree cover, and long scheduled wait exposure. The most practical near-term intervention is to install a modular shade canopy.", "planner_note_reason": "This stop is a medium priority because it combines no shelter, low tree cover, and long scheduled wait exposure.", "planner_note_recommendation": "The most practical near-term intervention is to install a modular shade canopy.", "planner_note_urgency": "Medium", "planner_note_source": "Deterministic fallback" }, "geometry": { "type": "Point", "coordinates": [ -73.988902, 40.733947 ] } },
{ "type": "Feature", "properties": { "stop_id": "401608", "stop_sequence": 1, "stop_name": "8 AV/BLEECKER ST", "stop_lat": 40.737379, "stop_lon": -74.004929, "avg_headway_minutes": 10.94, "scheduled_departures_in_window": 33, "route_id": "M14A+", "route_short_name": "M14A-SBS", "direction_id": 0, "trip_headsign": "SELECT BUS LES GRAND-FDR via 14 ST", "service_date": "2026-04-24", "wait_source": "MTA GTFS window 12:00:00-18:00:00", "has_shelter": false, "shelter_distance_ft": 756.9, "shelter_source": "NYC DOT Bus Stop Shelters", "has_nearby_seating": false, "seating_distance_ft": 271.4, "bench_source": "NYC DOT Seating Locations", "nearby_tree_count": 10, "nearby_tree_dbh_sum": 84.0, "tree_source": "NYC Street Tree Census", "weather_point_lat": 40.730546, "weather_point_lon": -73.989855, "weather_metric_used": "apparentTemperature", "weather_metric_display": "Feels-like temperature", "max_weather_value_f": 63.0, "heat_burden_score": 0.0, "weather_source": "https://api.weather.gov/gridpoints/OKX/34,43", "weather_source_label": "NWS / weather.gov", "weather_point_url": "https://api.weather.gov/points/40.730546,-73.989855", "weather_updated_at": "2026-04-24T11:02:02+00:00", "weather_refreshed_at": "2026-04-24T15:31:17.836529-04:00", "weather_horizon_hours": 8, "weather_summary": "Feels-like temperature forecast used for the next 8 hours", "resolved_image_path": null, "image_provider": null, "image_source_url": null, "image_attribution_url": null, "image_author": null, "image_license": null, "image_capture_date": null, "image_distance_m": null, "image_fetch_status": "no nearby public image found", "image_available": false, "image_path": null, "visible_tree_ratio": null, "open_sky_ratio": null, "shelter_image_estimate": null, "shelter_image_confidence": null, "bench_image_estimate": null, "bench_image_confidence": null, "vision_method": null, "vision_error": "image unavailable", "route_rank": 1, "corridor_name": "New York City M14A-SBS direction 0", "corridor_id": "m14a_sbs__dir_0", "shelter_present_effective": false, "bench_present_effective": false, "combined_tree_cover_score": 1.0, "no_shelter_value": 1.0, "no_bench_value": 1.0, "low_tree_cover_value": 0.0, "heat_burden_value": 0.0, "wait_burden_value": 0.297, "priority_score": 49.46, "normalized_priority_score": 58.37, "score_breakdown_json": { "no_shelter": { "label": "no shelter", "value": 1.0, "weight": 0.35, "score": 35.0 }, "low_tree_cover": { "label": "low tree cover", "value": 0.0, "weight": 0.25, "score": 0.0 }, "heat_burden": { "label": "high heat burden", "value": 0.0, "weight": 0.15, "score": 0.0 }, "wait_burden": { "label": "long scheduled wait exposure", "value": 0.297, "weight": 0.15, "score": 4.46 }, "no_bench": { "label": "nearby seating gap", "value": 1.0, "weight": 0.1, "score": 10.0 } }, "top_contributors": "no shelter, nearby seating gap, long scheduled wait exposure", "recommended_intervention": "Install a modular shade canopy, add seating.", "recommended_action_summary": "Shade canopy | Add seating", "planner_note": "This stop is a medium priority because it combines no shelter, nearby seating gap, and long scheduled wait exposure. The most practical near-term intervention is to install a modular shade canopy, add seating.", "planner_note_reason": "This stop is a medium priority because it combines no shelter, nearby seating gap, and long scheduled wait exposure.", "planner_note_recommendation": "The most practical near-term intervention is to install a modular shade canopy, add seating.", "planner_note_urgency": "Medium", "planner_note_source": "Deterministic fallback" }, "geometry": { "type": "Point", "coordinates": [ -74.004929, 40.737379 ] } },
{ "type": "Feature", "properties": { "stop_id": "401294", "stop_sequence": 3, "stop_name": "W 14 ST/7 AV", "stop_lat": 40.738287, "stop_lon": -73.999271, "avg_headway_minutes": 10.91, "scheduled_departures_in_window": 33, "route_id": "M14A+", "route_short_name": "M14A-SBS", "direction_id": 0, "trip_headsign": "SELECT BUS LES GRAND-FDR via 14 ST", "service_date": "2026-04-24", "wait_source": "MTA GTFS window 12:00:00-18:00:00", "has_shelter": true, "shelter_distance_ft": 23.9, "shelter_source": "NYC DOT Bus Stop Shelters", "has_nearby_seating": false, "seating_distance_ft": 570.3, "bench_source": "NYC DOT Seating Locations", "nearby_tree_count": 3, "nearby_tree_dbh_sum": 30.0, "tree_source": "NYC Street Tree Census", "weather_point_lat": 40.730546, "weather_point_lon": -73.989855, "weather_metric_used": "apparentTemperature", "weather_metric_display": "Feels-like temperature", "max_weather_value_f": 63.0, "heat_burden_score": 0.0, "weather_source": "https://api.weather.gov/gridpoints/OKX/34,43", "weather_source_label": "NWS / weather.gov", "weather_point_url": "https://api.weather.gov/points/40.730546,-73.989855", "weather_updated_at": "2026-04-24T11:02:02+00:00", "weather_refreshed_at": "2026-04-24T15:31:17.836529-04:00", "weather_horizon_hours": 8, "weather_summary": "Feels-like temperature forecast used for the next 8 hours", "resolved_image_path": "/home/rithwik_amajala/code4city/data/raw/stop_images/mapillary_401294.jpg", "image_provider": "Mapillary", "image_source_url": "https://scontent-lga3-1.xx.fbcdn.net/m1/v/t6/An9nta93RtuaNYIGQWcue5igS4zrzy9rT_vsY8ZTvixu0Zd9f2PDRBRYjz1ZGFIE5r3zdTIhoWg2A9Iywf3t_QTgN5Hw8E5jdETORWgwcaTksKyqbvxN9yktgNTHNNv96ljQQwGTabSYXfKnOljArxQ?stp=s1024x512&edm=ALXxkZ8EAAAA&_nc_gid=99DrSausttjDyj7k_tex5g&_nc_oc=AdoO-aEYgQ9cEJL0nWa1FcE6X_g9wcL6mv0_VXcjsdhLGqoSn5Z5MHfalGVlaJ6TUrM&ccb=10-5&oh=00_Af1H9avAJ1p4YqXBU1eCPC4XfVJoSohXtd8jaG6CJrRXbQ&oe=6A1348F8&_nc_sid=201bca", "image_attribution_url": "https://www.mapillary.com/app/?pKey=1240076144263830", "image_author": "jlin4529", "image_license": "Mapillary Terms of Use", "image_capture_date": "2026-02-19", "image_distance_m": 15.6, "image_fetch_status": "downloaded public image", "image_available": true, "image_path": "/home/rithwik_amajala/code4city/data/raw/stop_images/mapillary_401294.jpg", "visible_tree_ratio": 0.012, "open_sky_ratio": 0.557, "shelter_image_estimate": "False", "shelter_image_confidence": 0.362, "bench_image_estimate": "True", "bench_image_confidence": 0.7, "vision_method": "OpenCV color-mask and edge-line heuristics", "vision_error": null, "route_rank": 3, "corridor_name": "New York City M14A-SBS direction 0", "corridor_id": "m14a_sbs__dir_0", "shelter_present_effective": true, "bench_present_effective": false, "combined_tree_cover_score": 0.256, "no_shelter_value": 0.0, "no_bench_value": 1.0, "low_tree_cover_value": 0.744, "heat_burden_value": 0.0, "wait_burden_value": 0.2955, "priority_score": 33.03, "normalized_priority_score": 31.01, "score_breakdown_json": { "no_shelter": { "label": "no shelter", "value": 0.0, "weight": 0.35, "score": 0.0 }, "low_tree_cover": { "label": "low tree cover", "value": 0.744, "weight": 0.25, "score": 18.6 }, "heat_burden": { "label": "high heat burden", "value": 0.0, "weight": 0.15, "score": 0.0 }, "wait_burden": { "label": "long scheduled wait exposure", "value": 0.295, "weight": 0.15, "score": 4.43 }, "no_bench": { "label": "nearby seating gap", "value": 1.0, "weight": 0.1, "score": 10.0 } }, "top_contributors": "low tree cover, nearby seating gap, long scheduled wait exposure", "recommended_intervention": "Add seating, increase tree cover near the curb.", "recommended_action_summary": "Add seating | Increase tree cover", "planner_note": "This stop is a low priority because it combines low tree cover, nearby seating gap, and long scheduled wait exposure. The most practical near-term intervention is to add seating, increase tree cover near the curb.", "planner_note_reason": "This stop is a low priority because it combines low tree cover, nearby seating gap, and long scheduled wait exposure.", "planner_note_recommendation": "The most practical near-term intervention is to add seating, increase tree cover near the curb.", "planner_note_urgency": "Low", "planner_note_source": "Deterministic fallback" }, "geometry": { "type": "Point", "coordinates": [ -73.999271, 40.738287 ] } },
{ "type": "Feature", "properties": { "stop_id": "403475", "stop_sequence": 15, "stop_name": "GRAND ST/ESSEX ST", "stop_lat": 40.716485, "stop_lon": -73.988824, "avg_headway_minutes": 10.94, "scheduled_departures_in_window": 33, "route_id": "M14A+", "route_short_name": "M14A-SBS", "direction_id": 0, "trip_headsign": "SELECT BUS LES GRAND-FDR via 14 ST", "service_date": "2026-04-24", "wait_source": "MTA GTFS window 12:00:00-18:00:00", "has_shelter": true, "shelter_distance_ft": 31.9, "shelter_source": "NYC DOT Bus Stop Shelters", "has_nearby_seating": false, "seating_distance_ft": 581.6, "bench_source": "NYC DOT Seating Locations", "nearby_tree_count": 8, "nearby_tree_dbh_sum": 26.0, "tree_source": "NYC Street Tree Census", "weather_point_lat": 40.730546, "weather_point_lon": -73.989855, "weather_metric_used": "apparentTemperature", "weather_metric_display": "Feels-like temperature", "max_weather_value_f": 63.0, "heat_burden_score": 0.0, "weather_source": "https://api.weather.gov/gridpoints/OKX/34,43", "weather_source_label": "NWS / weather.gov", "weather_point_url": "https://api.weather.gov/points/40.730546,-73.989855", "weather_updated_at": "2026-04-24T11:02:02+00:00", "weather_refreshed_at": "2026-04-24T15:31:17.836529-04:00", "weather_horizon_hours": 8, "weather_summary": "Feels-like temperature forecast used for the next 8 hours", "resolved_image_path": null, "image_provider": null, "image_source_url": null, "image_attribution_url": null, "image_author": null, "image_license": null, "image_capture_date": null, "image_distance_m": null, "image_fetch_status": "no nearby public image found", "image_available": false, "image_path": null, "visible_tree_ratio": null, "open_sky_ratio": null, "shelter_image_estimate": null, "shelter_image_confidence": null, "bench_image_estimate": null, "bench_image_confidence": null, "vision_method": null, "vision_error": "image unavailable", "route_rank": 15, "corridor_name": "New York City M14A-SBS direction 0", "corridor_id": "m14a_sbs__dir_0", "shelter_present_effective": true, "bench_present_effective": false, "combined_tree_cover_score": 1.0, "no_shelter_value": 0.0, "no_bench_value": 1.0, "low_tree_cover_value": 0.0, "heat_burden_value": 0.0, "wait_burden_value": 0.297, "priority_score": 14.46, "normalized_priority_score": 0.08, "score_breakdown_json": { "no_shelter": { "label": "no shelter", "value": 0.0, "weight": 0.35, "score": 0.0 }, "low_tree_cover": { "label": "low tree cover", "value": 0.0, "weight": 0.25, "score": 0.0 }, "heat_burden": { "label": "high heat burden", "value": 0.0, "weight": 0.15, "score": 0.0 }, "wait_burden": { "label": "long scheduled wait exposure", "value": 0.297, "weight": 0.15, "score": 4.46 }, "no_bench": { "label": "nearby seating gap", "value": 1.0, "weight": 0.1, "score": 10.0 } }, "top_contributors": "nearby seating gap, long scheduled wait exposure", "recommended_intervention": "Add seating.", "recommended_action_summary": "Add seating", "planner_note": "This stop is a low priority because it combines nearby seating gap and long scheduled wait exposure. The most practical near-term intervention is to add seating.", "planner_note_reason": "This stop is a low priority because it combines nearby seating gap and long scheduled wait exposure.", "planner_note_recommendation": "The most practical near-term intervention is to add seating.", "planner_note_urgency": "Low", "planner_note_source": "Deterministic fallback" }, "geometry": { "type": "Point", "coordinates": [ -73.988824, 40.716485 ] } },
{ "type": "Feature", "properties": { "stop_id": "401192", "stop_sequence": 8, "stop_name": "E 14 ST/2 AV", "stop_lat": 40.732083, "stop_lon": -73.984535, "avg_headway_minutes": 10.88, "scheduled_departures_in_window": 33, "route_id": "M14A+", "route_short_name": "M14A-SBS", "direction_id": 0, "trip_headsign": "SELECT BUS LES GRAND-FDR via 14 ST", "service_date": "2026-04-24", "wait_source": "MTA GTFS window 12:00:00-18:00:00", "has_shelter": true, "shelter_distance_ft": 19.4, "shelter_source": "NYC DOT Bus Stop Shelters", "has_nearby_seating": false, "seating_distance_ft": 668.2, "bench_source": "NYC DOT Seating Locations", "nearby_tree_count": 7, "nearby_tree_dbh_sum": 67.0, "tree_source": "NYC Street Tree Census", "weather_point_lat": 40.730546, "weather_point_lon": -73.989855, "weather_metric_used": "apparentTemperature", "weather_metric_display": "Feels-like temperature", "max_weather_value_f": 63.0, "heat_burden_score": 0.0, "weather_source": "https://api.weather.gov/gridpoints/OKX/34,43", "weather_source_label": "NWS / weather.gov", "weather_point_url": "https://api.weather.gov/points/40.730546,-73.989855", "weather_updated_at": "2026-04-24T11:02:02+00:00", "weather_refreshed_at": "2026-04-24T15:31:17.836529-04:00", "weather_horizon_hours": 8, "weather_summary": "Feels-like temperature forecast used for the next 8 hours", "resolved_image_path": null, "image_provider": null, "image_source_url": null, "image_attribution_url": null, "image_author": null, "image_license": null, "image_capture_date": null, "image_distance_m": null, "image_fetch_status": "no nearby public image found", "image_available": false, "image_path": null, "visible_tree_ratio": null, "open_sky_ratio": null, "shelter_image_estimate": null, "shelter_image_confidence": null, "bench_image_estimate": null, "bench_image_confidence": null, "vision_method": null, "vision_error": "image unavailable", "route_rank": 8, "corridor_name": "New York City M14A-SBS direction 0", "corridor_id": "m14a_sbs__dir_0", "shelter_present_effective": true, "bench_present_effective": false, "combined_tree_cover_score": 1.0, "no_shelter_value": 0.0, "no_bench_value": 1.0, "low_tree_cover_value": 0.0, "heat_burden_value": 0.0, "wait_burden_value": 0.294, "priority_score": 14.41, "normalized_priority_score": 0.0, "score_breakdown_json": { "no_shelter": { "label": "no shelter", "value": 0.0, "weight": 0.35, "score": 0.0 }, "low_tree_cover": { "label": "low tree cover", "value": 0.0, "weight": 0.25, "score": 0.0 }, "heat_burden": { "label": "high heat burden", "value": 0.0, "weight": 0.15, "score": 0.0 }, "wait_burden": { "label": "long scheduled wait exposure", "value": 0.294, "weight": 0.15, "score": 4.41 }, "no_bench": { "label": "nearby seating gap", "value": 1.0, "weight": 0.1, "score": 10.0 } }, "top_contributors": "nearby seating gap, long scheduled wait exposure", "recommended_intervention": "Add seating.", "recommended_action_summary": "Add seating", "planner_note": "This stop is a low priority because it combines nearby seating gap and long scheduled wait exposure. The most practical near-term intervention is to add seating.", "planner_note_reason": "This stop is a low priority because it combines nearby seating gap and long scheduled wait exposure.", "planner_note_recommendation": "The most practical near-term intervention is to add seating.", "planner_note_urgency": "Low", "planner_note_source": "Deterministic fallback" }, "geometry": { "type": "Point", "coordinates": [ -73.984535, 40.732083 ] } }
]
}
