{
"type": "FeatureCollection",
"name": "stops_scored",
"crs": { "type": "name", "properties": { "name": "urn:ogc:def:crs:OGC:1.3:CRS84" } },
"features": [
{ "type": "Feature", "properties": { "stop_id": "402755", "stop_sequence": 5, "stop_name": "BOWERY/GRAND ST", "stop_lat": 40.718788, "stop_lon": -73.994542, "avg_headway_minutes": 12.16, "scheduled_departures_in_window": 29, "route_id": "M103", "route_short_name": "M103", "direction_id": 0, "trip_headsign": "EAST HARLEM 125 ST via 3 AV", "service_date": "2026-04-24", "wait_source": "MTA GTFS window 12:00:00-18:00:00", "has_shelter": false, "shelter_distance_ft": 685.6, "shelter_source": "NYC DOT Bus Stop Shelters", "has_nearby_seating": false, "seating_distance_ft": 76.2, "bench_source": "NYC DOT Seating Locations", "nearby_tree_count": 0, "nearby_tree_dbh_sum": 0.0, "tree_source": "NYC Street Tree Census", "weather_point_lat": 40.725679, "weather_point_lon": -73.991785, "weather_metric_used": "apparentTemperature", "weather_metric_display": "Feels-like temperature", "max_weather_value_f": 63.0, "heat_burden_score": 0.0, "weather_source": "https://api.weather.gov/gridpoints/OKX/34,43", "weather_source_label": "NWS / weather.gov", "weather_point_url": "https://api.weather.gov/points/40.725679,-73.991785", "weather_updated_at": "2026-04-24T11:02:02+00:00", "weather_refreshed_at": "2026-04-24T15:30:54.417957-04:00", "weather_horizon_hours": 8, "weather_summary": "Feels-like temperature forecast used for the next 8 hours", "resolved_image_path": "/home/rithwik_amajala/code4city/data/raw/stop_images/mapillary_402755.jpg", "image_provider": "Mapillary", "image_source_url": "https://scontent-lga3-1.xx.fbcdn.net/m1/v/t6/An8E1eTNFrwMklwLHogxgYWGMLsfSFV0MnivEVbC2spLU7x0CYYPPJRSj3rjKFaKP7kb1a-7Fd4nHB-xAqG4TLqMmzMFIdOEGO09Wmd56TlNXMF3UnOspsJ6n6gz2Gnt9dWn-s-cok4CqEq9c3cO-w?stp=s1024x768&edm=ALXxkZ8EAAAA&_nc_gid=myKGi79hW0DIRLdgbcb8bw&_nc_oc=AdrGWovYXPz1SY4Z_6ep8ZI_eigDTeEYarfXp7fT9T_sC-fR0UXNI1HN1TeWuk25cJ8&ccb=10-5&oh=00_Af3RXZFXnmZRNCgjMcTruH5jwumYNNMzcGLR1A4LEX3MKw&oe=6A133713&_nc_sid=201bca", "image_attribution_url": "https://www.mapillary.com/app/?pKey=1167420488780120", "image_author": "jlin4529", "image_license": "Mapillary Terms of Use", "image_capture_date": "2025-09-24", "image_distance_m": 24.4, "image_fetch_status": "downloaded public image", "image_available": true, "image_path": "/home/rithwik_amajala/code4city/data/raw/stop_images/mapillary_402755.jpg", "visible_tree_ratio": 0.022, "open_sky_ratio": 0.382, "shelter_image_estimate": "False", "shelter_image_confidence": 0.303, "bench_image_estimate": "False", "bench_image_confidence": 0.1, "vision_method": "OpenCV color-mask and edge-line heuristics", "vision_error": null, "route_rank": 5, "corridor_name": "New York City M103 direction 0", "corridor_id": "m103__dir_0", "shelter_present_effective": false, "bench_present_effective": false, "combined_tree_cover_score": 0.011, "no_shelter_value": 1.0, "no_bench_value": 1.0, "low_tree_cover_value": 0.989, "heat_burden_value": 0.0, "wait_burden_value": 0.358, "priority_score": 75.1, "normalized_priority_score": 100.0, "score_breakdown_json": { "no_shelter": { "label": "no shelter", "value": 1.0, "weight": 0.35, "score": 35.0 }, "low_tree_cover": { "label": "low tree cover", "value": 0.989, "weight": 0.25, "score": 24.73 }, "heat_burden": { "label": "high heat burden", "value": 0.0, "weight": 0.15, "score": 0.0 }, "wait_burden": { "label": "long scheduled wait exposure", "value": 0.358, "weight": 0.15, "score": 5.37 }, "no_bench": { "label": "nearby seating gap", "value": 1.0, "weight": 0.1, "score": 10.0 } }, "top_contributors": "no shelter, low tree cover, nearby seating gap", "recommended_intervention": "Install a modular shade canopy, add seating, increase tree cover near the curb.", "recommended_action_summary": "Shade canopy | Add seating | Increase tree cover", "planner_note": "This stop is a critical priority because it combines no shelter, low tree cover, and nearby seating gap. The most practical near-term intervention is to install a modular shade canopy, add seating, increase tree cover near the curb.", "planner_note_reason": "This stop is a critical priority because it combines no shelter, low tree cover, and nearby seating gap.", "planner_note_recommendation": "The most practical near-term intervention is to install a modular shade canopy, add seating, increase tree cover near the curb.", "planner_note_urgency": "Critical", "planner_note_source": "Deterministic fallback" }, "geometry": { "type": "Point", "coordinates": [ -73.994542, 40.718788 ] } },
{ "type": "Feature", "properties": { "stop_id": "405269", "stop_sequence": 4, "stop_name": "BOWERY/HESTER ST", "stop_lat": 40.717343, "stop_lon": -73.9953, "avg_headway_minutes": 12.16, "scheduled_departures_in_window": 30, "route_id": "M103", "route_short_name": "M103", "direction_id": 0, "trip_headsign": "EAST HARLEM 125 ST via 3 AV", "service_date": "2026-04-24", "wait_source": "MTA GTFS window 12:00:00-18:00:00", "has_shelter": false, "shelter_distance_ft": 580.7, "shelter_source": "NYC DOT Bus Stop Shelters", "has_nearby_seating": false, "seating_distance_ft": 329.3, "bench_source": "NYC DOT Seating Locations", "nearby_tree_count": 2, "nearby_tree_dbh_sum": 4.0, "tree_source": "NYC Street Tree Census", "weather_point_lat": 40.725679, "weather_point_lon": -73.991785, "weather_metric_used": "apparentTemperature", "weather_metric_display": "Feels-like temperature", "max_weather_value_f": 63.0, "heat_burden_score": 0.0, "weather_source": "https://api.weather.gov/gridpoints/OKX/34,43", "weather_source_label": "NWS / weather.gov", "weather_point_url": "https://api.weather.gov/points/40.725679,-73.991785", "weather_updated_at": "2026-04-24T11:02:02+00:00", "weather_refreshed_at": "2026-04-24T15:30:54.417957-04:00", "weather_horizon_hours": 8, "weather_summary": "Feels-like temperature forecast used for the next 8 hours", "resolved_image_path": "/home/rithwik_amajala/code4city/data/raw/stop_images/mapillary_405269.jpg", "image_provider": "Mapillary", "image_source_url": "https://scontent-lga3-1.xx.fbcdn.net/m1/v/t6/An9VpQqQtgn7kjlT11oVbVXLFbhzqFlY5xX9E8oHh55xH0zOr0vGF2wFpWOSz6Tw7WxCor7b5so8H9m5ywAQuDvfoJl9mDWvDbGnHjRBObeS1mLe9XDJFiU2K997892fGk3o9IeRPSeKKeXkYjv4I00?stp=s1024x768&edm=ALXxkZ8EAAAA&_nc_gid=CT_sw2HeP9fc1BwxBbyrkg&_nc_oc=Adrme8JRkDtulSSR4rL6RBuPe4LNQePUlCZSgAT3oK9kvfbb9hNeaRPxIm2lIvdmrV4&ccb=10-5&oh=00_Af3yuY3uG8O2AAMo4ShPOopj0xxw5QbbicUK5HoU3I7nRg&oe=6A131B55&_nc_sid=201bca", "image_attribution_url": "https://www.mapillary.com/app/?pKey=3025237231090874", "image_author": "abf", "image_license": "Mapillary Terms of Use", "image_capture_date": "2020-11-10", "image_distance_m": 9.8, "image_fetch_status": "downloaded public image", "image_available": true, "image_path": "/home/rithwik_amajala/code4city/data/raw/stop_images/mapillary_405269.jpg", "visible_tree_ratio": 0.019, "open_sky_ratio": 0.336, "shelter_image_estimate": "False", "shelter_image_confidence": 0.255, "bench_image_estimate": "False", "bench_image_confidence": 0.0, "vision_method": "OpenCV color-mask and edge-line heuristics", "vision_error": null, "route_rank": 4, "corridor_name": "New York City M103 direction 0", "corridor_id": "m103__dir_0", "shelter_present_effective": false, "bench_present_effective": false, "combined_tree_cover_score": 0.17616666666666667, "no_shelter_value": 1.0, "no_bench_value": 1.0, "low_tree_cover_value": 0.82383333333333331, "heat_burden_value": 0.0, "wait_burden_value": 0.358, "priority_score": 70.97, "normalized_priority_score": 93.08, "score_breakdown_json": { "no_shelter": { "label": "no shelter", "value": 1.0, "weight": 0.35, "score": 35.0 }, "low_tree_cover": { "label": "low tree cover", "value": 0.824, "weight": 0.25, "score": 20.6 }, "heat_burden": { "label": "high heat burden", "value": 0.0, "weight": 0.15, "score": 0.0 }, "wait_burden": { "label": "long scheduled wait exposure", "value": 0.358, "weight": 0.15, "score": 5.37 }, "no_bench": { "label": "nearby seating gap", "value": 1.0, "weight": 0.1, "score": 10.0 } }, "top_contributors": "no shelter, low tree cover, nearby seating gap", "recommended_intervention": "Install a modular shade canopy, add seating, increase tree cover near the curb.", "recommended_action_summary": "Shade canopy | Add seating | Increase tree cover", "planner_note": "This stop is a critical priority because it combines no shelter, low tree cover, and nearby seating gap. The most practical near-term intervention is to install a modular shade canopy, add seating, increase tree cover near the curb.", "planner_note_reason": "This stop is a critical priority because it combines no shelter, low tree cover, and nearby seating gap.", "planner_note_recommendation": "The most practical near-term intervention is to install a modular shade canopy, add seating, increase tree cover near the curb.", "planner_note_urgency": "Critical", "planner_note_source": "Deterministic fallback" }, "geometry": { "type": "Point", "coordinates": [ -73.9953, 40.717343 ] } },
{ "type": "Feature", "properties": { "stop_id": "404857", "stop_sequence": 2, "stop_name": "PARK ROW/SAINT JAMES PL", "stop_lat": 40.713374, "stop_lon": -73.998679, "avg_headway_minutes": 12.15, "scheduled_departures_in_window": 30, "route_id": "M103", "route_short_name": "M103", "direction_id": 0, "trip_headsign": "EAST HARLEM 125 ST via 3 AV", "service_date": "2026-04-24", "wait_source": "MTA GTFS window 12:00:00-18:00:00", "has_shelter": false, "shelter_distance_ft": 341.0, "shelter_source": "NYC DOT Bus Stop Shelters", "has_nearby_seating": false, "seating_distance_ft": 102.7, "bench_source": "NYC DOT Seating Locations", "nearby_tree_count": 2, "nearby_tree_dbh_sum": 20.0, "tree_source": "NYC Street Tree Census", "weather_point_lat": 40.725679, "weather_point_lon": -73.991785, "weather_metric_used": "apparentTemperature", "weather_metric_display": "Feels-like temperature", "max_weather_value_f": 63.0, "heat_burden_score": 0.0, "weather_source": "https://api.weather.gov/gridpoints/OKX/34,43", "weather_source_label": "NWS / weather.gov", "weather_point_url": "https://api.weather.gov/points/40.725679,-73.991785", "weather_updated_at": "2026-04-24T11:02:02+00:00", "weather_refreshed_at": "2026-04-24T15:30:54.417957-04:00", "weather_horizon_hours": 8, "weather_summary": "Feels-like temperature forecast used for the next 8 hours", "resolved_image_path": "/home/rithwik_amajala/code4city/data/raw/stop_images/mapillary_404857.jpg", "image_provider": "Mapillary", "image_source_url": "https://scontent-lga3-1.xx.fbcdn.net/m1/v/t6/An_ixWeiXNQhJAxJQsxvtE_G1TrVE4AzBwCtV7Mu6flL6aYU4tqfEEFOTVsBzNwQmyfEi9IEgb0tir-buRsI5pXCOeZ0aqAfO1xy3UMEK3PmctW9Wh0ID186rAwBvWxfd7Q7wRNUROIudlgHIOkaCtE?stp=s1024x512&edm=ALXxkZ8EAAAA&_nc_gid=nDzw7JsMkel0v60s-NzL0Q&_nc_oc=AdrN3BTfN8UuqAdUhvwE9DEBooO50BHfF-7TIZEi5PL2rNidwufl0Zv6LgijZUKWSi4&ccb=10-5&oh=00_Af38HqKXVxcOPxnqRbtfkLWMffXmy1nMyLSVtXRCheQp-g&oe=6A135050&_nc_sid=201bca", "image_attribution_url": "https://www.mapillary.com/app/?pKey=2040835722982949", "image_author": "betanyc", "image_license": "Mapillary Terms of Use", "image_capture_date": "2023-10-13", "image_distance_m": 24.0, "image_fetch_status": "downloaded public image", "image_available": true, "image_path": "/home/rithwik_amajala/code4city/data/raw/stop_images/mapillary_404857.jpg", "visible_tree_ratio": 0.024, "open_sky_ratio": 0.812, "shelter_image_estimate": "False", "shelter_image_confidence": 0.344, "bench_image_estimate": "True", "bench_image_confidence": 1.0, "vision_method": "OpenCV color-mask and edge-line heuristics", "vision_error": null, "route_rank": 2, "corridor_name": "New York City M103 direction 0", "corridor_id": "m103__dir_0", "shelter_present_effective": false, "bench_present_effective": false, "combined_tree_cover_score": 0.17866666666666667, "no_shelter_value": 1.0, "no_bench_value": 1.0, "low_tree_cover_value": 0.82133333333333336, "heat_burden_value": 0.0, "wait_burden_value": 0.3575, "priority_score": 70.89, "normalized_priority_score": 92.95, "score_breakdown_json": { "no_shelter": { "label": "no shelter", "value": 1.0, "weight": 0.35, "score": 35.0 }, "low_tree_cover": { "label": "low tree cover", "value": 0.821, "weight": 0.25, "score": 20.53 }, "heat_burden": { "label": "high heat burden", "value": 0.0, "weight": 0.15, "score": 0.0 }, "wait_burden": { "label": "long scheduled wait exposure", "value": 0.358, "weight": 0.15, "score": 5.36 }, "no_bench": { "label": "nearby seating gap", "value": 1.0, "weight": 0.1, "score": 10.0 } }, "top_contributors": "no shelter, low tree cover, nearby seating gap", "recommended_intervention": "Install a modular shade canopy, add seating, increase tree cover near the curb.", "recommended_action_summary": "Shade canopy | Add seating | Increase tree cover", "planner_note": "This stop is a critical priority because it combines no shelter, low tree cover, and nearby seating gap. The most practical near-term intervention is to install a modular shade canopy, add seating, increase tree cover near the curb.", "planner_note_reason": "This stop is a critical priority because it combines no shelter, low tree cover, and nearby seating gap.", "planner_note_recommendation": "The most practical near-term intervention is to install a modular shade canopy, add seating, increase tree cover near the curb.", "planner_note_urgency": "Critical", "planner_note_source": "Deterministic fallback" }, "geometry": { "type": "Point", "coordinates": [ -73.998679, 40.713374 ] } },
{ "type": "Feature", "properties": { "stop_id": "405477", "stop_sequence": 6, "stop_name": "BOWERY/SPRING ST", "stop_lat": 40.720859, "stop_lon": -73.993749, "avg_headway_minutes": 12.17, "scheduled_departures_in_window": 29, "route_id": "M103", "route_short_name": "M103", "direction_id": 0, "trip_headsign": "EAST HARLEM 125 ST via 3 AV", "service_date": "2026-04-24", "wait_source": "MTA GTFS window 12:00:00-18:00:00", "has_shelter": false, "shelter_distance_ft": 101.5, "shelter_source": "NYC DOT Bus Stop Shelters", "has_nearby_seating": false, "seating_distance_ft": 318.1, "bench_source": "NYC DOT Seating Locations", "nearby_tree_count": 2, "nearby_tree_dbh_sum": 34.0, "tree_source": "NYC Street Tree Census", "weather_point_lat": 40.725679, "weather_point_lon": -73.991785, "weather_metric_used": "apparentTemperature", "weather_metric_display": "Feels-like temperature", "max_weather_value_f": 63.0, "heat_burden_score": 0.0, "weather_source": "https://api.weather.gov/gridpoints/OKX/34,43", "weather_source_label": "NWS / weather.gov", "weather_point_url": "https://api.weather.gov/points/40.725679,-73.991785", "weather_updated_at": "2026-04-24T11:02:02+00:00", "weather_refreshed_at": "2026-04-24T15:30:54.417957-04:00", "weather_horizon_hours": 8, "weather_summary": "Feels-like temperature forecast used for the next 8 hours", "resolved_image_path": "/home/rithwik_amajala/code4city/data/raw/stop_images/mapillary_405477.jpg", "image_provider": "Mapillary", "image_source_url": "https://scontent-lga3-1.xx.fbcdn.net/m1/v/t6/An9pDAg0g8NUh8pd4T3PZqZbpUXRWPqBLIia5wtBOovQwCHwNZfsdToyo2jZr1Dydw8saFjk06d0YYJ76NnoRg7zKvf0YvpPqNZnu_4zBr_eEg90G-WqIDMM7YsvXuJu7IoC9eYlf0lCFt3FXP_PrPk?stp=s1024x512&edm=ALXxkZ8EAAAA&_nc_gid=UoJLN71z3R8yOIUcbqwEjA&_nc_oc=AdrNzg-wVkfcsChk4ClUrM1UjcF53allrGogVuzpZHWau9bBcMWvXeUmztNlNRcwqeE&ccb=10-5&oh=00_Af0d5FpfkziNVLN2dWDIJKIYfO0nryCLaAnit5Ef9bEUbw&oe=6A134EAE&_nc_sid=201bca", "image_attribution_url": "https://www.mapillary.com/app/?pKey=1277318693072865", "image_author": "BetaNYC_Noel", "image_license": "Mapillary Terms of Use", "image_capture_date": "2024-05-31", "image_distance_m": 30.3, "image_fetch_status": "downloaded public image", "image_available": true, "image_path": "/home/rithwik_amajala/code4city/data/raw/stop_images/mapillary_405477.jpg", "visible_tree_ratio": 0.06, "open_sky_ratio": 0.703, "shelter_image_estimate": "True", "shelter_image_confidence": 1.0, "bench_image_estimate": "True", "bench_image_confidence": 1.0, "vision_method": "OpenCV color-mask and edge-line heuristics", "vision_error": null, "route_rank": 6, "corridor_name": "New York City M103 direction 0", "corridor_id": "m103__dir_0", "shelter_present_effective": false, "bench_present_effective": false, "combined_tree_cover_score": 0.19666666666666666, "no_shelter_value": 1.0, "no_bench_value": 1.0, "low_tree_cover_value": 0.80333333333333334, "heat_burden_value": 0.0, "wait_burden_value": 0.3585, "priority_score": 70.46, "normalized_priority_score": 92.23, "score_breakdown_json": { "no_shelter": { "label": "no shelter", "value": 1.0, "weight": 0.35, "score": 35.0 }, "low_tree_cover": { "label": "low tree cover", "value": 0.803, "weight": 0.25, "score": 20.08 }, "heat_burden": { "label": "high heat burden", "value": 0.0, "weight": 0.15, "score": 0.0 }, "wait_burden": { "label": "long scheduled wait exposure", "value": 0.358, "weight": 0.15, "score": 5.38 }, "no_bench": { "label": "nearby seating gap", "value": 1.0, "weight": 0.1, "score": 10.0 } }, "top_contributors": "no shelter, low tree cover, nearby seating gap", "recommended_intervention": "Install a modular shade canopy, add seating, increase tree cover near the curb.", "recommended_action_summary": "Shade canopy | Add seating | Increase tree cover", "planner_note": "This stop is a critical priority because it combines no shelter, low tree cover, and nearby seating gap. The most practical near-term intervention is to install a modular shade canopy, add seating, increase tree cover near the curb.", "planner_note_reason": "This stop is a critical priority because it combines no shelter, low tree cover, and nearby seating gap.", "planner_note_recommendation": "The most practical near-term intervention is to install a modular shade canopy, add seating, increase tree cover near the curb.", "planner_note_urgency": "Critical", "planner_note_source": "Deterministic fallback" }, "geometry": { "type": "Point", "coordinates": [ -73.993749, 40.720859 ] } },
{ "type": "Feature", "properties": { "stop_id": "403639", "stop_sequence": 1, "stop_name": "PARK ROW/BEEKMAN ST", "stop_lat": 40.711591, "stop_lon": -74.007131, "avg_headway_minutes": 12.14, "scheduled_departures_in_window": 29, "route_id": "M103", "route_short_name": "M103", "direction_id": 0, "trip_headsign": "EAST HARLEM 125 ST via 3 AV", "service_date": "2026-04-24", "wait_source": "MTA GTFS window 12:00:00-18:00:00", "has_shelter": false, "shelter_distance_ft": 133.4, "shelter_source": "NYC DOT Bus Stop Shelters", "has_nearby_seating": false, "seating_distance_ft": 477.6, "bench_source": "NYC DOT Seating Locations", "nearby_tree_count": 2, "nearby_tree_dbh_sum": 6.0, "tree_source": "NYC Street Tree Census", "weather_point_lat": 40.725679, "weather_point_lon": -73.991785, "weather_metric_used": "apparentTemperature", "weather_metric_display": "Feels-like temperature", "max_weather_value_f": 63.0, "heat_burden_score": 0.0, "weather_source": "https://api.weather.gov/gridpoints/OKX/34,43", "weather_source_label": "NWS / weather.gov", "weather_point_url": "https://api.weather.gov/points/40.725679,-73.991785", "weather_updated_at": "2026-04-24T11:02:02+00:00", "weather_refreshed_at": "2026-04-24T15:30:54.417957-04:00", "weather_horizon_hours": 8, "weather_summary": "Feels-like temperature forecast used for the next 8 hours", "resolved_image_path": null, "image_provider": null, "image_source_url": null, "image_attribution_url": null, "image_author": null, "image_license": null, "image_capture_date": null, "image_distance_m": null, "image_fetch_status": "no nearby public image found", "image_available": false, "image_path": null, "visible_tree_ratio": null, "open_sky_ratio": null, "shelter_image_estimate": null, "shelter_image_confidence": null, "bench_image_estimate": null, "bench_image_confidence": null, "vision_method": null, "vision_error": "image unavailable", "route_rank": 1, "corridor_name": "New York City M103 direction 0", "corridor_id": "m103__dir_0", "shelter_present_effective": false, "bench_present_effective": false, "combined_tree_cover_score": 0.33333333333333331, "no_shelter_value": 1.0, "no_bench_value": 1.0, "low_tree_cover_value": 0.66666666666666674, "heat_burden_value": 0.0, "wait_burden_value": 0.357, "priority_score": 67.03, "normalized_priority_score": 86.49, "score_breakdown_json": { "no_shelter": { "label": "no shelter", "value": 1.0, "weight": 0.35, "score": 35.0 }, "low_tree_cover": { "label": "low tree cover", "value": 0.667, "weight": 0.25, "score": 16.67 }, "heat_burden": { "label": "high heat burden", "value": 0.0, "weight": 0.15, "score": 0.0 }, "wait_burden": { "label": "long scheduled wait exposure", "value": 0.357, "weight": 0.15, "score": 5.36 }, "no_bench": { "label": "nearby seating gap", "value": 1.0, "weight": 0.1, "score": 10.0 } }, "top_contributors": "no shelter, low tree cover, nearby seating gap", "recommended_intervention": "Install a modular shade canopy, add seating, increase tree cover near the curb.", "recommended_action_summary": "Shade canopy | Add seating | Increase tree cover", "planner_note": "This stop is a critical priority because it combines no shelter, low tree cover, and nearby seating gap. The most practical near-term intervention is to install a modular shade canopy, add seating, increase tree cover near the curb.", "planner_note_reason": "This stop is a critical priority because it combines no shelter, low tree cover, and nearby seating gap.", "planner_note_recommendation": "The most practical near-term intervention is to install a modular shade canopy, add seating, increase tree cover near the curb.", "planner_note_urgency": "Critical", "planner_note_source": "Deterministic fallback" }, "geometry": { "type": "Point", "coordinates": [ -74.007131, 40.711591 ] } },
{ "type": "Feature", "properties": { "stop_id": "405650", "stop_sequence": 15, "stop_name": "3 AV/E 24 ST", "stop_lat": 40.739601, "stop_lon": -73.98251, "avg_headway_minutes": 12.21, "scheduled_departures_in_window": 30, "route_id": "M103", "route_short_name": "M103", "direction_id": 0, "trip_headsign": "EAST HARLEM 125 ST via 3 AV", "service_date": "2026-04-24", "wait_source": "MTA GTFS window 12:00:00-18:00:00", "has_shelter": false, "shelter_distance_ft": 257.1, "shelter_source": "NYC DOT Bus Stop Shelters", "has_nearby_seating": false, "seating_distance_ft": 282.1, "bench_source": "NYC DOT Seating Locations", "nearby_tree_count": 4, "nearby_tree_dbh_sum": 48.0, "tree_source": "NYC Street Tree Census", "weather_point_lat": 40.725679, "weather_point_lon": -73.991785, "weather_metric_used": "apparentTemperature", "weather_metric_display": "Feels-like temperature", "max_weather_value_f": 63.0, "heat_burden_score": 0.0, "weather_source": "https://api.weather.gov/gridpoints/OKX/34,43", "weather_source_label": "NWS / weather.gov", "weather_point_url": "https://api.weather.gov/points/40.725679,-73.991785", "weather_updated_at": "2026-04-24T11:02:02+00:00", "weather_refreshed_at": "2026-04-24T15:30:54.417957-04:00", "weather_horizon_hours": 8, "weather_summary": "Feels-like temperature forecast used for the next 8 hours", "resolved_image_path": "/home/rithwik_amajala/code4city/data/raw/stop_images/mapillary_405650.jpg", "image_provider": "Mapillary", "image_source_url": "https://scontent-lga3-1.xx.fbcdn.net/m1/v/t6/An-vyCaln3Dr-oY2pK5jhVQChBLCGugEqeRlwBO7mMRU2taBSOPUa82S7OAFzBpb8mMC82hEnX8prgWPqVKOayBD-QL66odRMgkLRKEVKndLcbzZZ2cblFWlljHh60SdPjdlI6e04Bw1C9lVOzIijbs?stp=s1024x768&edm=ALXxkZ8EAAAA&_nc_gid=JX0PVtfjgAYsEaKrGcCpYg&_nc_oc=AdqBXzNlXclFneEBzMJWZJXuIcirmPgiMqnOy1hFlMf4zs4WdkhrfbqiAwqKu8w0hfo&ccb=10-5&oh=00_Af3AfRgX8UIfrcb_Hm3gYwCy2s999W5TT2P0gm6NmeObUg&oe=6A134EE9&_nc_sid=201bca", "image_attribution_url": "https://www.mapillary.com/app/?pKey=1078453014486961", "image_author": "jlin4529", "image_license": "Mapillary Terms of Use", "image_capture_date": "2025-09-25", "image_distance_m": 30.9, "image_fetch_status": "downloaded public image", "image_available": true, "image_path": "/home/rithwik_amajala/code4city/data/raw/stop_images/mapillary_405650.jpg", "visible_tree_ratio": 0.035, "open_sky_ratio": 0.227, "shelter_image_estimate": "False", "shelter_image_confidence": 0.235, "bench_image_estimate": "False", "bench_image_confidence": 0.0, "vision_method": "OpenCV color-mask and edge-line heuristics", "vision_error": null, "route_rank": 15, "corridor_name": "New York City M103 direction 0", "corridor_id": "m103__dir_0", "shelter_present_effective": false, "bench_present_effective": false, "combined_tree_cover_score": 0.35083333333333333, "no_shelter_value": 1.0, "no_bench_value": 1.0, "low_tree_cover_value": 0.64916666666666667, "heat_burden_value": 0.0, "wait_burden_value": 0.3605, "priority_score": 66.64, "normalized_priority_score": 85.83, "score_breakdown_json": { "no_shelter": { "label": "no shelter", "value": 1.0, "weight": 0.35, "score": 35.0 }, "low_tree_cover": { "label": "low tree cover", "value": 0.649, "weight": 0.25, "score": 16.23 }, "heat_burden": { "label": "high heat burden", "value": 0.0, "weight": 0.15, "score": 0.0 }, "wait_burden": { "label": "long scheduled wait exposure", "value": 0.361, "weight": 0.15, "score": 5.41 }, "no_bench": { "label": "nearby seating gap", "value": 1.0, "weight": 0.1, "score": 10.0 } }, "top_contributors": "no shelter, low tree cover, nearby seating gap", "recommended_intervention": "Install a modular shade canopy, add seating.", "recommended_action_summary": "Shade canopy | Add seating", "planner_note": "This stop is a critical priority because it combines no shelter, low tree cover, and nearby seating gap. The most practical near-term intervention is to install a modular shade canopy, add seating.", "planner_note_reason": "This stop is a critical priority because it combines no shelter, low tree cover, and nearby seating gap.", "planner_note_recommendation": "The most practical near-term intervention is to install a modular shade canopy, add seating.", "planner_note_urgency": "Critical", "planner_note_source": "Deterministic fallback" }, "geometry": { "type": "Point", "coordinates": [ -73.98251, 40.739601 ] } },
{ "type": "Feature", "properties": { "stop_id": "402666", "stop_sequence": 9, "stop_name": "COOPER SQ/E 6 ST", "stop_lat": 40.728395, "stop_lon": -73.990611, "avg_headway_minutes": 12.17, "scheduled_departures_in_window": 30, "route_id": "M103", "route_short_name": "M103", "direction_id": 0, "trip_headsign": "EAST HARLEM 125 ST via 3 AV", "service_date": "2026-04-24", "wait_source": "MTA GTFS window 12:00:00-18:00:00", "has_shelter": false, "shelter_distance_ft": 527.8, "shelter_source": "NYC DOT Bus Stop Shelters", "has_nearby_seating": true, "seating_distance_ft": 34.4, "bench_source": "NYC DOT Seating Locations", "nearby_tree_count": 0, "nearby_tree_dbh_sum": 0.0, "tree_source": "NYC Street Tree Census", "weather_point_lat": 40.725679, "weather_point_lon": -73.991785, "weather_metric_used": "apparentTemperature", "weather_metric_display": "Feels-like temperature", "max_weather_value_f": 63.0, "heat_burden_score": 0.0, "weather_source": "https://api.weather.gov/gridpoints/OKX/34,43", "weather_source_label": "NWS / weather.gov", "weather_point_url": "https://api.weather.gov/points/40.725679,-73.991785", "weather_updated_at": "2026-04-24T11:02:02+00:00", "weather_refreshed_at": "2026-04-24T15:30:54.417957-04:00", "weather_horizon_hours": 8, "weather_summary": "Feels-like temperature forecast used for the next 8 hours", "resolved_image_path": "/home/rithwik_amajala/code4city/data/raw/stop_images/mapillary_402666.jpg", "image_provider": "Mapillary", "image_source_url": "https://scontent-lga3-1.xx.fbcdn.net/m1/v/t6/An8fqOP9lCedpwHdlbcMTMSOx6-BoVWDhtJ5b78toxy74jxnj-y_SLLjbORcEsdwhW2Tuq2ihlVYK4zBmgWrztBaD0ZG3bdog0xxBBn-WBDxQuJAC679i6JE8nqb0GzxQ413BBqo2AV5roiIkvQEJg?stp=s1024x768&edm=ALXxkZ8EAAAA&_nc_gid=rZgxWYwu0K-bKQXNoYfziw&_nc_oc=AdqFctxDPg25_pfjk2nSl5khz4-Hi1N9IhJxsSAggVJh9BCobbTgG2DomSa8jqlIkhA&ccb=10-5&oh=00_Af2f3B7MSSf47fvYuBjv3u2f_eB9i5AVQZYmQaqfUa-7Kw&oe=6A132437&_nc_sid=201bca", "image_attribution_url": "https://www.mapillary.com/app/?pKey=827054271236394", "image_author": "smeginald", "image_license": "Mapillary Terms of Use", "image_capture_date": "2020-05-09", "image_distance_m": 25.9, "image_fetch_status": "downloaded public image", "image_available": true, "image_path": "/home/rithwik_amajala/code4city/data/raw/stop_images/mapillary_402666.jpg", "visible_tree_ratio": 0.053, "open_sky_ratio": 0.668, "shelter_image_estimate": "False", "shelter_image_confidence": 0.037, "bench_image_estimate": "False", "bench_image_confidence": 0.0, "vision_method": "OpenCV color-mask and edge-line heuristics", "vision_error": null, "route_rank": 9, "corridor_name": "New York City M103 direction 0", "corridor_id": "m103__dir_0", "shelter_present_effective": false, "bench_present_effective": true, "combined_tree_cover_score": 0.0265, "no_shelter_value": 1.0, "no_bench_value": 0.0, "low_tree_cover_value": 0.9735, "heat_burden_value": 0.0, "wait_burden_value": 0.3585, "priority_score": 64.72, "normalized_priority_score": 82.62, "score_breakdown_json": { "no_shelter": { "label": "no shelter", "value": 1.0, "weight": 0.35, "score": 35.0 }, "low_tree_cover": { "label": "low tree cover", "value": 0.974, "weight": 0.25, "score": 24.34 }, "heat_burden": { "label": "high heat burden", "value": 0.0, "weight": 0.15, "score": 0.0 }, "wait_burden": { "label": "long scheduled wait exposure", "value": 0.358, "weight": 0.15, "score": 5.38 }, "no_bench": { "label": "nearby seating gap", "value": 0.0, "weight": 0.1, "score": 0.0 } }, "top_contributors": "no shelter, low tree cover, long scheduled wait exposure", "recommended_intervention": "Install a modular shade canopy, increase tree cover near the curb.", "recommended_action_summary": "Shade canopy | Increase tree cover", "planner_note": "This stop is a high priority because it combines no shelter, low tree cover, and long scheduled wait exposure. The most practical near-term intervention is to install a modular shade canopy, increase tree cover near the curb.", "planner_note_reason": "This stop is a high priority because it combines no shelter, low tree cover, and long scheduled wait exposure.", "planner_note_recommendation": "The most practical near-term intervention is to install a modular shade canopy, increase tree cover near the curb.", "planner_note_urgency": "High", "planner_note_source": "Deterministic fallback" }, "geometry": { "type": "Point", "coordinates": [ -73.990611, 40.728395 ] } },
{ "type": "Feature", "properties": { "stop_id": "405561", "stop_sequence": 7, "stop_name": "BOWERY/E HOUSTON ST", "stop_lat": 40.724412, "stop_lon": -73.992372, "avg_headway_minutes": 12.17, "scheduled_departures_in_window": 30, "route_id": "M103", "route_short_name": "M103", "direction_id": 0, "trip_headsign": "EAST HARLEM 125 ST via 3 AV", "service_date": "2026-04-24", "wait_source": "MTA GTFS window 12:00:00-18:00:00", "has_shelter": false, "shelter_distance_ft": 289.3, "shelter_source": "NYC DOT Bus Stop Shelters", "has_nearby_seating": false, "seating_distance_ft": 210.0, "bench_source": "NYC DOT Seating Locations", "nearby_tree_count": 3, "nearby_tree_dbh_sum": 49.0, "tree_source": "NYC Street Tree Census", "weather_point_lat": 40.725679, "weather_point_lon": -73.991785, "weather_metric_used": "apparentTemperature", "weather_metric_display": "Feels-like temperature", "max_weather_value_f": 63.0, "heat_burden_score": 0.0, "weather_source": "https://api.weather.gov/gridpoints/OKX/34,43", "weather_source_label": "NWS / weather.gov", "weather_point_url": "https://api.weather.gov/points/40.725679,-73.991785", "weather_updated_at": "2026-04-24T11:02:02+00:00", "weather_refreshed_at": "2026-04-24T15:30:54.417957-04:00", "weather_horizon_hours": 8, "weather_summary": "Feels-like temperature forecast used for the next 8 hours", "resolved_image_path": null, "image_provider": null, "image_source_url": null, "image_attribution_url": null, "image_author": null, "image_license": null, "image_capture_date": null, "image_distance_m": null, "image_fetch_status": "no nearby public image found", "image_available": false, "image_path": null, "visible_tree_ratio": null, "open_sky_ratio": null, "shelter_image_estimate": null, "shelter_image_confidence": null, "bench_image_estimate": null, "bench_image_confidence": null, "vision_method": null, "vision_error": "image unavailable", "route_rank": 7, "corridor_name": "New York City M103 direction 0", "corridor_id": "m103__dir_0", "shelter_present_effective": false, "bench_present_effective": false, "combined_tree_cover_score": 0.5, "no_shelter_value": 1.0, "no_bench_value": 1.0, "low_tree_cover_value": 0.5, "heat_burden_value": 0.0, "wait_burden_value": 0.3585, "priority_score": 62.88, "normalized_priority_score": 79.54, "score_breakdown_json": { "no_shelter": { "label": "no shelter", "value": 1.0, "weight": 0.35, "score": 35.0 }, "low_tree_cover": { "label": "low tree cover", "value": 0.5, "weight": 0.25, "score": 12.5 }, "heat_burden": { "label": "high heat burden", "value": 0.0, "weight": 0.15, "score": 0.0 }, "wait_burden": { "label": "long scheduled wait exposure", "value": 0.358, "weight": 0.15, "score": 5.38 }, "no_bench": { "label": "nearby seating gap", "value": 1.0, "weight": 0.1, "score": 10.0 } }, "top_contributors": "no shelter, low tree cover, nearby seating gap", "recommended_intervention": "Install a modular shade canopy, add seating.", "recommended_action_summary": "Shade canopy | Add seating", "planner_note": "This stop is a high priority because it combines no shelter, low tree cover, and nearby seating gap. The most practical near-term intervention is to install a modular shade canopy, add seating.", "planner_note_reason": "This stop is a high priority because it combines no shelter, low tree cover, and nearby seating gap.", "planner_note_recommendation": "The most practical near-term intervention is to install a modular shade canopy, add seating.", "planner_note_urgency": "High", "planner_note_source": "Deterministic fallback" }, "geometry": { "type": "Point", "coordinates": [ -73.992372, 40.724412 ] } },
{ "type": "Feature", "properties": { "stop_id": "402753", "stop_sequence": 3, "stop_name": "BOWERY/BAYARD ST", "stop_lat": 40.715391, "stop_lon": -73.996465, "avg_headway_minutes": 12.15, "scheduled_departures_in_window": 30, "route_id": "M103", "route_short_name": "M103", "direction_id": 0, "trip_headsign": "EAST HARLEM 125 ST via 3 AV", "service_date": "2026-04-24", "wait_source": "MTA GTFS window 12:00:00-18:00:00", "has_shelter": false, "shelter_distance_ft": 93.5, "shelter_source": "NYC DOT Bus Stop Shelters", "has_nearby_seating": false, "seating_distance_ft": 194.1, "bench_source": "NYC DOT Seating Locations", "nearby_tree_count": 25, "nearby_tree_dbh_sum": 137.0, "tree_source": "NYC Street Tree Census", "weather_point_lat": 40.725679, "weather_point_lon": -73.991785, "weather_metric_used": "apparentTemperature", "weather_metric_display": "Feels-like temperature", "max_weather_value_f": 63.0, "heat_burden_score": 0.0, "weather_source": "https://api.weather.gov/gridpoints/OKX/34,43", "weather_source_label": "NWS / weather.gov", "weather_point_url": "https://api.weather.gov/points/40.725679,-73.991785", "weather_updated_at": "2026-04-24T11:02:02+00:00", "weather_refreshed_at": "2026-04-24T15:30:54.417957-04:00", "weather_horizon_hours": 8, "weather_summary": "Feels-like temperature forecast used for the next 8 hours", "resolved_image_path": "/home/rithwik_amajala/code4city/data/raw/stop_images/mapillary_402753.jpg", "image_provider": "Mapillary", "image_source_url": "https://scontent-lga3-1.xx.fbcdn.net/m1/v/t6/An-1BgTUj9btibUdEqEfA00ftWlJAj13yekoh7b3rjo3VphV36I3Url5lTJv7qhMcXc7UyIxP9E2_BHw0mdtHBgBM1uKYLilKDFDV0o-zrWWNyPRnQWRQ2a0FcHMc9pMq4xVt_E3IXNPiJuU8WVBUA?stp=s1024x512&edm=ALXxkZ8EAAAA&_nc_gid=4ky1a4GNRy4hjMYVXtu2IA&_nc_oc=Adr6XEsZCTb3mggPAmUIH1OUVrIW496CZWCIspmeAxapzQBJDMpzIho693ydtqknWoU&ccb=10-5&oh=00_Af2Er0_PIlLLCfXhlN6a7rHfXgP9uEoQLCTB04LDOvY26A&oe=6A131D4A&_nc_sid=201bca", "image_attribution_url": "https://www.mapillary.com/app/?pKey=1459161862615380", "image_author": "jlin4529", "image_license": "Mapillary Terms of Use", "image_capture_date": "2026-02-15", "image_distance_m": 17.0, "image_fetch_status": "downloaded public image", "image_available": true, "image_path": "/home/rithwik_amajala/code4city/data/raw/stop_images/mapillary_402753.jpg", "visible_tree_ratio": 0.01, "open_sky_ratio": 0.741, "shelter_image_estimate": "False", "shelter_image_confidence": 0.004, "bench_image_estimate": "True", "bench_image_confidence": 0.9, "vision_method": "OpenCV color-mask and edge-line heuristics", "vision_error": null, "route_rank": 3, "corridor_name": "New York City M103 direction 0", "corridor_id": "m103__dir_0", "shelter_present_effective": false, "bench_present_effective": false, "combined_tree_cover_score": 0.505, "no_shelter_value": 1.0, "no_bench_value": 1.0, "low_tree_cover_value": 0.495, "heat_burden_value": 0.0, "wait_burden_value": 0.3575, "priority_score": 62.74, "normalized_priority_score": 79.3, "score_breakdown_json": { "no_shelter": { "label": "no shelter", "value": 1.0, "weight": 0.35, "score": 35.0 }, "low_tree_cover": { "label": "low tree cover", "value": 0.495, "weight": 0.25, "score": 12.38 }, "heat_burden": { "label": "high heat burden", "value": 0.0, "weight": 0.15, "score": 0.0 }, "wait_burden": { "label": "long scheduled wait exposure", "value": 0.358, "weight": 0.15, "score": 5.36 }, "no_bench": { "label": "nearby seating gap", "value": 1.0, "weight": 0.1, "score": 10.0 } }, "top_contributors": "no shelter, low tree cover, nearby seating gap", "recommended_intervention": "Install a modular shade canopy, add seating.", "recommended_action_summary": "Shade canopy | Add seating", "planner_note": "This stop is a high priority because it combines no shelter, low tree cover, and nearby seating gap. The most practical near-term intervention is to install a modular shade canopy, add seating.", "planner_note_reason": "This stop is a high priority because it combines no shelter, low tree cover, and nearby seating gap.", "planner_note_recommendation": "The most practical near-term intervention is to install a modular shade canopy, add seating.", "planner_note_urgency": "High", "planner_note_source": "Deterministic fallback" }, "geometry": { "type": "Point", "coordinates": [ -73.996465, 40.715391 ] } },
{ "type": "Feature", "properties": { "stop_id": "402762", "stop_sequence": 8, "stop_name": "BOWERY/E 3 ST", "stop_lat": 40.726723, "stop_lon": -73.991525, "avg_headway_minutes": 12.17, "scheduled_departures_in_window": 30, "route_id": "M103", "route_short_name": "M103", "direction_id": 0, "trip_headsign": "EAST HARLEM 125 ST via 3 AV", "service_date": "2026-04-24", "wait_source": "MTA GTFS window 12:00:00-18:00:00", "has_shelter": false, "shelter_distance_ft": 741.9, "shelter_source": "NYC DOT Bus Stop Shelters", "has_nearby_seating": true, "seating_distance_ft": 56.5, "bench_source": "NYC DOT Seating Locations", "nearby_tree_count": 3, "nearby_tree_dbh_sum": 51.0, "tree_source": "NYC Street Tree Census", "weather_point_lat": 40.725679, "weather_point_lon": -73.991785, "weather_metric_used": "apparentTemperature", "weather_metric_display": "Feels-like temperature", "max_weather_value_f": 63.0, "heat_burden_score": 0.0, "weather_source": "https://api.weather.gov/gridpoints/OKX/34,43", "weather_source_label": "NWS / weather.gov", "weather_point_url": "https://api.weather.gov/points/40.725679,-73.991785", "weather_updated_at": "2026-04-24T11:02:02+00:00", "weather_refreshed_at": "2026-04-24T15:30:54.417957-04:00", "weather_horizon_hours": 8, "weather_summary": "Feels-like temperature forecast used for the next 8 hours", "resolved_image_path": "/home/rithwik_amajala/code4city/data/raw/stop_images/mapillary_402762.jpg", "image_provider": "Mapillary", "image_source_url": "https://scontent-lga3-1.xx.fbcdn.net/m1/v/t6/An_NZZ4Ou6-sye011wbBBke4Oukl_ZcPoikJMJda3HpeIob-afEqlWqhinGuovc3lBZiT8e6M87mptOpvlyrBDKFkhWiEOe975BuMvpYIbdcuelvURcLO9eBfIOEgwbRFmvxYdWlSNjm3OboXdVBxg?stp=s1024x576&edm=ALXxkZ8EAAAA&_nc_gid=PXfdBHlTtiqfiBaDdhXkkg&_nc_oc=AdpQt3FZzZByqDb5-TriiJPfHbQwKgd6ZS6npjnluWqrUuSvpqGr1yvEbnGKxsvMJbc&ccb=10-5&oh=00_Af1N-QYYAI8MMRuGYwGAah0LP-xsyL_qZBH8ItAUajbkZw&oe=6A1320F1&_nc_sid=201bca", "image_attribution_url": "https://www.mapillary.com/app/?pKey=1212513222529851", "image_author": "lvl5", "image_license": "Mapillary Terms of Use", "image_capture_date": "2018-08-16", "image_distance_m": 35.0, "image_fetch_status": "downloaded public image", "image_available": true, "image_path": "/home/rithwik_amajala/code4city/data/raw/stop_images/mapillary_402762.jpg", "visible_tree_ratio": 0.017, "open_sky_ratio": 0.8, "shelter_image_estimate": "False", "shelter_image_confidence": 0.0, "bench_image_estimate": "False", "bench_image_confidence": 0.1, "vision_method": "OpenCV color-mask and edge-line heuristics", "vision_error": null, "route_rank": 8, "corridor_name": "New York City M103 direction 0", "corridor_id": "m103__dir_0", "shelter_present_effective": false, "bench_present_effective": true, "combined_tree_cover_score": 0.2585, "no_shelter_value": 1.0, "no_bench_value": 0.0, "low_tree_cover_value": 0.7415, "heat_burden_value": 0.0, "wait_burden_value": 0.3585, "priority_score": 58.92, "normalized_priority_score": 72.91, "score_breakdown_json": { "no_shelter": { "label": "no shelter", "value": 1.0, "weight": 0.35, "score": 35.0 }, "low_tree_cover": { "label": "low tree cover", "value": 0.742, "weight": 0.25, "score": 18.54 }, "heat_burden": { "label": "high heat burden", "value": 0.0, "weight": 0.15, "score": 0.0 }, "wait_burden": { "label": "long scheduled wait exposure", "value": 0.358, "weight": 0.15, "score": 5.38 }, "no_bench": { "label": "nearby seating gap", "value": 0.0, "weight": 0.1, "score": 0.0 } }, "top_contributors": "no shelter, low tree cover, long scheduled wait exposure", "recommended_intervention": "Install a modular shade canopy, increase tree cover near the curb.", "recommended_action_summary": "Shade canopy | Increase tree cover", "planner_note": "This stop is a high priority because it combines no shelter, low tree cover, and long scheduled wait exposure. The most practical near-term intervention is to install a modular shade canopy, increase tree cover near the curb.", "planner_note_reason": "This stop is a high priority because it combines no shelter, low tree cover, and long scheduled wait exposure.", "planner_note_recommendation": "The most practical near-term intervention is to install a modular shade canopy, increase tree cover near the curb.", "planner_note_urgency": "High", "planner_note_source": "Deterministic fallback" }, "geometry": { "type": "Point", "coordinates": [ -73.991525, 40.726723 ] } },
{ "type": "Feature", "properties": { "stop_id": "403526", "stop_sequence": 11, "stop_name": "3 AV/E 11 ST", "stop_lat": 40.73168, "stop_lon": -73.988278, "avg_headway_minutes": 12.17, "scheduled_departures_in_window": 30, "route_id": "M103", "route_short_name": "M103", "direction_id": 0, "trip_headsign": "EAST HARLEM 125 ST via 3 AV", "service_date": "2026-04-24", "wait_source": "MTA GTFS window 12:00:00-18:00:00", "has_shelter": false, "shelter_distance_ft": 523.4, "shelter_source": "NYC DOT Bus Stop Shelters", "has_nearby_seating": true, "seating_distance_ft": 49.3, "bench_source": "NYC DOT Seating Locations", "nearby_tree_count": 6, "nearby_tree_dbh_sum": 38.0, "tree_source": "NYC Street Tree Census", "weather_point_lat": 40.725679, "weather_point_lon": -73.991785, "weather_metric_used": "apparentTemperature", "weather_metric_display": "Feels-like temperature", "max_weather_value_f": 63.0, "heat_burden_score": 0.0, "weather_source": "https://api.weather.gov/gridpoints/OKX/34,43", "weather_source_label": "NWS / weather.gov", "weather_point_url": "https://api.weather.gov/points/40.725679,-73.991785", "weather_updated_at": "2026-04-24T11:02:02+00:00", "weather_refreshed_at": "2026-04-24T15:30:54.417957-04:00", "weather_horizon_hours": 8, "weather_summary": "Feels-like temperature forecast used for the next 8 hours", "resolved_image_path": "/home/rithwik_amajala/code4city/data/raw/stop_images/mapillary_403526.jpg", "image_provider": "Mapillary", "image_source_url": "https://scontent-lga3-1.xx.fbcdn.net/m1/v/t6/An_PtydlOj3L1iWqzUZ_KulDOeKj1_dTrgJtDt7jjx96rQ9wvxl6-EC2NHcMNUM2Tipggse5eEH9Hee0kEKIdmXbqpCiY8OsfBGZhiLx9ZevyX0Omc1WgpvNqDUpHybfSFOGl67Buwd0srh30oYKqA?stp=s1024x768&edm=ALXxkZ8EAAAA&_nc_gid=YPbclGL8ANbLIeuLwMeYsA&_nc_oc=AdoqVnNV_J0ZBOwMKh8vyktrkGrRUx9fapQ-ckoH4YWTGFSfjSD8qRPY7fJ2-4wSLpQ&ccb=10-5&oh=00_Af15D6SwYdBVKNiL3OSj1xx8CJfzjZ8jBRS4cKFvpfdabA&oe=6A134DFA&_nc_sid=201bca", "image_attribution_url": "https://www.mapillary.com/app/?pKey=167457688660922", "image_author": "smeginald", "image_license": "Mapillary Terms of Use", "image_capture_date": "2020-05-09", "image_distance_m": 10.3, "image_fetch_status": "downloaded public image", "image_available": true, "image_path": "/home/rithwik_amajala/code4city/data/raw/stop_images/mapillary_403526.jpg", "visible_tree_ratio": 0.022, "open_sky_ratio": 0.611, "shelter_image_estimate": "False", "shelter_image_confidence": 0.063, "bench_image_estimate": "False", "bench_image_confidence": 0.4, "vision_method": "OpenCV color-mask and edge-line heuristics", "vision_error": null, "route_rank": 11, "corridor_name": "New York City M103 direction 0", "corridor_id": "m103__dir_0", "shelter_present_effective": false, "bench_present_effective": true, "combined_tree_cover_score": 0.511, "no_shelter_value": 1.0, "no_bench_value": 0.0, "low_tree_cover_value": 0.489, "heat_burden_value": 0.0, "wait_burden_value": 0.3585, "priority_score": 52.6, "normalized_priority_score": 62.32, "score_breakdown_json": { "no_shelter": { "label": "no shelter", "value": 1.0, "weight": 0.35, "score": 35.0 }, "low_tree_cover": { "label": "low tree cover", "value": 0.489, "weight": 0.25, "score": 12.22 }, "heat_burden": { "label": "high heat burden", "value": 0.0, "weight": 0.15, "score": 0.0 }, "wait_burden": { "label": "long scheduled wait exposure", "value": 0.358, "weight": 0.15, "score": 5.38 }, "no_bench": { "label": "nearby seating gap", "value": 0.0, "weight": 0.1, "score": 0.0 } }, "top_contributors": "no shelter, low tree cover, long scheduled wait exposure", "recommended_intervention": "Install a modular shade canopy.", "recommended_action_summary": "Shade canopy", "planner_note": "This stop is a medium priority because it combines no shelter, low tree cover, and long scheduled wait exposure. The most practical near-term intervention is to install a modular shade canopy.", "planner_note_reason": "This stop is a medium priority because it combines no shelter, low tree cover, and long scheduled wait exposure.", "planner_note_recommendation": "The most practical near-term intervention is to install a modular shade canopy.", "planner_note_urgency": "Medium", "planner_note_source": "Deterministic fallback" }, "geometry": { "type": "Point", "coordinates": [ -73.988278, 40.73168 ] } },
{ "type": "Feature", "properties": { "stop_id": "405061", "stop_sequence": 14, "stop_name": "3 AV/E 21 ST", "stop_lat": 40.737436, "stop_lon": -73.984124, "avg_headway_minutes": 12.18, "scheduled_departures_in_window": 29, "route_id": "M103", "route_short_name": "M103", "direction_id": 0, "trip_headsign": "EAST HARLEM 125 ST via 3 AV", "service_date": "2026-04-24", "wait_source": "MTA GTFS window 12:00:00-18:00:00", "has_shelter": false, "shelter_distance_ft": 658.6, "shelter_source": "NYC DOT Bus Stop Shelters", "has_nearby_seating": true, "seating_distance_ft": 50.6, "bench_source": "NYC DOT Seating Locations", "nearby_tree_count": 5, "nearby_tree_dbh_sum": 62.0, "tree_source": "NYC Street Tree Census", "weather_point_lat": 40.725679, "weather_point_lon": -73.991785, "weather_metric_used": "apparentTemperature", "weather_metric_display": "Feels-like temperature", "max_weather_value_f": 63.0, "heat_burden_score": 0.0, "weather_source": "https://api.weather.gov/gridpoints/OKX/34,43", "weather_source_label": "NWS / weather.gov", "weather_point_url": "https://api.weather.gov/points/40.725679,-73.991785", "weather_updated_at": "2026-04-24T11:02:02+00:00", "weather_refreshed_at": "2026-04-24T15:30:54.417957-04:00", "weather_horizon_hours": 8, "weather_summary": "Feels-like temperature forecast used for the next 8 hours", "resolved_image_path": null, "image_provider": null, "image_source_url": null, "image_attribution_url": null, "image_author": null, "image_license": null, "image_capture_date": null, "image_distance_m": null, "image_fetch_status": "no nearby public image found", "image_available": false, "image_path": null, "visible_tree_ratio": null, "open_sky_ratio": null, "shelter_image_estimate": null, "shelter_image_confidence": null, "bench_image_estimate": null, "bench_image_confidence": null, "vision_method": null, "vision_error": "image unavailable", "route_rank": 14, "corridor_name": "New York City M103 direction 0", "corridor_id": "m103__dir_0", "shelter_present_effective": false, "bench_present_effective": true, "combined_tree_cover_score": 0.83333333333333337, "no_shelter_value": 1.0, "no_bench_value": 0.0, "low_tree_cover_value": 0.16666666666666663, "heat_burden_value": 0.0, "wait_burden_value": 0.359, "priority_score": 44.55, "normalized_priority_score": 48.84, "score_breakdown_json": { "no_shelter": { "label": "no shelter", "value": 1.0, "weight": 0.35, "score": 35.0 }, "low_tree_cover": { "label": "low tree cover", "value": 0.167, "weight": 0.25, "score": 4.17 }, "heat_burden": { "label": "high heat burden", "value": 0.0, "weight": 0.15, "score": 0.0 }, "wait_burden": { "label": "long scheduled wait exposure", "value": 0.359, "weight": 0.15, "score": 5.38 }, "no_bench": { "label": "nearby seating gap", "value": 0.0, "weight": 0.1, "score": 0.0 } }, "top_contributors": "no shelter, long scheduled wait exposure, low tree cover", "recommended_intervention": "Install a modular shade canopy.", "recommended_action_summary": "Shade canopy", "planner_note": "This stop is a medium priority because it combines no shelter, long scheduled wait exposure, and low tree cover. The most practical near-term intervention is to install a modular shade canopy.", "planner_note_reason": "This stop is a medium priority because it combines no shelter, long scheduled wait exposure, and low tree cover.", "planner_note_recommendation": "The most practical near-term intervention is to install a modular shade canopy.", "planner_note_urgency": "Medium", "planner_note_source": "Deterministic fallback" }, "geometry": { "type": "Point", "coordinates": [ -73.984124, 40.737436 ] } },
{ "type": "Feature", "properties": { "stop_id": "405155", "stop_sequence": 10, "stop_name": "3 AV/E 9 ST", "stop_lat": 40.730389, "stop_lon": -73.989235, "avg_headway_minutes": 12.17, "scheduled_departures_in_window": 30, "route_id": "M103", "route_short_name": "M103", "direction_id": 0, "trip_headsign": "EAST HARLEM 125 ST via 3 AV", "service_date": "2026-04-24", "wait_source": "MTA GTFS window 12:00:00-18:00:00", "has_shelter": false, "shelter_distance_ft": 676.3, "shelter_source": "NYC DOT Bus Stop Shelters", "has_nearby_seating": true, "seating_distance_ft": 37.3, "bench_source": "NYC DOT Seating Locations", "nearby_tree_count": 7, "nearby_tree_dbh_sum": 57.0, "tree_source": "NYC Street Tree Census", "weather_point_lat": 40.725679, "weather_point_lon": -73.991785, "weather_metric_used": "apparentTemperature", "weather_metric_display": "Feels-like temperature", "max_weather_value_f": 63.0, "heat_burden_score": 0.0, "weather_source": "https://api.weather.gov/gridpoints/OKX/34,43", "weather_source_label": "NWS / weather.gov", "weather_point_url": "https://api.weather.gov/points/40.725679,-73.991785", "weather_updated_at": "2026-04-24T11:02:02+00:00", "weather_refreshed_at": "2026-04-24T15:30:54.417957-04:00", "weather_horizon_hours": 8, "weather_summary": "Feels-like temperature forecast used for the next 8 hours", "resolved_image_path": null, "image_provider": null, "image_source_url": null, "image_attribution_url": null, "image_author": null, "image_license": null, "image_capture_date": null, "image_distance_m": null, "image_fetch_status": "no nearby public image found", "image_available": false, "image_path": null, "visible_tree_ratio": null, "open_sky_ratio": null, "shelter_image_estimate": null, "shelter_image_confidence": null, "bench_image_estimate": null, "bench_image_confidence": null, "vision_method": null, "vision_error": "image unavailable", "route_rank": 10, "corridor_name": "New York City M103 direction 0", "corridor_id": "m103__dir_0", "shelter_present_effective": false, "bench_present_effective": true, "combined_tree_cover_score": 1.0, "no_shelter_value": 1.0, "no_bench_value": 0.0, "low_tree_cover_value": 0.0, "heat_burden_value": 0.0, "wait_burden_value": 0.3585, "priority_score": 40.38, "normalized_priority_score": 41.86, "score_breakdown_json": { "no_shelter": { "label": "no shelter", "value": 1.0, "weight": 0.35, "score": 35.0 }, "low_tree_cover": { "label": "low tree cover", "value": 0.0, "weight": 0.25, "score": 0.0 }, "heat_burden": { "label": "high heat burden", "value": 0.0, "weight": 0.15, "score": 0.0 }, "wait_burden": { "label": "long scheduled wait exposure", "value": 0.358, "weight": 0.15, "score": 5.38 }, "no_bench": { "label": "nearby seating gap", "value": 0.0, "weight": 0.1, "score": 0.0 } }, "top_contributors": "no shelter, long scheduled wait exposure", "recommended_intervention": "Install a modular shade canopy.", "recommended_action_summary": "Shade canopy", "planner_note": "This stop is a medium priority because it combines no shelter and long scheduled wait exposure. The most practical near-term intervention is to install a modular shade canopy.", "planner_note_reason": "This stop is a medium priority because it combines no shelter and long scheduled wait exposure.", "planner_note_recommendation": "The most practical near-term intervention is to install a modular shade canopy.", "planner_note_urgency": "Medium", "planner_note_source": "Deterministic fallback" }, "geometry": { "type": "Point", "coordinates": [ -73.989235, 40.730389 ] } },
{ "type": "Feature", "properties": { "stop_id": "402670", "stop_sequence": 13, "stop_name": "3 AV/E 17 ST", "stop_lat": 40.735511, "stop_lon": -73.985465, "avg_headway_minutes": 12.18, "scheduled_departures_in_window": 29, "route_id": "M103", "route_short_name": "M103", "direction_id": 0, "trip_headsign": "EAST HARLEM 125 ST via 3 AV", "service_date": "2026-04-24", "wait_source": "MTA GTFS window 12:00:00-18:00:00", "has_shelter": true, "shelter_distance_ft": 30.0, "shelter_source": "NYC DOT Bus Stop Shelters", "has_nearby_seating": false, "seating_distance_ft": 555.2, "bench_source": "NYC DOT Seating Locations", "nearby_tree_count": 7, "nearby_tree_dbh_sum": 72.0, "tree_source": "NYC Street Tree Census", "weather_point_lat": 40.725679, "weather_point_lon": -73.991785, "weather_metric_used": "apparentTemperature", "weather_metric_display": "Feels-like temperature", "max_weather_value_f": 63.0, "heat_burden_score": 0.0, "weather_source": "https://api.weather.gov/gridpoints/OKX/34,43", "weather_source_label": "NWS / weather.gov", "weather_point_url": "https://api.weather.gov/points/40.725679,-73.991785", "weather_updated_at": "2026-04-24T11:02:02+00:00", "weather_refreshed_at": "2026-04-24T15:30:54.417957-04:00", "weather_horizon_hours": 8, "weather_summary": "Feels-like temperature forecast used for the next 8 hours", "resolved_image_path": "/home/rithwik_amajala/code4city/data/raw/stop_images/mapillary_402670.jpg", "image_provider": "Mapillary", "image_source_url": "https://scontent-lga3-1.xx.fbcdn.net/m1/v/t6/An8DHuE08pXdrGi9ICGLpO4YbmnuTnKt3CQy4iaehEl7xbv8dl97Cm840_cbCg3IzZduJQacxw4chLmfAGFNopn4pewEc94NmkIPaDLkZ6dsHSL_DmsWPqELpEEHZClJEULZNThwnvY1YRzLWZiexA?stp=s1024x768&edm=ALXxkZ8EAAAA&_nc_gid=bGK6Bx36hZLM52aM02aY5w&_nc_oc=Ado-dieOIxfiw6CCc_q8cbgyi-GtdiHJVYPJIRTCKAYadOUeAJPfM66OZaEOsW59PLE&ccb=10-5&oh=00_Af2EmQMKFLKpjKkJ3pUhcoo4xCM1hBqX6IgULwzMo2Q4MQ&oe=6A1335EE&_nc_sid=201bca", "image_attribution_url": "https://www.mapillary.com/app/?pKey=1173204999779237", "image_author": "smeginald", "image_license": "Mapillary Terms of Use", "image_capture_date": "2020-05-09", "image_distance_m": 20.7, "image_fetch_status": "downloaded public image", "image_available": true, "image_path": "/home/rithwik_amajala/code4city/data/raw/stop_images/mapillary_402670.jpg", "visible_tree_ratio": 0.045, "open_sky_ratio": 0.712, "shelter_image_estimate": "False", "shelter_image_confidence": 0.017, "bench_image_estimate": "False", "bench_image_confidence": 0.2, "vision_method": "OpenCV color-mask and edge-line heuristics", "vision_error": null, "route_rank": 13, "corridor_name": "New York City M103 direction 0", "corridor_id": "m103__dir_0", "shelter_present_effective": true, "bench_present_effective": false, "combined_tree_cover_score": 0.5225, "no_shelter_value": 0.0, "no_bench_value": 1.0, "low_tree_cover_value": 0.4775, "heat_burden_value": 0.0, "wait_burden_value": 0.359, "priority_score": 27.32, "normalized_priority_score": 19.99, "score_breakdown_json": { "no_shelter": { "label": "no shelter", "value": 0.0, "weight": 0.35, "score": 0.0 }, "low_tree_cover": { "label": "low tree cover", "value": 0.478, "weight": 0.25, "score": 11.94 }, "heat_burden": { "label": "high heat burden", "value": 0.0, "weight": 0.15, "score": 0.0 }, "wait_burden": { "label": "long scheduled wait exposure", "value": 0.359, "weight": 0.15, "score": 5.38 }, "no_bench": { "label": "nearby seating gap", "value": 1.0, "weight": 0.1, "score": 10.0 } }, "top_contributors": "low tree cover, nearby seating gap, long scheduled wait exposure", "recommended_intervention": "Add seating.", "recommended_action_summary": "Add seating", "planner_note": "This stop is a low priority because it combines low tree cover, nearby seating gap, and long scheduled wait exposure. The most practical near-term intervention is to add seating.", "planner_note_reason": "This stop is a low priority because it combines low tree cover, nearby seating gap, and long scheduled wait exposure.", "planner_note_recommendation": "The most practical near-term intervention is to add seating.", "planner_note_urgency": "Low", "planner_note_source": "Deterministic fallback" }, "geometry": { "type": "Point", "coordinates": [ -73.985465, 40.735511 ] } },
{ "type": "Feature", "properties": { "stop_id": "403913", "stop_sequence": 12, "stop_name": "3 AV/E 14 ST", "stop_lat": 40.733689, "stop_lon": -73.986787, "avg_headway_minutes": 12.18, "scheduled_departures_in_window": 29, "route_id": "M103", "route_short_name": "M103", "direction_id": 0, "trip_headsign": "EAST HARLEM 125 ST via 3 AV", "service_date": "2026-04-24", "wait_source": "MTA GTFS window 12:00:00-18:00:00", "has_shelter": true, "shelter_distance_ft": 25.1, "shelter_source": "NYC DOT Bus Stop Shelters", "has_nearby_seating": false, "seating_distance_ft": 522.5, "bench_source": "NYC DOT Seating Locations", "nearby_tree_count": 7, "nearby_tree_dbh_sum": 51.0, "tree_source": "NYC Street Tree Census", "weather_point_lat": 40.725679, "weather_point_lon": -73.991785, "weather_metric_used": "apparentTemperature", "weather_metric_display": "Feels-like temperature", "max_weather_value_f": 63.0, "heat_burden_score": 0.0, "weather_source": "https://api.weather.gov/gridpoints/OKX/34,43", "weather_source_label": "NWS / weather.gov", "weather_point_url": "https://api.weather.gov/points/40.725679,-73.991785", "weather_updated_at": "2026-04-24T11:02:02+00:00", "weather_refreshed_at": "2026-04-24T15:30:54.417957-04:00", "weather_horizon_hours": 8, "weather_summary": "Feels-like temperature forecast used for the next 8 hours", "resolved_image_path": null, "image_provider": null, "image_source_url": null, "image_attribution_url": null, "image_author": null, "image_license": null, "image_capture_date": null, "image_distance_m": null, "image_fetch_status": "no nearby public image found", "image_available": false, "image_path": null, "visible_tree_ratio": null, "open_sky_ratio": null, "shelter_image_estimate": null, "shelter_image_confidence": null, "bench_image_estimate": null, "bench_image_confidence": null, "vision_method": null, "vision_error": "image unavailable", "route_rank": 12, "corridor_name": "New York City M103 direction 0", "corridor_id": "m103__dir_0", "shelter_present_effective": true, "bench_present_effective": false, "combined_tree_cover_score": 1.0, "no_shelter_value": 0.0, "no_bench_value": 1.0, "low_tree_cover_value": 0.0, "heat_burden_value": 0.0, "wait_burden_value": 0.359, "priority_score": 15.38, "normalized_priority_score": 0.0, "score_breakdown_json": { "no_shelter": { "label": "no shelter", "value": 0.0, "weight": 0.35, "score": 0.0 }, "low_tree_cover": { "label": "low tree cover", "value": 0.0, "weight": 0.25, "score": 0.0 }, "heat_burden": { "label": "high heat burden", "value": 0.0, "weight": 0.15, "score": 0.0 }, "wait_burden": { "label": "long scheduled wait exposure", "value": 0.359, "weight": 0.15, "score": 5.38 }, "no_bench": { "label": "nearby seating gap", "value": 1.0, "weight": 0.1, "score": 10.0 } }, "top_contributors": "nearby seating gap, long scheduled wait exposure", "recommended_intervention": "Add seating.", "recommended_action_summary": "Add seating", "planner_note": "This stop is a low priority because it combines nearby seating gap and long scheduled wait exposure. The most practical near-term intervention is to add seating.", "planner_note_reason": "This stop is a low priority because it combines nearby seating gap and long scheduled wait exposure.", "planner_note_recommendation": "The most practical near-term intervention is to add seating.", "planner_note_urgency": "Low", "planner_note_source": "Deterministic fallback" }, "geometry": { "type": "Point", "coordinates": [ -73.986787, 40.733689 ] } }
]
}
