{
"type": "FeatureCollection",
"name": "stops_scored",
"crs": { "type": "name", "properties": { "name": "urn:ogc:def:crs:OGC:1.3:CRS84" } },
"features": [
{ "type": "Feature", "properties": { "stop_id": "405382", "stop_sequence": 1, "stop_name": "SOUTH FERRY TERM/SOUTH FERRY TERM", "stop_lat": 40.702001, "stop_lon": -74.013524, "avg_headway_minutes": 6.53, "scheduled_departures_in_window": 56, "route_id": "M15+", "route_short_name": "M15-SBS", "direction_id": 0, "trip_headsign": "SELECT BUS SERVICE 125 ST via 1 AV", "service_date": "2026-04-24", "wait_source": "MTA GTFS window 12:00:00-18:00:00", "has_shelter": false, "shelter_distance_ft": 2164.4, "shelter_source": "NYC DOT Bus Stop Shelters", "has_nearby_seating": false, "seating_distance_ft": 1186.5, "bench_source": "NYC DOT Seating Locations", "nearby_tree_count": 0, "nearby_tree_dbh_sum": 0.0, "tree_source": "NYC Street Tree Census", "weather_point_lat": 40.734845, "weather_point_lon": -73.981134, "weather_metric_used": "apparentTemperature", "weather_metric_display": "Feels-like temperature", "max_weather_value_f": 63.0, "heat_burden_score": 0.0, "weather_source": "https://api.weather.gov/gridpoints/OKX/34,43", "weather_source_label": "NWS / weather.gov", "weather_point_url": "https://api.weather.gov/points/40.734845,-73.981134", "weather_updated_at": "2026-04-24T11:02:02+00:00", "weather_refreshed_at": "2026-04-24T15:29:59.621353-04:00", "weather_horizon_hours": 8, "weather_summary": "Feels-like temperature forecast used for the next 8 hours", "resolved_image_path": null, "image_provider": null, "image_source_url": null, "image_attribution_url": null, "image_author": null, "image_license": null, "image_capture_date": null, "image_distance_m": null, "image_fetch_status": "no nearby public image found", "image_available": false, "image_path": null, "visible_tree_ratio": null, "open_sky_ratio": null, "shelter_image_estimate": null, "shelter_image_confidence": null, "bench_image_estimate": null, "bench_image_confidence": null, "vision_method": null, "vision_error": "image unavailable", "route_rank": 1, "corridor_name": "New York City M15-SBS direction 0", "corridor_id": "m15_sbs__dir_0", "shelter_present_effective": false, "bench_present_effective": false, "combined_tree_cover_score": 0.0, "no_shelter_value": 1.0, "no_bench_value": 1.0, "low_tree_cover_value": 1.0, "heat_burden_value": 0.0, "wait_burden_value": 0.0765, "priority_score": 71.15, "normalized_priority_score": 100.0, "score_breakdown_json": { "no_shelter": { "label": "no shelter", "value": 1.0, "weight": 0.35, "score": 35.0 }, "low_tree_cover": { "label": "low tree cover", "value": 1.0, "weight": 0.25, "score": 25.0 }, "heat_burden": { "label": "high heat burden", "value": 0.0, "weight": 0.15, "score": 0.0 }, "wait_burden": { "label": "long scheduled wait exposure", "value": 0.077, "weight": 0.15, "score": 1.15 }, "no_bench": { "label": "nearby seating gap", "value": 1.0, "weight": 0.1, "score": 10.0 } }, "top_contributors": "no shelter, low tree cover, nearby seating gap", "recommended_intervention": "Install a modular shade canopy, add seating, increase tree cover near the curb.", "recommended_action_summary": "Shade canopy | Add seating | Increase tree cover", "planner_note": "This stop is a critical priority because it combines no shelter, low tree cover, and nearby seating gap. The most practical near-term intervention is to install a modular shade canopy, add seating, increase tree cover near the curb.", "planner_note_reason": "This stop is a critical priority because it combines no shelter, low tree cover, and nearby seating gap.", "planner_note_recommendation": "The most practical near-term intervention is to install a modular shade canopy, add seating, increase tree cover near the curb.", "planner_note_urgency": "Critical", "planner_note_source": "Deterministic fallback" }, "geometry": { "type": "Point", "coordinates": [ -74.013524, 40.702001 ] } },
{ "type": "Feature", "properties": { "stop_id": "403601", "stop_sequence": 3, "stop_name": "PEARL ST/BEEKMAN ST", "stop_lat": 40.708264, "stop_lon": -74.003099, "avg_headway_minutes": 6.59, "scheduled_departures_in_window": 55, "route_id": "M15+", "route_short_name": "M15-SBS", "direction_id": 0, "trip_headsign": "SELECT BUS SERVICE 125 ST via 1 AV", "service_date": "2026-04-24", "wait_source": "MTA GTFS window 12:00:00-18:00:00", "has_shelter": false, "shelter_distance_ft": 154.2, "shelter_source": "NYC DOT Bus Stop Shelters", "has_nearby_seating": false, "seating_distance_ft": 545.2, "bench_source": "NYC DOT Seating Locations", "nearby_tree_count": 3, "nearby_tree_dbh_sum": 17.0, "tree_source": "NYC Street Tree Census", "weather_point_lat": 40.734845, "weather_point_lon": -73.981134, "weather_metric_used": "apparentTemperature", "weather_metric_display": "Feels-like temperature", "max_weather_value_f": 63.0, "heat_burden_score": 0.0, "weather_source": "https://api.weather.gov/gridpoints/OKX/34,43", "weather_source_label": "NWS / weather.gov", "weather_point_url": "https://api.weather.gov/points/40.734845,-73.981134", "weather_updated_at": "2026-04-24T11:02:02+00:00", "weather_refreshed_at": "2026-04-24T15:29:59.621353-04:00", "weather_horizon_hours": 8, "weather_summary": "Feels-like temperature forecast used for the next 8 hours", "resolved_image_path": "/home/rithwik_amajala/code4city/data/raw/stop_images/mapillary_403601.jpg", "image_provider": "Mapillary", "image_source_url": "https://scontent-lga3-1.xx.fbcdn.net/m1/v/t6/An-5fajwHBbu7MTR_QwBevRmg7QfFA6r77ME-yI5Oy2nmiEG0xMF7SKWqUXjUi8ZGiqTReeS0fja5oTbZYXo2ZLlD65XdonDYEdDt4w8Su444vmbfROXLQlpTpkzHLWzT5Bh5yMGliBKaj6j29OhTQ?stp=s1024x576&edm=ALXxkZ8EAAAA&_nc_gid=H_jQWWdVkGJ_RylkNZD4PA&_nc_oc=AdpxsIZMvha8rEwlgz7ojcpgMNgWuitAGy0W3DABvJ4Dw0hH3uMbc9P2fBUEfhgWzXY&ccb=10-5&oh=00_Af2krbhdgYKFefbAnzqRQJi6YX0p1sBaj7W49I9WBB9t0A&oe=6A1332F9&_nc_sid=201bca", "image_attribution_url": "https://www.mapillary.com/app/?pKey=1357634947970761", "image_author": "lvl5", "image_license": "Mapillary Terms of Use", "image_capture_date": "2018-10-22", "image_distance_m": 23.4, "image_fetch_status": "downloaded public image", "image_available": true, "image_path": "/home/rithwik_amajala/code4city/data/raw/stop_images/mapillary_403601.jpg", "visible_tree_ratio": 0.048, "open_sky_ratio": 0.732, "shelter_image_estimate": "False", "shelter_image_confidence": 0.489, "bench_image_estimate": "True", "bench_image_confidence": 1.0, "vision_method": "OpenCV color-mask and edge-line heuristics", "vision_error": null, "route_rank": 3, "corridor_name": "New York City M15-SBS direction 0", "corridor_id": "m15_sbs__dir_0", "shelter_present_effective": false, "bench_present_effective": false, "combined_tree_cover_score": 0.274, "no_shelter_value": 1.0, "no_bench_value": 1.0, "low_tree_cover_value": 0.726, "heat_burden_value": 0.0, "wait_burden_value": 0.0795, "priority_score": 64.34, "normalized_priority_score": 90.25, "score_breakdown_json": { "no_shelter": { "label": "no shelter", "value": 1.0, "weight": 0.35, "score": 35.0 }, "low_tree_cover": { "label": "low tree cover", "value": 0.726, "weight": 0.25, "score": 18.15 }, "heat_burden": { "label": "high heat burden", "value": 0.0, "weight": 0.15, "score": 0.0 }, "wait_burden": { "label": "long scheduled wait exposure", "value": 0.079, "weight": 0.15, "score": 1.19 }, "no_bench": { "label": "nearby seating gap", "value": 1.0, "weight": 0.1, "score": 10.0 } }, "top_contributors": "no shelter, low tree cover, nearby seating gap", "recommended_intervention": "Install a modular shade canopy, add seating, increase tree cover near the curb.", "recommended_action_summary": "Shade canopy | Add seating | Increase tree cover", "planner_note": "This stop is a critical priority because it combines no shelter, low tree cover, and nearby seating gap. The most practical near-term intervention is to install a modular shade canopy, add seating, increase tree cover near the curb.", "planner_note_reason": "This stop is a critical priority because it combines no shelter, low tree cover, and nearby seating gap.", "planner_note_recommendation": "The most practical near-term intervention is to install a modular shade canopy, add seating, increase tree cover near the curb.", "planner_note_urgency": "Critical", "planner_note_source": "Deterministic fallback" }, "geometry": { "type": "Point", "coordinates": [ -74.003099, 40.708264 ] } },
{ "type": "Feature", "properties": { "stop_id": "405318", "stop_sequence": 2, "stop_name": "WATER ST/PINE ST", "stop_lat": 40.705518, "stop_lon": -74.006816, "avg_headway_minutes": 6.55, "scheduled_departures_in_window": 55, "route_id": "M15+", "route_short_name": "M15-SBS", "direction_id": 0, "trip_headsign": "SELECT BUS SERVICE 125 ST via 1 AV", "service_date": "2026-04-24", "wait_source": "MTA GTFS window 12:00:00-18:00:00", "has_shelter": false, "shelter_distance_ft": 99.3, "shelter_source": "NYC DOT Bus Stop Shelters", "has_nearby_seating": false, "seating_distance_ft": 106.3, "bench_source": "NYC DOT Seating Locations", "nearby_tree_count": 2, "nearby_tree_dbh_sum": 5.0, "tree_source": "NYC Street Tree Census", "weather_point_lat": 40.734845, "weather_point_lon": -73.981134, "weather_metric_used": "apparentTemperature", "weather_metric_display": "Feels-like temperature", "max_weather_value_f": 63.0, "heat_burden_score": 0.0, "weather_source": "https://api.weather.gov/gridpoints/OKX/34,43", "weather_source_label": "NWS / weather.gov", "weather_point_url": "https://api.weather.gov/points/40.734845,-73.981134", "weather_updated_at": "2026-04-24T11:02:02+00:00", "weather_refreshed_at": "2026-04-24T15:29:59.621353-04:00", "weather_horizon_hours": 8, "weather_summary": "Feels-like temperature forecast used for the next 8 hours", "resolved_image_path": null, "image_provider": null, "image_source_url": null, "image_attribution_url": null, "image_author": null, "image_license": null, "image_capture_date": null, "image_distance_m": null, "image_fetch_status": "no nearby public image found", "image_available": false, "image_path": null, "visible_tree_ratio": null, "open_sky_ratio": null, "shelter_image_estimate": null, "shelter_image_confidence": null, "bench_image_estimate": null, "bench_image_confidence": null, "vision_method": null, "vision_error": "image unavailable", "route_rank": 2, "corridor_name": "New York City M15-SBS direction 0", "corridor_id": "m15_sbs__dir_0", "shelter_present_effective": false, "bench_present_effective": false, "combined_tree_cover_score": 0.33333333333333331, "no_shelter_value": 1.0, "no_bench_value": 1.0, "low_tree_cover_value": 0.66666666666666674, "heat_burden_value": 0.0, "wait_burden_value": 0.0775, "priority_score": 62.83, "normalized_priority_score": 88.09, "score_breakdown_json": { "no_shelter": { "label": "no shelter", "value": 1.0, "weight": 0.35, "score": 35.0 }, "low_tree_cover": { "label": "low tree cover", "value": 0.667, "weight": 0.25, "score": 16.67 }, "heat_burden": { "label": "high heat burden", "value": 0.0, "weight": 0.15, "score": 0.0 }, "wait_burden": { "label": "long scheduled wait exposure", "value": 0.077, "weight": 0.15, "score": 1.16 }, "no_bench": { "label": "nearby seating gap", "value": 1.0, "weight": 0.1, "score": 10.0 } }, "top_contributors": "no shelter, low tree cover, nearby seating gap", "recommended_intervention": "Install a modular shade canopy, add seating, increase tree cover near the curb.", "recommended_action_summary": "Shade canopy | Add seating | Increase tree cover", "planner_note": "This stop is a critical priority because it combines no shelter, low tree cover, and nearby seating gap. The most practical near-term intervention is to install a modular shade canopy, add seating, increase tree cover near the curb.", "planner_note_reason": "This stop is a critical priority because it combines no shelter, low tree cover, and nearby seating gap.", "planner_note_recommendation": "The most practical near-term intervention is to install a modular shade canopy, add seating, increase tree cover near the curb.", "planner_note_urgency": "Critical", "planner_note_source": "Deterministic fallback" }, "geometry": { "type": "Point", "coordinates": [ -74.006816, 40.705518 ] } },
{ "type": "Feature", "properties": { "stop_id": "401707", "stop_sequence": 14, "stop_name": "1 AV/E 67 ST", "stop_lat": 40.76487, "stop_lon": -73.958109, "avg_headway_minutes": 6.79, "scheduled_departures_in_window": 53, "route_id": "M15+", "route_short_name": "M15-SBS", "direction_id": 0, "trip_headsign": "SELECT BUS SERVICE 125 ST via 1 AV", "service_date": "2026-04-24", "wait_source": "MTA GTFS window 12:00:00-18:00:00", "has_shelter": false, "shelter_distance_ft": 78.1, "shelter_source": "NYC DOT Bus Stop Shelters", "has_nearby_seating": false, "seating_distance_ft": 176.0, "bench_source": "NYC DOT Seating Locations", "nearby_tree_count": 5, "nearby_tree_dbh_sum": 44.0, "tree_source": "NYC Street Tree Census", "weather_point_lat": 40.734845, "weather_point_lon": -73.981134, "weather_metric_used": "apparentTemperature", "weather_metric_display": "Feels-like temperature", "max_weather_value_f": 63.0, "heat_burden_score": 0.0, "weather_source": "https://api.weather.gov/gridpoints/OKX/34,43", "weather_source_label": "NWS / weather.gov", "weather_point_url": "https://api.weather.gov/points/40.734845,-73.981134", "weather_updated_at": "2026-04-24T11:02:02+00:00", "weather_refreshed_at": "2026-04-24T15:29:59.621353-04:00", "weather_horizon_hours": 8, "weather_summary": "Feels-like temperature forecast used for the next 8 hours", "resolved_image_path": null, "image_provider": null, "image_source_url": null, "image_attribution_url": null, "image_author": null, "image_license": null, "image_capture_date": null, "image_distance_m": null, "image_fetch_status": "no nearby public image found", "image_available": false, "image_path": null, "visible_tree_ratio": null, "open_sky_ratio": null, "shelter_image_estimate": null, "shelter_image_confidence": null, "bench_image_estimate": null, "bench_image_confidence": null, "vision_method": null, "vision_error": "image unavailable", "route_rank": 14, "corridor_name": "New York City M15-SBS direction 0", "corridor_id": "m15_sbs__dir_0", "shelter_present_effective": false, "bench_present_effective": false, "combined_tree_cover_score": 0.83333333333333337, "no_shelter_value": 1.0, "no_bench_value": 1.0, "low_tree_cover_value": 0.16666666666666663, "heat_burden_value": 0.0, "wait_burden_value": 0.0895, "priority_score": 50.51, "normalized_priority_score": 70.45, "score_breakdown_json": { "no_shelter": { "label": "no shelter", "value": 1.0, "weight": 0.35, "score": 35.0 }, "low_tree_cover": { "label": "low tree cover", "value": 0.167, "weight": 0.25, "score": 4.17 }, "heat_burden": { "label": "high heat burden", "value": 0.0, "weight": 0.15, "score": 0.0 }, "wait_burden": { "label": "long scheduled wait exposure", "value": 0.089, "weight": 0.15, "score": 1.34 }, "no_bench": { "label": "nearby seating gap", "value": 1.0, "weight": 0.1, "score": 10.0 } }, "top_contributors": "no shelter, nearby seating gap, low tree cover", "recommended_intervention": "Install a modular shade canopy, add seating.", "recommended_action_summary": "Shade canopy | Add seating", "planner_note": "This stop is a high priority because it combines no shelter, nearby seating gap, and low tree cover. The most practical near-term intervention is to install a modular shade canopy, add seating.", "planner_note_reason": "This stop is a high priority because it combines no shelter, nearby seating gap, and low tree cover.", "planner_note_recommendation": "The most practical near-term intervention is to install a modular shade canopy, add seating.", "planner_note_urgency": "High", "planner_note_source": "Deterministic fallback" }, "geometry": { "type": "Point", "coordinates": [ -73.958109, 40.76487 ] } },
{ "type": "Feature", "properties": { "stop_id": "405319", "stop_sequence": 4, "stop_name": "MADISON ST/CATHERINE ST", "stop_lat": 40.71193, "stop_lon": -73.997157, "avg_headway_minutes": 6.58, "scheduled_departures_in_window": 55, "route_id": "M15+", "route_short_name": "M15-SBS", "direction_id": 0, "trip_headsign": "SELECT BUS SERVICE 125 ST via 1 AV", "service_date": "2026-04-24", "wait_source": "MTA GTFS window 12:00:00-18:00:00", "has_shelter": false, "shelter_distance_ft": 77.0, "shelter_source": "NYC DOT Bus Stop Shelters", "has_nearby_seating": true, "seating_distance_ft": 0.0, "bench_source": "NYC DOT Seating Locations", "nearby_tree_count": 6, "nearby_tree_dbh_sum": 69.0, "tree_source": "NYC Street Tree Census", "weather_point_lat": 40.734845, "weather_point_lon": -73.981134, "weather_metric_used": "apparentTemperature", "weather_metric_display": "Feels-like temperature", "max_weather_value_f": 63.0, "heat_burden_score": 0.0, "weather_source": "https://api.weather.gov/gridpoints/OKX/34,43", "weather_source_label": "NWS / weather.gov", "weather_point_url": "https://api.weather.gov/points/40.734845,-73.981134", "weather_updated_at": "2026-04-24T11:02:02+00:00", "weather_refreshed_at": "2026-04-24T15:29:59.621353-04:00", "weather_horizon_hours": 8, "weather_summary": "Feels-like temperature forecast used for the next 8 hours", "resolved_image_path": "/home/rithwik_amajala/code4city/data/raw/stop_images/mapillary_405319.jpg", "image_provider": "Mapillary", "image_source_url": "https://scontent-lga3-1.xx.fbcdn.net/m1/v/t6/An-ZTY_I5IY7qCUIFw6VDiNh31vpgPUfZDFO3-E7NtuoVDk0nhcZZNNE2_GLgk6-o4v1JSrIxn5O0QFQHZYhS-uIS6FyMjAN2n1Ax8FY63ARRUv__AxvdMait-tj1cei8szXdp-GqLwBQ-BXr06iPA?stp=s1024x576&edm=ALXxkZ8EAAAA&_nc_gid=HQ3tioQDSkOfNZSn6jaMXw&_nc_oc=AdqsOKqMOKdrE5_kpq3vBeVHfceZY-kVyXpYRurUR-Sys-xVOBXgWL3-ho3ms2yKr1c&ccb=10-5&oh=00_Af2vg7CPP9GwTBSUmmuQBcopDwKUIG9mKyT7CCVWm4Vikw&oe=6A134CEF&_nc_sid=201bca", "image_attribution_url": "https://www.mapillary.com/app/?pKey=606884833565140", "image_author": "bhousel", "image_license": "Mapillary Terms of Use", "image_capture_date": "2016-08-12", "image_distance_m": 27.1, "image_fetch_status": "downloaded public image", "image_available": true, "image_path": "/home/rithwik_amajala/code4city/data/raw/stop_images/mapillary_405319.jpg", "visible_tree_ratio": 0.143, "open_sky_ratio": 0.391, "shelter_image_estimate": "True", "shelter_image_confidence": 1.0, "bench_image_estimate": "True", "bench_image_confidence": 1.0, "vision_method": "OpenCV color-mask and edge-line heuristics", "vision_error": null, "route_rank": 4, "corridor_name": "New York City M15-SBS direction 0", "corridor_id": "m15_sbs__dir_0", "shelter_present_effective": false, "bench_present_effective": true, "combined_tree_cover_score": 0.5715, "no_shelter_value": 1.0, "no_bench_value": 0.0, "low_tree_cover_value": 0.4285, "heat_burden_value": 0.0, "wait_burden_value": 0.079, "priority_score": 46.9, "normalized_priority_score": 65.28, "score_breakdown_json": { "no_shelter": { "label": "no shelter", "value": 1.0, "weight": 0.35, "score": 35.0 }, "low_tree_cover": { "label": "low tree cover", "value": 0.428, "weight": 0.25, "score": 10.71 }, "heat_burden": { "label": "high heat burden", "value": 0.0, "weight": 0.15, "score": 0.0 }, "wait_burden": { "label": "long scheduled wait exposure", "value": 0.079, "weight": 0.15, "score": 1.19 }, "no_bench": { "label": "nearby seating gap", "value": 0.0, "weight": 0.1, "score": 0.0 } }, "top_contributors": "no shelter, low tree cover, long scheduled wait exposure", "recommended_intervention": "Install a modular shade canopy.", "recommended_action_summary": "Shade canopy", "planner_note": "This stop is a high priority because it combines no shelter, low tree cover, and long scheduled wait exposure. The most practical near-term intervention is to install a modular shade canopy.", "planner_note_reason": "This stop is a high priority because it combines no shelter, low tree cover, and long scheduled wait exposure.", "planner_note_recommendation": "The most practical near-term intervention is to install a modular shade canopy.", "planner_note_urgency": "High", "planner_note_source": "Deterministic fallback" }, "geometry": { "type": "Point", "coordinates": [ -73.997157, 40.71193 ] } },
{ "type": "Feature", "properties": { "stop_id": "405329", "stop_sequence": 15, "stop_name": "1 AV/E 80 ST", "stop_lat": 40.77268, "stop_lon": -73.952359, "avg_headway_minutes": 6.77, "scheduled_departures_in_window": 53, "route_id": "M15+", "route_short_name": "M15-SBS", "direction_id": 0, "trip_headsign": "SELECT BUS SERVICE 125 ST via 1 AV", "service_date": "2026-04-24", "wait_source": "MTA GTFS window 12:00:00-18:00:00", "has_shelter": false, "shelter_distance_ft": 600.8, "shelter_source": "NYC DOT Bus Stop Shelters", "has_nearby_seating": false, "seating_distance_ft": 1077.6, "bench_source": "NYC DOT Seating Locations", "nearby_tree_count": 8, "nearby_tree_dbh_sum": 51.0, "tree_source": "NYC Street Tree Census", "weather_point_lat": 40.734845, "weather_point_lon": -73.981134, "weather_metric_used": "apparentTemperature", "weather_metric_display": "Feels-like temperature", "max_weather_value_f": 63.0, "heat_burden_score": 0.0, "weather_source": "https://api.weather.gov/gridpoints/OKX/34,43", "weather_source_label": "NWS / weather.gov", "weather_point_url": "https://api.weather.gov/points/40.734845,-73.981134", "weather_updated_at": "2026-04-24T11:02:02+00:00", "weather_refreshed_at": "2026-04-24T15:29:59.621353-04:00", "weather_horizon_hours": 8, "weather_summary": "Feels-like temperature forecast used for the next 8 hours", "resolved_image_path": null, "image_provider": null, "image_source_url": null, "image_attribution_url": null, "image_author": null, "image_license": null, "image_capture_date": null, "image_distance_m": null, "image_fetch_status": "no nearby public image found", "image_available": false, "image_path": null, "visible_tree_ratio": null, "open_sky_ratio": null, "shelter_image_estimate": null, "shelter_image_confidence": null, "bench_image_estimate": null, "bench_image_confidence": null, "vision_method": null, "vision_error": "image unavailable", "route_rank": 15, "corridor_name": "New York City M15-SBS direction 0", "corridor_id": "m15_sbs__dir_0", "shelter_present_effective": false, "bench_present_effective": false, "combined_tree_cover_score": 1.0, "no_shelter_value": 1.0, "no_bench_value": 1.0, "low_tree_cover_value": 0.0, "heat_burden_value": 0.0, "wait_burden_value": 0.0885, "priority_score": 46.33, "normalized_priority_score": 64.47, "score_breakdown_json": { "no_shelter": { "label": "no shelter", "value": 1.0, "weight": 0.35, "score": 35.0 }, "low_tree_cover": { "label": "low tree cover", "value": 0.0, "weight": 0.25, "score": 0.0 }, "heat_burden": { "label": "high heat burden", "value": 0.0, "weight": 0.15, "score": 0.0 }, "wait_burden": { "label": "long scheduled wait exposure", "value": 0.088, "weight": 0.15, "score": 1.33 }, "no_bench": { "label": "nearby seating gap", "value": 1.0, "weight": 0.1, "score": 10.0 } }, "top_contributors": "no shelter, nearby seating gap, long scheduled wait exposure", "recommended_intervention": "Install a modular shade canopy, add seating.", "recommended_action_summary": "Shade canopy | Add seating", "planner_note": "This stop is a medium priority because it combines no shelter, nearby seating gap, and long scheduled wait exposure. The most practical near-term intervention is to install a modular shade canopy, add seating.", "planner_note_reason": "This stop is a medium priority because it combines no shelter, nearby seating gap, and long scheduled wait exposure.", "planner_note_recommendation": "The most practical near-term intervention is to install a modular shade canopy, add seating.", "planner_note_urgency": "Medium", "planner_note_source": "Deterministic fallback" }, "geometry": { "type": "Point", "coordinates": [ -73.952359, 40.77268 ] } },
{ "type": "Feature", "properties": { "stop_id": "405322", "stop_sequence": 7, "stop_name": "1 AV/E 15 ST", "stop_lat": 40.732139, "stop_lon": -73.981946, "avg_headway_minutes": 6.7, "scheduled_departures_in_window": 54, "route_id": "M15+", "route_short_name": "M15-SBS", "direction_id": 0, "trip_headsign": "SELECT BUS SERVICE 125 ST via 1 AV", "service_date": "2026-04-24", "wait_source": "MTA GTFS window 12:00:00-18:00:00", "has_shelter": false, "shelter_distance_ft": 102.5, "shelter_source": "NYC DOT Bus Stop Shelters", "has_nearby_seating": false, "seating_distance_ft": 154.3, "bench_source": "NYC DOT Seating Locations", "nearby_tree_count": 8, "nearby_tree_dbh_sum": 59.0, "tree_source": "NYC Street Tree Census", "weather_point_lat": 40.734845, "weather_point_lon": -73.981134, "weather_metric_used": "apparentTemperature", "weather_metric_display": "Feels-like temperature", "max_weather_value_f": 63.0, "heat_burden_score": 0.0, "weather_source": "https://api.weather.gov/gridpoints/OKX/34,43", "weather_source_label": "NWS / weather.gov", "weather_point_url": "https://api.weather.gov/points/40.734845,-73.981134", "weather_updated_at": "2026-04-24T11:02:02+00:00", "weather_refreshed_at": "2026-04-24T15:29:59.621353-04:00", "weather_horizon_hours": 8, "weather_summary": "Feels-like temperature forecast used for the next 8 hours", "resolved_image_path": null, "image_provider": null, "image_source_url": null, "image_attribution_url": null, "image_author": null, "image_license": null, "image_capture_date": null, "image_distance_m": null, "image_fetch_status": "no nearby public image found", "image_available": false, "image_path": null, "visible_tree_ratio": null, "open_sky_ratio": null, "shelter_image_estimate": null, "shelter_image_confidence": null, "bench_image_estimate": null, "bench_image_confidence": null, "vision_method": null, "vision_error": "image unavailable", "route_rank": 7, "corridor_name": "New York City M15-SBS direction 0", "corridor_id": "m15_sbs__dir_0", "shelter_present_effective": false, "bench_present_effective": false, "combined_tree_cover_score": 1.0, "no_shelter_value": 1.0, "no_bench_value": 1.0, "low_tree_cover_value": 0.0, "heat_burden_value": 0.0, "wait_burden_value": 0.085, "priority_score": 46.28, "normalized_priority_score": 64.4, "score_breakdown_json": { "no_shelter": { "label": "no shelter", "value": 1.0, "weight": 0.35, "score": 35.0 }, "low_tree_cover": { "label": "low tree cover", "value": 0.0, "weight": 0.25, "score": 0.0 }, "heat_burden": { "label": "high heat burden", "value": 0.0, "weight": 0.15, "score": 0.0 }, "wait_burden": { "label": "long scheduled wait exposure", "value": 0.085, "weight": 0.15, "score": 1.28 }, "no_bench": { "label": "nearby seating gap", "value": 1.0, "weight": 0.1, "score": 10.0 } }, "top_contributors": "no shelter, nearby seating gap, long scheduled wait exposure", "recommended_intervention": "Install a modular shade canopy, add seating.", "recommended_action_summary": "Shade canopy | Add seating", "planner_note": "This stop is a medium priority because it combines no shelter, nearby seating gap, and long scheduled wait exposure. The most practical near-term intervention is to install a modular shade canopy, add seating.", "planner_note_reason": "This stop is a medium priority because it combines no shelter, nearby seating gap, and long scheduled wait exposure.", "planner_note_recommendation": "The most practical near-term intervention is to install a modular shade canopy, add seating.", "planner_note_urgency": "Medium", "planner_note_source": "Deterministic fallback" }, "geometry": { "type": "Point", "coordinates": [ -73.981946, 40.732139 ] } },
{ "type": "Feature", "properties": { "stop_id": "903093", "stop_sequence": 6, "stop_name": "1 AV/E 1 ST", "stop_lat": 40.723625, "stop_lon": -73.988127, "avg_headway_minutes": 6.66, "scheduled_departures_in_window": 54, "route_id": "M15+", "route_short_name": "M15-SBS", "direction_id": 0, "trip_headsign": "SELECT BUS SERVICE 125 ST via 1 AV", "service_date": "2026-04-24", "wait_source": "MTA GTFS window 12:00:00-18:00:00", "has_shelter": false, "shelter_distance_ft": 66.6, "shelter_source": "NYC DOT Bus Stop Shelters", "has_nearby_seating": false, "seating_distance_ft": 714.0, "bench_source": "NYC DOT Seating Locations", "nearby_tree_count": 8, "nearby_tree_dbh_sum": 110.0, "tree_source": "NYC Street Tree Census", "weather_point_lat": 40.734845, "weather_point_lon": -73.981134, "weather_metric_used": "apparentTemperature", "weather_metric_display": "Feels-like temperature", "max_weather_value_f": 63.0, "heat_burden_score": 0.0, "weather_source": "https://api.weather.gov/gridpoints/OKX/34,43", "weather_source_label": "NWS / weather.gov", "weather_point_url": "https://api.weather.gov/points/40.734845,-73.981134", "weather_updated_at": "2026-04-24T11:02:02+00:00", "weather_refreshed_at": "2026-04-24T15:29:59.621353-04:00", "weather_horizon_hours": 8, "weather_summary": "Feels-like temperature forecast used for the next 8 hours", "resolved_image_path": null, "image_provider": null, "image_source_url": null, "image_attribution_url": null, "image_author": null, "image_license": null, "image_capture_date": null, "image_distance_m": null, "image_fetch_status": "no nearby public image found", "image_available": false, "image_path": null, "visible_tree_ratio": null, "open_sky_ratio": null, "shelter_image_estimate": null, "shelter_image_confidence": null, "bench_image_estimate": null, "bench_image_confidence": null, "vision_method": null, "vision_error": "image unavailable", "route_rank": 6, "corridor_name": "New York City M15-SBS direction 0", "corridor_id": "m15_sbs__dir_0", "shelter_present_effective": false, "bench_present_effective": false, "combined_tree_cover_score": 1.0, "no_shelter_value": 1.0, "no_bench_value": 1.0, "low_tree_cover_value": 0.0, "heat_burden_value": 0.0, "wait_burden_value": 0.083, "priority_score": 46.25, "normalized_priority_score": 64.35, "score_breakdown_json": { "no_shelter": { "label": "no shelter", "value": 1.0, "weight": 0.35, "score": 35.0 }, "low_tree_cover": { "label": "low tree cover", "value": 0.0, "weight": 0.25, "score": 0.0 }, "heat_burden": { "label": "high heat burden", "value": 0.0, "weight": 0.15, "score": 0.0 }, "wait_burden": { "label": "long scheduled wait exposure", "value": 0.083, "weight": 0.15, "score": 1.25 }, "no_bench": { "label": "nearby seating gap", "value": 1.0, "weight": 0.1, "score": 10.0 } }, "top_contributors": "no shelter, nearby seating gap, long scheduled wait exposure", "recommended_intervention": "Install a modular shade canopy, add seating.", "recommended_action_summary": "Shade canopy | Add seating", "planner_note": "This stop is a medium priority because it combines no shelter, nearby seating gap, and long scheduled wait exposure. The most practical near-term intervention is to install a modular shade canopy, add seating.", "planner_note_reason": "This stop is a medium priority because it combines no shelter, nearby seating gap, and long scheduled wait exposure.", "planner_note_recommendation": "The most practical near-term intervention is to install a modular shade canopy, add seating.", "planner_note_urgency": "Medium", "planner_note_source": "Deterministic fallback" }, "geometry": { "type": "Point", "coordinates": [ -73.988127, 40.723625 ] } },
{ "type": "Feature", "properties": { "stop_id": "405325", "stop_sequence": 11, "stop_name": "1 AV/E 43 ST", "stop_lat": 40.749377, "stop_lon": -73.969293, "avg_headway_minutes": 6.76, "scheduled_departures_in_window": 53, "route_id": "M15+", "route_short_name": "M15-SBS", "direction_id": 0, "trip_headsign": "SELECT BUS SERVICE 125 ST via 1 AV", "service_date": "2026-04-24", "wait_source": "MTA GTFS window 12:00:00-18:00:00", "has_shelter": true, "shelter_distance_ft": 61.9, "shelter_source": "NYC DOT Bus Stop Shelters", "has_nearby_seating": false, "seating_distance_ft": 775.3, "bench_source": "NYC DOT Seating Locations", "nearby_tree_count": 0, "nearby_tree_dbh_sum": 0.0, "tree_source": "NYC Street Tree Census", "weather_point_lat": 40.734845, "weather_point_lon": -73.981134, "weather_metric_used": "apparentTemperature", "weather_metric_display": "Feels-like temperature", "max_weather_value_f": 63.0, "heat_burden_score": 0.0, "weather_source": "https://api.weather.gov/gridpoints/OKX/34,43", "weather_source_label": "NWS / weather.gov", "weather_point_url": "https://api.weather.gov/points/40.734845,-73.981134", "weather_updated_at": "2026-04-24T11:02:02+00:00", "weather_refreshed_at": "2026-04-24T15:29:59.621353-04:00", "weather_horizon_hours": 8, "weather_summary": "Feels-like temperature forecast used for the next 8 hours", "resolved_image_path": "/home/rithwik_amajala/code4city/data/raw/stop_images/mapillary_405325.jpg", "image_provider": "Mapillary", "image_source_url": "https://scontent-lga3-1.xx.fbcdn.net/m1/v/t6/An_4AcGzbItGx0KpIoE0lZ_eE7f2FWzvzB6Gc2fC4H7wxBoYBt64sr-ZNMaHkfNr2xuHKkG5VaHJY85RZrgsY7oROUE0WbXQfs7bpyXsfQfKVkj0CYnacXS5GebnwH9cFIBdgox0lQ3vTIBBz0AbAug?stp=s1024x768&edm=ALXxkZ8EAAAA&_nc_gid=STr1qAax3RwsUe5jeI4FsA&_nc_oc=AdoIpMJKAx2k7vc_9jMacU046NUDq8xc4G3DiULbAtOTDo4uWP5W3Y4BjEMLLCljmBM&ccb=10-6&oh=00_Af13Mgq2sR9UOprSy44v8IXXJXEWkKfZ39Z2yk3veQ3W6A&oe=6A13234A&_nc_sid=201bca", "image_attribution_url": "https://www.mapillary.com/app/?pKey=382274003036466", "image_author": "filipc", "image_license": "Mapillary Terms of Use", "image_capture_date": "2015-06-07", "image_distance_m": 32.1, "image_fetch_status": "downloaded public image", "image_available": true, "image_path": "/home/rithwik_amajala/code4city/data/raw/stop_images/mapillary_405325.jpg", "visible_tree_ratio": 0.0, "open_sky_ratio": 0.0, "shelter_image_estimate": "False", "shelter_image_confidence": 0.338, "bench_image_estimate": "False", "bench_image_confidence": 0.0, "vision_method": "OpenCV color-mask and edge-line heuristics", "vision_error": null, "route_rank": 11, "corridor_name": "New York City M15-SBS direction 0", "corridor_id": "m15_sbs__dir_0", "shelter_present_effective": true, "bench_present_effective": false, "combined_tree_cover_score": 0.0, "no_shelter_value": 0.0, "no_bench_value": 1.0, "low_tree_cover_value": 1.0, "heat_burden_value": 0.0, "wait_burden_value": 0.088, "priority_score": 36.32, "normalized_priority_score": 50.14, "score_breakdown_json": { "no_shelter": { "label": "no shelter", "value": 0.0, "weight": 0.35, "score": 0.0 }, "low_tree_cover": { "label": "low tree cover", "value": 1.0, "weight": 0.25, "score": 25.0 }, "heat_burden": { "label": "high heat burden", "value": 0.0, "weight": 0.15, "score": 0.0 }, "wait_burden": { "label": "long scheduled wait exposure", "value": 0.088, "weight": 0.15, "score": 1.32 }, "no_bench": { "label": "nearby seating gap", "value": 1.0, "weight": 0.1, "score": 10.0 } }, "top_contributors": "low tree cover, nearby seating gap, long scheduled wait exposure", "recommended_intervention": "Add seating, increase tree cover near the curb.", "recommended_action_summary": "Add seating | Increase tree cover", "planner_note": "This stop is a medium priority because it combines low tree cover, nearby seating gap, and long scheduled wait exposure. The most practical near-term intervention is to add seating, increase tree cover near the curb.", "planner_note_reason": "This stop is a medium priority because it combines low tree cover, nearby seating gap, and long scheduled wait exposure.", "planner_note_recommendation": "The most practical near-term intervention is to add seating, increase tree cover near the curb.", "planner_note_urgency": "Medium", "planner_note_source": "Deterministic fallback" }, "geometry": { "type": "Point", "coordinates": [ -73.969293, 40.749377 ] } },
{ "type": "Feature", "properties": { "stop_id": "401704", "stop_sequence": 13, "stop_name": "1 AV/E 57 ST", "stop_lat": 40.758829, "stop_lon": -73.962462, "avg_headway_minutes": 6.76, "scheduled_departures_in_window": 53, "route_id": "M15+", "route_short_name": "M15-SBS", "direction_id": 0, "trip_headsign": "SELECT BUS SERVICE 125 ST via 1 AV", "service_date": "2026-04-24", "wait_source": "MTA GTFS window 12:00:00-18:00:00", "has_shelter": true, "shelter_distance_ft": 20.2, "shelter_source": "NYC DOT Bus Stop Shelters", "has_nearby_seating": false, "seating_distance_ft": 232.2, "bench_source": "NYC DOT Seating Locations", "nearby_tree_count": 4, "nearby_tree_dbh_sum": 28.0, "tree_source": "NYC Street Tree Census", "weather_point_lat": 40.734845, "weather_point_lon": -73.981134, "weather_metric_used": "apparentTemperature", "weather_metric_display": "Feels-like temperature", "max_weather_value_f": 63.0, "heat_burden_score": 0.0, "weather_source": "https://api.weather.gov/gridpoints/OKX/34,43", "weather_source_label": "NWS / weather.gov", "weather_point_url": "https://api.weather.gov/points/40.734845,-73.981134", "weather_updated_at": "2026-04-24T11:02:02+00:00", "weather_refreshed_at": "2026-04-24T15:29:59.621353-04:00", "weather_horizon_hours": 8, "weather_summary": "Feels-like temperature forecast used for the next 8 hours", "resolved_image_path": "/home/rithwik_amajala/code4city/data/raw/stop_images/mapillary_401704.jpg", "image_provider": "Mapillary", "image_source_url": "https://scontent-lga3-1.xx.fbcdn.net/m1/v/t6/An_s3GRKSqj1W98_YMCeTZS6qNCCKnV0341ieXE4a9xE6wkWviyVtGPKNqXejzzFfKzPxF83CVQjZFtNFfypu6gwiB_574l1qf8vl3GUJ0HO80zUFKyVUI5rGyovj10Gdo443BEN6pWdGGjVufY3Pg?stp=s1024x768&edm=ALXxkZ8EAAAA&_nc_gid=2101rNNAncMOAy4_fvugZA&_nc_oc=Adqx34XUchU_shIPoe-u4ArGICgzHRwFtrM1ojzy3XCxSiIQNhiJt111-v4fpBK9fWg&ccb=10-5&oh=00_Af06EkQKmZFm454tHSktjRXiON3m2lAy70pM40RLV4usQA&oe=6A131AC0&_nc_sid=201bca", "image_attribution_url": "https://www.mapillary.com/app/?pKey=4127400233947240", "image_author": "smeginald", "image_license": "Mapillary Terms of Use", "image_capture_date": "2020-05-09", "image_distance_m": 14.8, "image_fetch_status": "downloaded public image", "image_available": true, "image_path": "/home/rithwik_amajala/code4city/data/raw/stop_images/mapillary_401704.jpg", "visible_tree_ratio": 0.05, "open_sky_ratio": 0.58, "shelter_image_estimate": "False", "shelter_image_confidence": 0.077, "bench_image_estimate": "False", "bench_image_confidence": 0.4, "vision_method": "OpenCV color-mask and edge-line heuristics", "vision_error": null, "route_rank": 13, "corridor_name": "New York City M15-SBS direction 0", "corridor_id": "m15_sbs__dir_0", "shelter_present_effective": true, "bench_present_effective": false, "combined_tree_cover_score": 0.35833333333333334, "no_shelter_value": 0.0, "no_bench_value": 1.0, "low_tree_cover_value": 0.64166666666666661, "heat_burden_value": 0.0, "wait_burden_value": 0.088, "priority_score": 27.36, "normalized_priority_score": 37.31, "score_breakdown_json": { "no_shelter": { "label": "no shelter", "value": 0.0, "weight": 0.35, "score": 0.0 }, "low_tree_cover": { "label": "low tree cover", "value": 0.642, "weight": 0.25, "score": 16.04 }, "heat_burden": { "label": "high heat burden", "value": 0.0, "weight": 0.15, "score": 0.0 }, "wait_burden": { "label": "long scheduled wait exposure", "value": 0.088, "weight": 0.15, "score": 1.32 }, "no_bench": { "label": "nearby seating gap", "value": 1.0, "weight": 0.1, "score": 10.0 } }, "top_contributors": "low tree cover, nearby seating gap, long scheduled wait exposure", "recommended_intervention": "Add seating.", "recommended_action_summary": "Add seating", "planner_note": "This stop is a low priority because it combines low tree cover, nearby seating gap, and long scheduled wait exposure. The most practical near-term intervention is to add seating.", "planner_note_reason": "This stop is a low priority because it combines low tree cover, nearby seating gap, and long scheduled wait exposure.", "planner_note_recommendation": "The most practical near-term intervention is to add seating.", "planner_note_urgency": "Low", "planner_note_source": "Deterministic fallback" }, "geometry": { "type": "Point", "coordinates": [ -73.962462, 40.758829 ] } },
{ "type": "Feature", "properties": { "stop_id": "401701", "stop_sequence": 12, "stop_name": "1 AV/MITCHELL PL", "stop_lat": 40.753591, "stop_lon": -73.966311, "avg_headway_minutes": 6.75, "scheduled_departures_in_window": 54, "route_id": "M15+", "route_short_name": "M15-SBS", "direction_id": 0, "trip_headsign": "SELECT BUS SERVICE 125 ST via 1 AV", "service_date": "2026-04-24", "wait_source": "MTA GTFS window 12:00:00-18:00:00", "has_shelter": true, "shelter_distance_ft": 34.0, "shelter_source": "NYC DOT Bus Stop Shelters", "has_nearby_seating": false, "seating_distance_ft": 1446.0, "bench_source": "NYC DOT Seating Locations", "nearby_tree_count": 6, "nearby_tree_dbh_sum": 31.0, "tree_source": "NYC Street Tree Census", "weather_point_lat": 40.734845, "weather_point_lon": -73.981134, "weather_metric_used": "apparentTemperature", "weather_metric_display": "Feels-like temperature", "max_weather_value_f": 63.0, "heat_burden_score": 0.0, "weather_source": "https://api.weather.gov/gridpoints/OKX/34,43", "weather_source_label": "NWS / weather.gov", "weather_point_url": "https://api.weather.gov/points/40.734845,-73.981134", "weather_updated_at": "2026-04-24T11:02:02+00:00", "weather_refreshed_at": "2026-04-24T15:29:59.621353-04:00", "weather_horizon_hours": 8, "weather_summary": "Feels-like temperature forecast used for the next 8 hours", "resolved_image_path": "/home/rithwik_amajala/code4city/data/raw/stop_images/mapillary_401701.jpg", "image_provider": "Mapillary", "image_source_url": "https://scontent-lga3-1.xx.fbcdn.net/m1/v/t6/An-hkJYzV1F2_6-mvw8IuqL2nmsBaxpV_EOK82oGTyxx7GghjeeIADBkeE7wDRnR03uQu39gou5zMqWqTTkUOv4151KBuhP1QOziDWXkqofbbhmq4YWspBLlQDPxWzAnyDlhU0t3wAMUX-xTYSuvHA?stp=s1024x768&edm=ALXxkZ8EAAAA&_nc_gid=KDhFAGVOMfLO8G0t4dvWrg&_nc_oc=Ado6DAhMkRsrwuBMiZ3AC4V6hEytRvjIH6zMxMbogD1LgSmMYRQ2Af97C23xqR57qec&ccb=10-5&oh=00_Af2v-NKwhXnQgjCKH3jPq6AUepGstwrJO0Emzxji6W4tRA&oe=6A1335A8&_nc_sid=201bca", "image_attribution_url": "https://www.mapillary.com/app/?pKey=304981614462427", "image_author": "smeginald", "image_license": "Mapillary Terms of Use", "image_capture_date": "2020-05-09", "image_distance_m": 22.9, "image_fetch_status": "downloaded public image", "image_available": true, "image_path": "/home/rithwik_amajala/code4city/data/raw/stop_images/mapillary_401701.jpg", "visible_tree_ratio": 0.009, "open_sky_ratio": 0.552, "shelter_image_estimate": "False", "shelter_image_confidence": 0.089, "bench_image_estimate": "False", "bench_image_confidence": 0.1, "vision_method": "OpenCV color-mask and edge-line heuristics", "vision_error": null, "route_rank": 12, "corridor_name": "New York City M15-SBS direction 0", "corridor_id": "m15_sbs__dir_0", "shelter_present_effective": true, "bench_present_effective": false, "combined_tree_cover_score": 0.5045, "no_shelter_value": 0.0, "no_bench_value": 1.0, "low_tree_cover_value": 0.4955, "heat_burden_value": 0.0, "wait_burden_value": 0.0875, "priority_score": 23.7, "normalized_priority_score": 32.07, "score_breakdown_json": { "no_shelter": { "label": "no shelter", "value": 0.0, "weight": 0.35, "score": 0.0 }, "low_tree_cover": { "label": "low tree cover", "value": 0.496, "weight": 0.25, "score": 12.39 }, "heat_burden": { "label": "high heat burden", "value": 0.0, "weight": 0.15, "score": 0.0 }, "wait_burden": { "label": "long scheduled wait exposure", "value": 0.087, "weight": 0.15, "score": 1.31 }, "no_bench": { "label": "nearby seating gap", "value": 1.0, "weight": 0.1, "score": 10.0 } }, "top_contributors": "low tree cover, nearby seating gap, long scheduled wait exposure", "recommended_intervention": "Add seating.", "recommended_action_summary": "Add seating", "planner_note": "This stop is a low priority because it combines low tree cover, nearby seating gap, and long scheduled wait exposure. The most practical near-term intervention is to add seating.", "planner_note_reason": "This stop is a low priority because it combines low tree cover, nearby seating gap, and long scheduled wait exposure.", "planner_note_recommendation": "The most practical near-term intervention is to add seating.", "planner_note_urgency": "Low", "planner_note_source": "Deterministic fallback" }, "geometry": { "type": "Point", "coordinates": [ -73.966311, 40.753591 ] } },
{ "type": "Feature", "properties": { "stop_id": "405323", "stop_sequence": 8, "stop_name": "1 AV/25 ST", "stop_lat": 40.737991, "stop_lon": -73.977607, "avg_headway_minutes": 6.72, "scheduled_departures_in_window": 53, "route_id": "M15+", "route_short_name": "M15-SBS", "direction_id": 0, "trip_headsign": "SELECT BUS SERVICE 125 ST via 1 AV", "service_date": "2026-04-24", "wait_source": "MTA GTFS window 12:00:00-18:00:00", "has_shelter": true, "shelter_distance_ft": 8.1, "shelter_source": "NYC DOT Bus Stop Shelters", "has_nearby_seating": true, "seating_distance_ft": 15.3, "bench_source": "NYC DOT Seating Locations", "nearby_tree_count": 3, "nearby_tree_dbh_sum": 12.0, "tree_source": "NYC Street Tree Census", "weather_point_lat": 40.734845, "weather_point_lon": -73.981134, "weather_metric_used": "apparentTemperature", "weather_metric_display": "Feels-like temperature", "max_weather_value_f": 63.0, "heat_burden_score": 0.0, "weather_source": "https://api.weather.gov/gridpoints/OKX/34,43", "weather_source_label": "NWS / weather.gov", "weather_point_url": "https://api.weather.gov/points/40.734845,-73.981134", "weather_updated_at": "2026-04-24T11:02:02+00:00", "weather_refreshed_at": "2026-04-24T15:29:59.621353-04:00", "weather_horizon_hours": 8, "weather_summary": "Feels-like temperature forecast used for the next 8 hours", "resolved_image_path": "/home/rithwik_amajala/code4city/data/raw/stop_images/mapillary_405323.jpg", "image_provider": "Mapillary", "image_source_url": "https://scontent-lga3-1.xx.fbcdn.net/m1/v/t6/An9sNoaI4XK20x2tOwO2y_z9hiTxApBb-eb7tbtUzUEVt1wxkxUxkIqVvTZL6FG7SfiyHRl3dBbEAdri72hZbXzWLVCLaiJkVPxQElF8cNeji8OR-Pl8fp413gzG7Nn1h04fOgnDDjcTgxRRrA_R8_s?stp=s1024x768&edm=ALXxkZ8EAAAA&_nc_gid=omcDfzR-M29KOupePoegLg&_nc_oc=Adp7X_gBBDQ62ZxGpW2l_edL9NtLqBq8sco34csrroxfhlnw8fa051qG1VY3mpbTngc&ccb=10-5&oh=00_Af0ncqOBa0MBlliVsCumM34jNoT-X4WkkNcp5MwKqxZvsA&oe=6A13227C&_nc_sid=201bca", "image_attribution_url": "https://www.mapillary.com/app/?pKey=817765784148365", "image_author": "jlin4529", "image_license": "Mapillary Terms of Use", "image_capture_date": "2025-09-25", "image_distance_m": 16.2, "image_fetch_status": "downloaded public image", "image_available": true, "image_path": "/home/rithwik_amajala/code4city/data/raw/stop_images/mapillary_405323.jpg", "visible_tree_ratio": 0.028, "open_sky_ratio": 0.371, "shelter_image_estimate": "True", "shelter_image_confidence": 0.996, "bench_image_estimate": "False", "bench_image_confidence": 0.3, "vision_method": "OpenCV color-mask and edge-line heuristics", "vision_error": null, "route_rank": 8, "corridor_name": "New York City M15-SBS direction 0", "corridor_id": "m15_sbs__dir_0", "shelter_present_effective": true, "bench_present_effective": true, "combined_tree_cover_score": 0.264, "no_shelter_value": 0.0, "no_bench_value": 0.0, "low_tree_cover_value": 0.736, "heat_burden_value": 0.0, "wait_burden_value": 0.086, "priority_score": 19.69, "normalized_priority_score": 26.33, "score_breakdown_json": { "no_shelter": { "label": "no shelter", "value": 0.0, "weight": 0.35, "score": 0.0 }, "low_tree_cover": { "label": "low tree cover", "value": 0.736, "weight": 0.25, "score": 18.4 }, "heat_burden": { "label": "high heat burden", "value": 0.0, "weight": 0.15, "score": 0.0 }, "wait_burden": { "label": "long scheduled wait exposure", "value": 0.086, "weight": 0.15, "score": 1.29 }, "no_bench": { "label": "nearby seating gap", "value": 0.0, "weight": 0.1, "score": 0.0 } }, "top_contributors": "low tree cover, long scheduled wait exposure", "recommended_intervention": "Increase tree cover near the curb.", "recommended_action_summary": "Increase tree cover", "planner_note": "This stop is a low priority because it combines low tree cover and long scheduled wait exposure. The most practical near-term intervention is to increase tree cover near the curb.", "planner_note_reason": "This stop is a low priority because it combines low tree cover and long scheduled wait exposure.", "planner_note_recommendation": "The most practical near-term intervention is to increase tree cover near the curb.", "planner_note_urgency": "Low", "planner_note_source": "Deterministic fallback" }, "geometry": { "type": "Point", "coordinates": [ -73.977607, 40.737991 ] } },
{ "type": "Feature", "properties": { "stop_id": "405320", "stop_sequence": 5, "stop_name": "ALLEN ST/GRAND ST", "stop_lat": 40.717171, "stop_lon": -73.991222, "avg_headway_minutes": 6.63, "scheduled_departures_in_window": 55, "route_id": "M15+", "route_short_name": "M15-SBS", "direction_id": 0, "trip_headsign": "SELECT BUS SERVICE 125 ST via 1 AV", "service_date": "2026-04-24", "wait_source": "MTA GTFS window 12:00:00-18:00:00", "has_shelter": true, "shelter_distance_ft": 8.4, "shelter_source": "NYC DOT Bus Stop Shelters", "has_nearby_seating": false, "seating_distance_ft": 886.4, "bench_source": "NYC DOT Seating Locations", "nearby_tree_count": 8, "nearby_tree_dbh_sum": 64.0, "tree_source": "NYC Street Tree Census", "weather_point_lat": 40.734845, "weather_point_lon": -73.981134, "weather_metric_used": "apparentTemperature", "weather_metric_display": "Feels-like temperature", "max_weather_value_f": 63.0, "heat_burden_score": 0.0, "weather_source": "https://api.weather.gov/gridpoints/OKX/34,43", "weather_source_label": "NWS / weather.gov", "weather_point_url": "https://api.weather.gov/points/40.734845,-73.981134", "weather_updated_at": "2026-04-24T11:02:02+00:00", "weather_refreshed_at": "2026-04-24T15:29:59.621353-04:00", "weather_horizon_hours": 8, "weather_summary": "Feels-like temperature forecast used for the next 8 hours", "resolved_image_path": null, "image_provider": null, "image_source_url": null, "image_attribution_url": null, "image_author": null, "image_license": null, "image_capture_date": null, "image_distance_m": null, "image_fetch_status": "no nearby public image found", "image_available": false, "image_path": null, "visible_tree_ratio": null, "open_sky_ratio": null, "shelter_image_estimate": null, "shelter_image_confidence": null, "bench_image_estimate": null, "bench_image_confidence": null, "vision_method": null, "vision_error": "image unavailable", "route_rank": 5, "corridor_name": "New York City M15-SBS direction 0", "corridor_id": "m15_sbs__dir_0", "shelter_present_effective": true, "bench_present_effective": false, "combined_tree_cover_score": 1.0, "no_shelter_value": 0.0, "no_bench_value": 1.0, "low_tree_cover_value": 0.0, "heat_burden_value": 0.0, "wait_burden_value": 0.0815, "priority_score": 11.22, "normalized_priority_score": 14.2, "score_breakdown_json": { "no_shelter": { "label": "no shelter", "value": 0.0, "weight": 0.35, "score": 0.0 }, "low_tree_cover": { "label": "low tree cover", "value": 0.0, "weight": 0.25, "score": 0.0 }, "heat_burden": { "label": "high heat burden", "value": 0.0, "weight": 0.15, "score": 0.0 }, "wait_burden": { "label": "long scheduled wait exposure", "value": 0.081, "weight": 0.15, "score": 1.22 }, "no_bench": { "label": "nearby seating gap", "value": 1.0, "weight": 0.1, "score": 10.0 } }, "top_contributors": "nearby seating gap, long scheduled wait exposure", "recommended_intervention": "Add seating.", "recommended_action_summary": "Add seating", "planner_note": "This stop is a low priority because it combines nearby seating gap and long scheduled wait exposure. The most practical near-term intervention is to add seating.", "planner_note_reason": "This stop is a low priority because it combines nearby seating gap and long scheduled wait exposure.", "planner_note_recommendation": "The most practical near-term intervention is to add seating.", "planner_note_urgency": "Low", "planner_note_source": "Deterministic fallback" }, "geometry": { "type": "Point", "coordinates": [ -73.991222, 40.717171 ] } },
{ "type": "Feature", "properties": { "stop_id": "404995", "stop_sequence": 9, "stop_name": "1 AV/E 29 ST", "stop_lat": 40.740529, "stop_lon": -73.975807, "avg_headway_minutes": 6.74, "scheduled_departures_in_window": 54, "route_id": "M15+", "route_short_name": "M15-SBS", "direction_id": 0, "trip_headsign": "SELECT BUS SERVICE 125 ST via 1 AV", "service_date": "2026-04-24", "wait_source": "MTA GTFS window 12:00:00-18:00:00", "has_shelter": true, "shelter_distance_ft": 17.1, "shelter_source": "NYC DOT Bus Stop Shelters", "has_nearby_seating": true, "seating_distance_ft": 47.5, "bench_source": "NYC DOT Seating Locations", "nearby_tree_count": 7, "nearby_tree_dbh_sum": 59.0, "tree_source": "NYC Street Tree Census", "weather_point_lat": 40.734845, "weather_point_lon": -73.981134, "weather_metric_used": "apparentTemperature", "weather_metric_display": "Feels-like temperature", "max_weather_value_f": 63.0, "heat_burden_score": 0.0, "weather_source": "https://api.weather.gov/gridpoints/OKX/34,43", "weather_source_label": "NWS / weather.gov", "weather_point_url": "https://api.weather.gov/points/40.734845,-73.981134", "weather_updated_at": "2026-04-24T11:02:02+00:00", "weather_refreshed_at": "2026-04-24T15:29:59.621353-04:00", "weather_horizon_hours": 8, "weather_summary": "Feels-like temperature forecast used for the next 8 hours", "resolved_image_path": null, "image_provider": null, "image_source_url": null, "image_attribution_url": null, "image_author": null, "image_license": null, "image_capture_date": null, "image_distance_m": null, "image_fetch_status": "no nearby public image found", "image_available": false, "image_path": null, "visible_tree_ratio": null, "open_sky_ratio": null, "shelter_image_estimate": null, "shelter_image_confidence": null, "bench_image_estimate": null, "bench_image_confidence": null, "vision_method": null, "vision_error": "image unavailable", "route_rank": 9, "corridor_name": "New York City M15-SBS direction 0", "corridor_id": "m15_sbs__dir_0", "shelter_present_effective": true, "bench_present_effective": true, "combined_tree_cover_score": 1.0, "no_shelter_value": 0.0, "no_bench_value": 0.0, "low_tree_cover_value": 0.0, "heat_burden_value": 0.0, "wait_burden_value": 0.087, "priority_score": 1.31, "normalized_priority_score": 0.01, "score_breakdown_json": { "no_shelter": { "label": "no shelter", "value": 0.0, "weight": 0.35, "score": 0.0 }, "low_tree_cover": { "label": "low tree cover", "value": 0.0, "weight": 0.25, "score": 0.0 }, "heat_burden": { "label": "high heat burden", "value": 0.0, "weight": 0.15, "score": 0.0 }, "wait_burden": { "label": "long scheduled wait exposure", "value": 0.087, "weight": 0.15, "score": 1.31 }, "no_bench": { "label": "nearby seating gap", "value": 0.0, "weight": 0.1, "score": 0.0 } }, "top_contributors": "long scheduled wait exposure", "recommended_intervention": "Monitor heat exposure and maintain existing amenities.", "recommended_action_summary": "Monitor", "planner_note": "This stop is a low priority because it combines long scheduled wait exposure. The most practical near-term intervention is to monitor heat exposure and maintain existing amenities.", "planner_note_reason": "This stop is a low priority because it combines long scheduled wait exposure.", "planner_note_recommendation": "The most practical near-term intervention is to monitor heat exposure and maintain existing amenities.", "planner_note_urgency": "Low", "planner_note_source": "Deterministic fallback" }, "geometry": { "type": "Point", "coordinates": [ -73.975807, 40.740529 ] } },
{ "type": "Feature", "properties": { "stop_id": "403480", "stop_sequence": 10, "stop_name": "1 AV/E 34 ST", "stop_lat": 40.744157, "stop_lon": -73.973165, "avg_headway_minutes": 6.73, "scheduled_departures_in_window": 54, "route_id": "M15+", "route_short_name": "M15-SBS", "direction_id": 0, "trip_headsign": "SELECT BUS SERVICE 125 ST via 1 AV", "service_date": "2026-04-24", "wait_source": "MTA GTFS window 12:00:00-18:00:00", "has_shelter": true, "shelter_distance_ft": 62.2, "shelter_source": "NYC DOT Bus Stop Shelters", "has_nearby_seating": true, "seating_distance_ft": 44.4, "bench_source": "NYC DOT Seating Locations", "nearby_tree_count": 12, "nearby_tree_dbh_sum": 89.0, "tree_source": "NYC Street Tree Census", "weather_point_lat": 40.734845, "weather_point_lon": -73.981134, "weather_metric_used": "apparentTemperature", "weather_metric_display": "Feels-like temperature", "max_weather_value_f": 63.0, "heat_burden_score": 0.0, "weather_source": "https://api.weather.gov/gridpoints/OKX/34,43", "weather_source_label": "NWS / weather.gov", "weather_point_url": "https://api.weather.gov/points/40.734845,-73.981134", "weather_updated_at": "2026-04-24T11:02:02+00:00", "weather_refreshed_at": "2026-04-24T15:29:59.621353-04:00", "weather_horizon_hours": 8, "weather_summary": "Feels-like temperature forecast used for the next 8 hours", "resolved_image_path": null, "image_provider": null, "image_source_url": null, "image_attribution_url": null, "image_author": null, "image_license": null, "image_capture_date": null, "image_distance_m": null, "image_fetch_status": "no nearby public image found", "image_available": false, "image_path": null, "visible_tree_ratio": null, "open_sky_ratio": null, "shelter_image_estimate": null, "shelter_image_confidence": null, "bench_image_estimate": null, "bench_image_confidence": null, "vision_method": null, "vision_error": "image unavailable", "route_rank": 10, "corridor_name": "New York City M15-SBS direction 0", "corridor_id": "m15_sbs__dir_0", "shelter_present_effective": true, "bench_present_effective": true, "combined_tree_cover_score": 1.0, "no_shelter_value": 0.0, "no_bench_value": 0.0, "low_tree_cover_value": 0.0, "heat_burden_value": 0.0, "wait_burden_value": 0.0865, "priority_score": 1.3, "normalized_priority_score": 0.0, "score_breakdown_json": { "no_shelter": { "label": "no shelter", "value": 0.0, "weight": 0.35, "score": 0.0 }, "low_tree_cover": { "label": "low tree cover", "value": 0.0, "weight": 0.25, "score": 0.0 }, "heat_burden": { "label": "high heat burden", "value": 0.0, "weight": 0.15, "score": 0.0 }, "wait_burden": { "label": "long scheduled wait exposure", "value": 0.087, "weight": 0.15, "score": 1.3 }, "no_bench": { "label": "nearby seating gap", "value": 0.0, "weight": 0.1, "score": 0.0 } }, "top_contributors": "long scheduled wait exposure", "recommended_intervention": "Monitor heat exposure and maintain existing amenities.", "recommended_action_summary": "Monitor", "planner_note": "This stop is a low priority because it combines long scheduled wait exposure. The most practical near-term intervention is to monitor heat exposure and maintain existing amenities.", "planner_note_reason": "This stop is a low priority because it combines long scheduled wait exposure.", "planner_note_recommendation": "The most practical near-term intervention is to monitor heat exposure and maintain existing amenities.", "planner_note_urgency": "Low", "planner_note_source": "Deterministic fallback" }, "geometry": { "type": "Point", "coordinates": [ -73.973165, 40.744157 ] } }
]
}
