{
"type": "FeatureCollection",
"name": "stops_scored",
"crs": { "type": "name", "properties": { "name": "urn:ogc:def:crs:OGC:1.3:CRS84" } },
"features": [
{ "type": "Feature", "properties": { "stop_id": "405650", "stop_sequence": 7, "stop_name": "3 AV/E 24 ST", "stop_lat": 40.739601, "stop_lon": -73.98251, "avg_headway_minutes": 10.58, "scheduled_departures_in_window": 34, "route_id": "M102", "route_short_name": "M102", "direction_id": 0, "trip_headsign": "HARLEM 147 ST via 3 AV via LENOX AV", "service_date": "2026-04-24", "wait_source": "MTA GTFS window 12:00:00-18:00:00", "has_shelter": false, "shelter_distance_ft": 257.1, "shelter_source": "NYC DOT Bus Stop Shelters", "has_nearby_seating": false, "seating_distance_ft": 282.1, "bench_source": "NYC DOT Seating Locations", "nearby_tree_count": 4, "nearby_tree_dbh_sum": 48.0, "tree_source": "NYC Street Tree Census", "weather_point_lat": 40.740761, "weather_point_lon": -73.981672, "weather_metric_used": "apparentTemperature", "weather_metric_display": "Feels-like temperature", "max_weather_value_f": 63.0, "heat_burden_score": 0.0, "weather_source": "https://api.weather.gov/gridpoints/OKX/34,43", "weather_source_label": "NWS / weather.gov", "weather_point_url": "https://api.weather.gov/points/40.740761,-73.981672", "weather_updated_at": "2026-04-24T11:02:02+00:00", "weather_refreshed_at": "2026-04-24T15:30:38.535917-04:00", "weather_horizon_hours": 8, "weather_summary": "Feels-like temperature forecast used for the next 8 hours", "resolved_image_path": "/home/rithwik_amajala/code4city/data/raw/stop_images/mapillary_405650.jpg", "image_provider": "Mapillary", "image_source_url": "https://scontent-lga3-1.xx.fbcdn.net/m1/v/t6/An8ki17pHhv8edr3zyJG3B37AchS5xSWQHUV0BmUd5hpkWL11EqY09_C7rq9EEIfNY-CtJ82pUgNKRpy80od8yzLTelmV4nfYn8ULW42LPp3Glroug7KQ235az6eEb8JPfDVvjz9GQw982p5hOCQVQ?stp=s1024x768&edm=ALXxkZ8EAAAA&_nc_gid=87qFPgf3vWMQ3Ng_drGiKQ&_nc_oc=AdoA4dDNGva1MBQgBSqN3E2vQ2crxjohD8sjZMcp8YznerVtBXbKkPa2tN40giA7MbQ&ccb=10-5&oh=00_Af2oaOdfr8UrAESdtPTQp8_QCZQx7XG9b95q9CmYiG2Tcg&oe=6A1335D9&_nc_sid=201bca", "image_attribution_url": "https://www.mapillary.com/app/?pKey=1193721665979159", "image_author": "jlin4529", "image_license": "Mapillary Terms of Use", "image_capture_date": "2025-10-21", "image_distance_m": 18.9, "image_fetch_status": "downloaded public image", "image_available": true, "image_path": "/home/rithwik_amajala/code4city/data/raw/stop_images/mapillary_405650.jpg", "visible_tree_ratio": 0.035, "open_sky_ratio": 0.227, "shelter_image_estimate": "False", "shelter_image_confidence": 0.235, "bench_image_estimate": "False", "bench_image_confidence": 0.0, "vision_method": "OpenCV color-mask and edge-line heuristics", "vision_error": null, "route_rank": 7, "corridor_name": "New York City M102 direction 0", "corridor_id": "m102__dir_0", "shelter_present_effective": false, "bench_present_effective": false, "combined_tree_cover_score": 0.35083333333333333, "no_shelter_value": 1.0, "no_bench_value": 1.0, "low_tree_cover_value": 0.64916666666666667, "heat_burden_value": 0.0, "wait_burden_value": 0.279, "priority_score": 65.42, "normalized_priority_score": 100.0, "score_breakdown_json": { "no_shelter": { "label": "no shelter", "value": 1.0, "weight": 0.35, "score": 35.0 }, "low_tree_cover": { "label": "low tree cover", "value": 0.649, "weight": 0.25, "score": 16.23 }, "heat_burden": { "label": "high heat burden", "value": 0.0, "weight": 0.15, "score": 0.0 }, "wait_burden": { "label": "long scheduled wait exposure", "value": 0.279, "weight": 0.15, "score": 4.19 }, "no_bench": { "label": "nearby seating gap", "value": 1.0, "weight": 0.1, "score": 10.0 } }, "top_contributors": "no shelter, low tree cover, nearby seating gap", "recommended_intervention": "Install a modular shade canopy, add seating.", "recommended_action_summary": "Shade canopy | Add seating", "planner_note": "This stop is a critical priority because it combines no shelter, low tree cover, and nearby seating gap. The most practical near-term intervention is to install a modular shade canopy, add seating.", "planner_note_reason": "This stop is a critical priority because it combines no shelter, low tree cover, and nearby seating gap.", "planner_note_recommendation": "The most practical near-term intervention is to install a modular shade canopy, add seating.", "planner_note_urgency": "Critical", "planner_note_source": "Deterministic fallback" }, "geometry": { "type": "Point", "coordinates": [ -73.98251, 40.739601 ] } },
{ "type": "Feature", "properties": { "stop_id": "402673", "stop_sequence": 8, "stop_name": "3 AV/E 26 ST", "stop_lat": 40.741067, "stop_lon": -73.981419, "avg_headway_minutes": 10.58, "scheduled_departures_in_window": 34, "route_id": "M102", "route_short_name": "M102", "direction_id": 0, "trip_headsign": "HARLEM 147 ST via 3 AV via LENOX AV", "service_date": "2026-04-24", "wait_source": "MTA GTFS window 12:00:00-18:00:00", "has_shelter": false, "shelter_distance_ft": 745.2, "shelter_source": "NYC DOT Bus Stop Shelters", "has_nearby_seating": false, "seating_distance_ft": 428.7, "bench_source": "NYC DOT Seating Locations", "nearby_tree_count": 7, "nearby_tree_dbh_sum": 66.0, "tree_source": "NYC Street Tree Census", "weather_point_lat": 40.740761, "weather_point_lon": -73.981672, "weather_metric_used": "apparentTemperature", "weather_metric_display": "Feels-like temperature", "max_weather_value_f": 63.0, "heat_burden_score": 0.0, "weather_source": "https://api.weather.gov/gridpoints/OKX/34,43", "weather_source_label": "NWS / weather.gov", "weather_point_url": "https://api.weather.gov/points/40.740761,-73.981672", "weather_updated_at": "2026-04-24T11:02:02+00:00", "weather_refreshed_at": "2026-04-24T15:30:38.535917-04:00", "weather_horizon_hours": 8, "weather_summary": "Feels-like temperature forecast used for the next 8 hours", "resolved_image_path": "/home/rithwik_amajala/code4city/data/raw/stop_images/mapillary_402673.jpg", "image_provider": "Mapillary", "image_source_url": "https://scontent-lga3-1.xx.fbcdn.net/m1/v/t6/An9t_x2jYmx28yLMf75wayxxvYdRsGwlmTEQqnOHttiH44mCW1kmbHVrkyRad-qP4ZrN6fEuq1fN_K4Y3LQ7WzdUAk1_KKWTzOU334MRE07pKUSMOgd4l6B9pOfpypgC88rYvGtBoDfwuZ94H2sv-fo?stp=s1024x768&edm=ALXxkZ8EAAAA&_nc_gid=EkAX1UnueJAPj5PXSQ8JjA&_nc_oc=AdpgEqnO3U6B7WXSfFSzohNkiqwNSQajJ-Q1i7ggXoWxzQmWpLnsYpLbzsx9ba62AvQ&ccb=10-6&oh=00_Af3klWms6_HA21M-kPHclPNMtG6JZiEijj8D53Oer2FJPg&oe=6A1321CE&_nc_sid=201bca", "image_attribution_url": "https://www.mapillary.com/app/?pKey=1847350862843500", "image_author": "jlin4529", "image_license": "Mapillary Terms of Use", "image_capture_date": "2025-10-07", "image_distance_m": 32.4, "image_fetch_status": "downloaded public image", "image_available": true, "image_path": "/home/rithwik_amajala/code4city/data/raw/stop_images/mapillary_402673.jpg", "visible_tree_ratio": 0.028, "open_sky_ratio": 0.334, "shelter_image_estimate": "False", "shelter_image_confidence": 0.394, "bench_image_estimate": "True", "bench_image_confidence": 0.9, "vision_method": "OpenCV color-mask and edge-line heuristics", "vision_error": null, "route_rank": 8, "corridor_name": "New York City M102 direction 0", "corridor_id": "m102__dir_0", "shelter_present_effective": false, "bench_present_effective": false, "combined_tree_cover_score": 0.514, "no_shelter_value": 1.0, "no_bench_value": 1.0, "low_tree_cover_value": 0.486, "heat_burden_value": 0.0, "wait_burden_value": 0.279, "priority_score": 61.34, "normalized_priority_score": 92.04, "score_breakdown_json": { "no_shelter": { "label": "no shelter", "value": 1.0, "weight": 0.35, "score": 35.0 }, "low_tree_cover": { "label": "low tree cover", "value": 0.486, "weight": 0.25, "score": 12.15 }, "heat_burden": { "label": "high heat burden", "value": 0.0, "weight": 0.15, "score": 0.0 }, "wait_burden": { "label": "long scheduled wait exposure", "value": 0.279, "weight": 0.15, "score": 4.19 }, "no_bench": { "label": "nearby seating gap", "value": 1.0, "weight": 0.1, "score": 10.0 } }, "top_contributors": "no shelter, low tree cover, nearby seating gap", "recommended_intervention": "Install a modular shade canopy, add seating.", "recommended_action_summary": "Shade canopy | Add seating", "planner_note": "This stop is a critical priority because it combines no shelter, low tree cover, and nearby seating gap. The most practical near-term intervention is to install a modular shade canopy, add seating.", "planner_note_reason": "This stop is a critical priority because it combines no shelter, low tree cover, and nearby seating gap.", "planner_note_recommendation": "The most practical near-term intervention is to install a modular shade canopy, add seating.", "planner_note_urgency": "Critical", "planner_note_source": "Deterministic fallback" }, "geometry": { "type": "Point", "coordinates": [ -73.981419, 40.741067 ] } },
{ "type": "Feature", "properties": { "stop_id": "450228", "stop_sequence": 11, "stop_name": "3 AV/E 33 ST", "stop_lat": 40.745217, "stop_lon": -73.978408, "avg_headway_minutes": 10.58, "scheduled_departures_in_window": 34, "route_id": "M102", "route_short_name": "M102", "direction_id": 0, "trip_headsign": "HARLEM 147 ST via 3 AV via LENOX AV", "service_date": "2026-04-24", "wait_source": "MTA GTFS window 12:00:00-18:00:00", "has_shelter": false, "shelter_distance_ft": 133.6, "shelter_source": "NYC DOT Bus Stop Shelters", "has_nearby_seating": false, "seating_distance_ft": 545.2, "bench_source": "NYC DOT Seating Locations", "nearby_tree_count": 7, "nearby_tree_dbh_sum": 63.0, "tree_source": "NYC Street Tree Census", "weather_point_lat": 40.740761, "weather_point_lon": -73.981672, "weather_metric_used": "apparentTemperature", "weather_metric_display": "Feels-like temperature", "max_weather_value_f": 63.0, "heat_burden_score": 0.0, "weather_source": "https://api.weather.gov/gridpoints/OKX/34,43", "weather_source_label": "NWS / weather.gov", "weather_point_url": "https://api.weather.gov/points/40.740761,-73.981672", "weather_updated_at": "2026-04-24T11:02:02+00:00", "weather_refreshed_at": "2026-04-24T15:30:38.535917-04:00", "weather_horizon_hours": 8, "weather_summary": "Feels-like temperature forecast used for the next 8 hours", "resolved_image_path": "/home/rithwik_amajala/code4city/data/raw/stop_images/mapillary_450228.jpg", "image_provider": "Mapillary", "image_source_url": "https://scontent-lga3-1.xx.fbcdn.net/m1/v/t6/An9PJAk5eXZbuWtD7jLqws6xmobjwTO-g91UJznHqzdKwCaZm3g5Gd-GEkx9nsLOypD-0Dbi7qD84zpfgf7B7RJalB7GiBtYpRBVcGhGuKM0uO8hC7WcWGLhD5zXJ1v38C-Ie6uG1iWUSTFedpaHig?stp=s1024x576&edm=ALXxkZ8EAAAA&_nc_gid=HeqV5voKY5j_6UR9UN4OTg&_nc_oc=AdrWH9Kw4DcjmSncs1nF22H4BTIehRl8Oti4mn1I1IwXG5rZfeQhqlteCf6c_4dgF1o&ccb=10-5&oh=00_Af2epmjXvzZ9PTtaUUr1TN5GGwq9a0ElfVrdzNzfauHENQ&oe=6A135034&_nc_sid=201bca", "image_attribution_url": "https://www.mapillary.com/app/?pKey=139125181575043", "image_author": "lvl5", "image_license": "Mapillary Terms of Use", "image_capture_date": "2018-08-05", "image_distance_m": 13.4, "image_fetch_status": "downloaded public image", "image_available": true, "image_path": "/home/rithwik_amajala/code4city/data/raw/stop_images/mapillary_450228.jpg", "visible_tree_ratio": 0.412, "open_sky_ratio": 0.366, "shelter_image_estimate": "True", "shelter_image_confidence": 1.0, "bench_image_estimate": "True", "bench_image_confidence": 1.0, "vision_method": "OpenCV color-mask and edge-line heuristics", "vision_error": null, "route_rank": 11, "corridor_name": "New York City M102 direction 0", "corridor_id": "m102__dir_0", "shelter_present_effective": false, "bench_present_effective": false, "combined_tree_cover_score": 0.706, "no_shelter_value": 1.0, "no_bench_value": 1.0, "low_tree_cover_value": 0.294, "heat_burden_value": 0.0, "wait_burden_value": 0.279, "priority_score": 56.54, "normalized_priority_score": 82.67, "score_breakdown_json": { "no_shelter": { "label": "no shelter", "value": 1.0, "weight": 0.35, "score": 35.0 }, "low_tree_cover": { "label": "low tree cover", "value": 0.294, "weight": 0.25, "score": 7.35 }, "heat_burden": { "label": "high heat burden", "value": 0.0, "weight": 0.15, "score": 0.0 }, "wait_burden": { "label": "long scheduled wait exposure", "value": 0.279, "weight": 0.15, "score": 4.19 }, "no_bench": { "label": "nearby seating gap", "value": 1.0, "weight": 0.1, "score": 10.0 } }, "top_contributors": "no shelter, nearby seating gap, low tree cover", "recommended_intervention": "Install a modular shade canopy, add seating.", "recommended_action_summary": "Shade canopy | Add seating", "planner_note": "This stop is a high priority because it combines no shelter, nearby seating gap, and low tree cover. The most practical near-term intervention is to install a modular shade canopy, add seating.", "planner_note_reason": "This stop is a high priority because it combines no shelter, nearby seating gap, and low tree cover.", "planner_note_recommendation": "The most practical near-term intervention is to install a modular shade canopy, add seating.", "planner_note_urgency": "High", "planner_note_source": "Deterministic fallback" }, "geometry": { "type": "Point", "coordinates": [ -73.978408, 40.745217 ] } },
{ "type": "Feature", "properties": { "stop_id": "405154", "stop_sequence": 1, "stop_name": "ASTOR PL/COOPER SQ EAST", "stop_lat": 40.729574, "stop_lon": -73.99004, "avg_headway_minutes": 10.58, "scheduled_departures_in_window": 34, "route_id": "M102", "route_short_name": "M102", "direction_id": 0, "trip_headsign": "HARLEM 147 ST via 3 AV via LENOX AV", "service_date": "2026-04-24", "wait_source": "MTA GTFS window 12:00:00-18:00:00", "has_shelter": false, "shelter_distance_ft": 403.7, "shelter_source": "NYC DOT Bus Stop Shelters", "has_nearby_seating": true, "seating_distance_ft": 33.6, "bench_source": "NYC DOT Seating Locations", "nearby_tree_count": 2, "nearby_tree_dbh_sum": 16.0, "tree_source": "NYC Street Tree Census", "weather_point_lat": 40.740761, "weather_point_lon": -73.981672, "weather_metric_used": "apparentTemperature", "weather_metric_display": "Feels-like temperature", "max_weather_value_f": 63.0, "heat_burden_score": 0.0, "weather_source": "https://api.weather.gov/gridpoints/OKX/34,43", "weather_source_label": "NWS / weather.gov", "weather_point_url": "https://api.weather.gov/points/40.740761,-73.981672", "weather_updated_at": "2026-04-24T11:02:02+00:00", "weather_refreshed_at": "2026-04-24T15:30:38.535917-04:00", "weather_horizon_hours": 8, "weather_summary": "Feels-like temperature forecast used for the next 8 hours", "resolved_image_path": null, "image_provider": null, "image_source_url": null, "image_attribution_url": null, "image_author": null, "image_license": null, "image_capture_date": null, "image_distance_m": null, "image_fetch_status": "no nearby public image found", "image_available": false, "image_path": null, "visible_tree_ratio": null, "open_sky_ratio": null, "shelter_image_estimate": null, "shelter_image_confidence": null, "bench_image_estimate": null, "bench_image_confidence": null, "vision_method": null, "vision_error": "image unavailable", "route_rank": 1, "corridor_name": "New York City M102 direction 0", "corridor_id": "m102__dir_0", "shelter_present_effective": false, "bench_present_effective": true, "combined_tree_cover_score": 0.33333333333333331, "no_shelter_value": 1.0, "no_bench_value": 0.0, "low_tree_cover_value": 0.66666666666666674, "heat_burden_value": 0.0, "wait_burden_value": 0.279, "priority_score": 55.86, "normalized_priority_score": 81.34, "score_breakdown_json": { "no_shelter": { "label": "no shelter", "value": 1.0, "weight": 0.35, "score": 35.0 }, "low_tree_cover": { "label": "low tree cover", "value": 0.667, "weight": 0.25, "score": 16.67 }, "heat_burden": { "label": "high heat burden", "value": 0.0, "weight": 0.15, "score": 0.0 }, "wait_burden": { "label": "long scheduled wait exposure", "value": 0.279, "weight": 0.15, "score": 4.19 }, "no_bench": { "label": "nearby seating gap", "value": 0.0, "weight": 0.1, "score": 0.0 } }, "top_contributors": "no shelter, low tree cover, long scheduled wait exposure", "recommended_intervention": "Install a modular shade canopy, increase tree cover near the curb.", "recommended_action_summary": "Shade canopy | Increase tree cover", "planner_note": "This stop is a high priority because it combines no shelter, low tree cover, and long scheduled wait exposure. The most practical near-term intervention is to install a modular shade canopy, increase tree cover near the curb.", "planner_note_reason": "This stop is a high priority because it combines no shelter, low tree cover, and long scheduled wait exposure.", "planner_note_recommendation": "The most practical near-term intervention is to install a modular shade canopy, increase tree cover near the curb.", "planner_note_urgency": "High", "planner_note_source": "Deterministic fallback" }, "geometry": { "type": "Point", "coordinates": [ -73.99004, 40.729574 ] } },
{ "type": "Feature", "properties": { "stop_id": "405155", "stop_sequence": 2, "stop_name": "3 AV/E 9 ST", "stop_lat": 40.730389, "stop_lon": -73.989235, "avg_headway_minutes": 10.58, "scheduled_departures_in_window": 34, "route_id": "M102", "route_short_name": "M102", "direction_id": 0, "trip_headsign": "HARLEM 147 ST via 3 AV via LENOX AV", "service_date": "2026-04-24", "wait_source": "MTA GTFS window 12:00:00-18:00:00", "has_shelter": false, "shelter_distance_ft": 676.3, "shelter_source": "NYC DOT Bus Stop Shelters", "has_nearby_seating": true, "seating_distance_ft": 37.3, "bench_source": "NYC DOT Seating Locations", "nearby_tree_count": 7, "nearby_tree_dbh_sum": 57.0, "tree_source": "NYC Street Tree Census", "weather_point_lat": 40.740761, "weather_point_lon": -73.981672, "weather_metric_used": "apparentTemperature", "weather_metric_display": "Feels-like temperature", "max_weather_value_f": 63.0, "heat_burden_score": 0.0, "weather_source": "https://api.weather.gov/gridpoints/OKX/34,43", "weather_source_label": "NWS / weather.gov", "weather_point_url": "https://api.weather.gov/points/40.740761,-73.981672", "weather_updated_at": "2026-04-24T11:02:02+00:00", "weather_refreshed_at": "2026-04-24T15:30:38.535917-04:00", "weather_horizon_hours": 8, "weather_summary": "Feels-like temperature forecast used for the next 8 hours", "resolved_image_path": "/home/rithwik_amajala/code4city/data/raw/stop_images/mapillary_405155.jpg", "image_provider": "Mapillary", "image_source_url": "https://scontent-lga3-1.xx.fbcdn.net/m1/v/t6/An9uH7aqd8qHO_SbSeYXKleyPqembkAkFJoriICayeSXh-tvpQ201udL2G1xu-8iSj4eUfkzL_pIsviU6cKiDvyOPE3ZccQqjPxgGhgUShHYDAGZ1VgDNrZUg2ASjxUT5Z7B-5CeddyMAePZIiJMmC0?stp=s1024x768&edm=ALXxkZ8EAAAA&_nc_gid=PX1RKDHJy4vnNwlnWEoRTA&_nc_oc=Adq5Ggpt4bY5tPYGvT7y3K1M5Y11_f78yE8-bDpToo2eXs8F_ZdkEW-rFyuntAfEFws&ccb=10-5&oh=00_Af2NFPNYoOkhldja3ePT3Cz--cdUmjkgEm92iyqYKztiGQ&oe=6A1348FD&_nc_sid=201bca", "image_attribution_url": "https://www.mapillary.com/app/?pKey=958991311309117", "image_author": "smeginald", "image_license": "Mapillary Terms of Use", "image_capture_date": "2020-05-09", "image_distance_m": 26.9, "image_fetch_status": "downloaded public image", "image_available": true, "image_path": "/home/rithwik_amajala/code4city/data/raw/stop_images/mapillary_405155.jpg", "visible_tree_ratio": 0.035, "open_sky_ratio": 0.559, "shelter_image_estimate": "False", "shelter_image_confidence": 0.223, "bench_image_estimate": "False", "bench_image_confidence": 0.0, "vision_method": "OpenCV color-mask and edge-line heuristics", "vision_error": null, "route_rank": 2, "corridor_name": "New York City M102 direction 0", "corridor_id": "m102__dir_0", "shelter_present_effective": false, "bench_present_effective": true, "combined_tree_cover_score": 0.5175, "no_shelter_value": 1.0, "no_bench_value": 0.0, "low_tree_cover_value": 0.4825, "heat_burden_value": 0.0, "wait_burden_value": 0.279, "priority_score": 51.25, "normalized_priority_score": 72.34, "score_breakdown_json": { "no_shelter": { "label": "no shelter", "value": 1.0, "weight": 0.35, "score": 35.0 }, "low_tree_cover": { "label": "low tree cover", "value": 0.483, "weight": 0.25, "score": 12.06 }, "heat_burden": { "label": "high heat burden", "value": 0.0, "weight": 0.15, "score": 0.0 }, "wait_burden": { "label": "long scheduled wait exposure", "value": 0.279, "weight": 0.15, "score": 4.19 }, "no_bench": { "label": "nearby seating gap", "value": 0.0, "weight": 0.1, "score": 0.0 } }, "top_contributors": "no shelter, low tree cover, long scheduled wait exposure", "recommended_intervention": "Install a modular shade canopy.", "recommended_action_summary": "Shade canopy", "planner_note": "This stop is a high priority because it combines no shelter, low tree cover, and long scheduled wait exposure. The most practical near-term intervention is to install a modular shade canopy.", "planner_note_reason": "This stop is a high priority because it combines no shelter, low tree cover, and long scheduled wait exposure.", "planner_note_recommendation": "The most practical near-term intervention is to install a modular shade canopy.", "planner_note_urgency": "High", "planner_note_source": "Deterministic fallback" }, "geometry": { "type": "Point", "coordinates": [ -73.989235, 40.730389 ] } },
{ "type": "Feature", "properties": { "stop_id": "402678", "stop_sequence": 13, "stop_name": "3 AV/E 39 ST", "stop_lat": 40.749176, "stop_lon": -73.975519, "avg_headway_minutes": 10.58, "scheduled_departures_in_window": 34, "route_id": "M102", "route_short_name": "M102", "direction_id": 0, "trip_headsign": "HARLEM 147 ST via 3 AV via LENOX AV", "service_date": "2026-04-24", "wait_source": "MTA GTFS window 12:00:00-18:00:00", "has_shelter": false, "shelter_distance_ft": 520.2, "shelter_source": "NYC DOT Bus Stop Shelters", "has_nearby_seating": true, "seating_distance_ft": 25.6, "bench_source": "NYC DOT Seating Locations", "nearby_tree_count": 9, "nearby_tree_dbh_sum": 74.0, "tree_source": "NYC Street Tree Census", "weather_point_lat": 40.740761, "weather_point_lon": -73.981672, "weather_metric_used": "apparentTemperature", "weather_metric_display": "Feels-like temperature", "max_weather_value_f": 63.0, "heat_burden_score": 0.0, "weather_source": "https://api.weather.gov/gridpoints/OKX/34,43", "weather_source_label": "NWS / weather.gov", "weather_point_url": "https://api.weather.gov/points/40.740761,-73.981672", "weather_updated_at": "2026-04-24T11:02:02+00:00", "weather_refreshed_at": "2026-04-24T15:30:38.535917-04:00", "weather_horizon_hours": 8, "weather_summary": "Feels-like temperature forecast used for the next 8 hours", "resolved_image_path": "/home/rithwik_amajala/code4city/data/raw/stop_images/mapillary_402678.jpg", "image_provider": "Mapillary", "image_source_url": "https://scontent-lga3-1.xx.fbcdn.net/m1/v/t6/An-oiZ5tSe_TbI0Jee1tXhSWE1zT2iUU3eB6Wc-T1wNlRDfkqskHaw0icgb4etkDsuPOM2tmsNRHzeEIDLCj2NWhPCFe-rRklvN7HZHIRhZ4wc6gNBLVe_vO_pbE9l_titcXL7JvlkoaP2Wr4xmbKg?stp=s1024x768&edm=ALXxkZ8EAAAA&_nc_gid=zYcpjKZ5eMT32quBI4FvmQ&_nc_oc=AdpO5X2lqEEFwsYmrrOOdg4Z8e92SNIRFTGYuHTrsy9u6kR3MvdF_ap76r3IjnOu31M&ccb=10-5&oh=00_Af16dOfArNMGDCkLtjs7Fx4O9sqtTt_6ZUb5eRx527A2Eg&oe=6A131DBA&_nc_sid=201bca", "image_attribution_url": "https://www.mapillary.com/app/?pKey=1166644463843482", "image_author": "smeginald", "image_license": "Mapillary Terms of Use", "image_capture_date": "2020-05-09", "image_distance_m": 19.1, "image_fetch_status": "downloaded public image", "image_available": true, "image_path": "/home/rithwik_amajala/code4city/data/raw/stop_images/mapillary_402678.jpg", "visible_tree_ratio": 0.199, "open_sky_ratio": 0.406, "shelter_image_estimate": "False", "shelter_image_confidence": 0.224, "bench_image_estimate": "False", "bench_image_confidence": 0.2, "vision_method": "OpenCV color-mask and edge-line heuristics", "vision_error": null, "route_rank": 13, "corridor_name": "New York City M102 direction 0", "corridor_id": "m102__dir_0", "shelter_present_effective": false, "bench_present_effective": true, "combined_tree_cover_score": 0.5995, "no_shelter_value": 1.0, "no_bench_value": 0.0, "low_tree_cover_value": 0.4005, "heat_burden_value": 0.0, "wait_burden_value": 0.279, "priority_score": 49.2, "normalized_priority_score": 68.34, "score_breakdown_json": { "no_shelter": { "label": "no shelter", "value": 1.0, "weight": 0.35, "score": 35.0 }, "low_tree_cover": { "label": "low tree cover", "value": 0.4, "weight": 0.25, "score": 10.01 }, "heat_burden": { "label": "high heat burden", "value": 0.0, "weight": 0.15, "score": 0.0 }, "wait_burden": { "label": "long scheduled wait exposure", "value": 0.279, "weight": 0.15, "score": 4.19 }, "no_bench": { "label": "nearby seating gap", "value": 0.0, "weight": 0.1, "score": 0.0 } }, "top_contributors": "no shelter, low tree cover, long scheduled wait exposure", "recommended_intervention": "Install a modular shade canopy.", "recommended_action_summary": "Shade canopy", "planner_note": "This stop is a high priority because it combines no shelter, low tree cover, and long scheduled wait exposure. The most practical near-term intervention is to install a modular shade canopy.", "planner_note_reason": "This stop is a high priority because it combines no shelter, low tree cover, and long scheduled wait exposure.", "planner_note_recommendation": "The most practical near-term intervention is to install a modular shade canopy.", "planner_note_urgency": "High", "planner_note_source": "Deterministic fallback" }, "geometry": { "type": "Point", "coordinates": [ -73.975519, 40.749176 ] } },
{ "type": "Feature", "properties": { "stop_id": "402634", "stop_sequence": 10, "stop_name": "3 AV/E 31 ST", "stop_lat": 40.743707, "stop_lon": -73.979544, "avg_headway_minutes": 10.58, "scheduled_departures_in_window": 34, "route_id": "M102", "route_short_name": "M102", "direction_id": 0, "trip_headsign": "HARLEM 147 ST via 3 AV via LENOX AV", "service_date": "2026-04-24", "wait_source": "MTA GTFS window 12:00:00-18:00:00", "has_shelter": false, "shelter_distance_ft": 349.5, "shelter_source": "NYC DOT Bus Stop Shelters", "has_nearby_seating": true, "seating_distance_ft": 38.7, "bench_source": "NYC DOT Seating Locations", "nearby_tree_count": 4, "nearby_tree_dbh_sum": 30.0, "tree_source": "NYC Street Tree Census", "weather_point_lat": 40.740761, "weather_point_lon": -73.981672, "weather_metric_used": "apparentTemperature", "weather_metric_display": "Feels-like temperature", "max_weather_value_f": 63.0, "heat_burden_score": 0.0, "weather_source": "https://api.weather.gov/gridpoints/OKX/34,43", "weather_source_label": "NWS / weather.gov", "weather_point_url": "https://api.weather.gov/points/40.740761,-73.981672", "weather_updated_at": "2026-04-24T11:02:02+00:00", "weather_refreshed_at": "2026-04-24T15:30:38.535917-04:00", "weather_horizon_hours": 8, "weather_summary": "Feels-like temperature forecast used for the next 8 hours", "resolved_image_path": null, "image_provider": null, "image_source_url": null, "image_attribution_url": null, "image_author": null, "image_license": null, "image_capture_date": null, "image_distance_m": null, "image_fetch_status": "no nearby public image found", "image_available": false, "image_path": null, "visible_tree_ratio": null, "open_sky_ratio": null, "shelter_image_estimate": null, "shelter_image_confidence": null, "bench_image_estimate": null, "bench_image_confidence": null, "vision_method": null, "vision_error": "image unavailable", "route_rank": 10, "corridor_name": "New York City M102 direction 0", "corridor_id": "m102__dir_0", "shelter_present_effective": false, "bench_present_effective": true, "combined_tree_cover_score": 0.66666666666666663, "no_shelter_value": 1.0, "no_bench_value": 0.0, "low_tree_cover_value": 0.33333333333333337, "heat_burden_value": 0.0, "wait_burden_value": 0.279, "priority_score": 47.52, "normalized_priority_score": 65.06, "score_breakdown_json": { "no_shelter": { "label": "no shelter", "value": 1.0, "weight": 0.35, "score": 35.0 }, "low_tree_cover": { "label": "low tree cover", "value": 0.333, "weight": 0.25, "score": 8.33 }, "heat_burden": { "label": "high heat burden", "value": 0.0, "weight": 0.15, "score": 0.0 }, "wait_burden": { "label": "long scheduled wait exposure", "value": 0.279, "weight": 0.15, "score": 4.19 }, "no_bench": { "label": "nearby seating gap", "value": 0.0, "weight": 0.1, "score": 0.0 } }, "top_contributors": "no shelter, low tree cover, long scheduled wait exposure", "recommended_intervention": "Install a modular shade canopy.", "recommended_action_summary": "Shade canopy", "planner_note": "This stop is a high priority because it combines no shelter, low tree cover, and long scheduled wait exposure. The most practical near-term intervention is to install a modular shade canopy.", "planner_note_reason": "This stop is a high priority because it combines no shelter, low tree cover, and long scheduled wait exposure.", "planner_note_recommendation": "The most practical near-term intervention is to install a modular shade canopy.", "planner_note_urgency": "High", "planner_note_source": "Deterministic fallback" }, "geometry": { "type": "Point", "coordinates": [ -73.979544, 40.743707 ] } },
{ "type": "Feature", "properties": { "stop_id": "402679", "stop_sequence": 14, "stop_name": "3 AV/E 42 ST", "stop_lat": 40.751085, "stop_lon": -73.974122, "avg_headway_minutes": 10.58, "scheduled_departures_in_window": 34, "route_id": "M102", "route_short_name": "M102", "direction_id": 0, "trip_headsign": "HARLEM 147 ST via 3 AV via LENOX AV", "service_date": "2026-04-24", "wait_source": "MTA GTFS window 12:00:00-18:00:00", "has_shelter": false, "shelter_distance_ft": 203.9, "shelter_source": "NYC DOT Bus Stop Shelters", "has_nearby_seating": true, "seating_distance_ft": 0.0, "bench_source": "NYC DOT Seating Locations", "nearby_tree_count": 4, "nearby_tree_dbh_sum": 26.0, "tree_source": "NYC Street Tree Census", "weather_point_lat": 40.740761, "weather_point_lon": -73.981672, "weather_metric_used": "apparentTemperature", "weather_metric_display": "Feels-like temperature", "max_weather_value_f": 63.0, "heat_burden_score": 0.0, "weather_source": "https://api.weather.gov/gridpoints/OKX/34,43", "weather_source_label": "NWS / weather.gov", "weather_point_url": "https://api.weather.gov/points/40.740761,-73.981672", "weather_updated_at": "2026-04-24T11:02:02+00:00", "weather_refreshed_at": "2026-04-24T15:30:38.535917-04:00", "weather_horizon_hours": 8, "weather_summary": "Feels-like temperature forecast used for the next 8 hours", "resolved_image_path": null, "image_provider": null, "image_source_url": null, "image_attribution_url": null, "image_author": null, "image_license": null, "image_capture_date": null, "image_distance_m": null, "image_fetch_status": "no nearby public image found", "image_available": false, "image_path": null, "visible_tree_ratio": null, "open_sky_ratio": null, "shelter_image_estimate": null, "shelter_image_confidence": null, "bench_image_estimate": null, "bench_image_confidence": null, "vision_method": null, "vision_error": "image unavailable", "route_rank": 14, "corridor_name": "New York City M102 direction 0", "corridor_id": "m102__dir_0", "shelter_present_effective": false, "bench_present_effective": true, "combined_tree_cover_score": 0.66666666666666663, "no_shelter_value": 1.0, "no_bench_value": 0.0, "low_tree_cover_value": 0.33333333333333337, "heat_burden_value": 0.0, "wait_burden_value": 0.279, "priority_score": 47.52, "normalized_priority_score": 65.06, "score_breakdown_json": { "no_shelter": { "label": "no shelter", "value": 1.0, "weight": 0.35, "score": 35.0 }, "low_tree_cover": { "label": "low tree cover", "value": 0.333, "weight": 0.25, "score": 8.33 }, "heat_burden": { "label": "high heat burden", "value": 0.0, "weight": 0.15, "score": 0.0 }, "wait_burden": { "label": "long scheduled wait exposure", "value": 0.279, "weight": 0.15, "score": 4.19 }, "no_bench": { "label": "nearby seating gap", "value": 0.0, "weight": 0.1, "score": 0.0 } }, "top_contributors": "no shelter, low tree cover, long scheduled wait exposure", "recommended_intervention": "Install a modular shade canopy.", "recommended_action_summary": "Shade canopy", "planner_note": "This stop is a high priority because it combines no shelter, low tree cover, and long scheduled wait exposure. The most practical near-term intervention is to install a modular shade canopy.", "planner_note_reason": "This stop is a high priority because it combines no shelter, low tree cover, and long scheduled wait exposure.", "planner_note_recommendation": "The most practical near-term intervention is to install a modular shade canopy.", "planner_note_urgency": "High", "planner_note_source": "Deterministic fallback" }, "geometry": { "type": "Point", "coordinates": [ -73.974122, 40.751085 ] } },
{ "type": "Feature", "properties": { "stop_id": "405061", "stop_sequence": 6, "stop_name": "3 AV/E 21 ST", "stop_lat": 40.737436, "stop_lon": -73.984124, "avg_headway_minutes": 10.58, "scheduled_departures_in_window": 34, "route_id": "M102", "route_short_name": "M102", "direction_id": 0, "trip_headsign": "HARLEM 147 ST via 3 AV via LENOX AV", "service_date": "2026-04-24", "wait_source": "MTA GTFS window 12:00:00-18:00:00", "has_shelter": false, "shelter_distance_ft": 658.6, "shelter_source": "NYC DOT Bus Stop Shelters", "has_nearby_seating": true, "seating_distance_ft": 50.6, "bench_source": "NYC DOT Seating Locations", "nearby_tree_count": 5, "nearby_tree_dbh_sum": 62.0, "tree_source": "NYC Street Tree Census", "weather_point_lat": 40.740761, "weather_point_lon": -73.981672, "weather_metric_used": "apparentTemperature", "weather_metric_display": "Feels-like temperature", "max_weather_value_f": 63.0, "heat_burden_score": 0.0, "weather_source": "https://api.weather.gov/gridpoints/OKX/34,43", "weather_source_label": "NWS / weather.gov", "weather_point_url": "https://api.weather.gov/points/40.740761,-73.981672", "weather_updated_at": "2026-04-24T11:02:02+00:00", "weather_refreshed_at": "2026-04-24T15:30:38.535917-04:00", "weather_horizon_hours": 8, "weather_summary": "Feels-like temperature forecast used for the next 8 hours", "resolved_image_path": null, "image_provider": null, "image_source_url": null, "image_attribution_url": null, "image_author": null, "image_license": null, "image_capture_date": null, "image_distance_m": null, "image_fetch_status": "no nearby public image found", "image_available": false, "image_path": null, "visible_tree_ratio": null, "open_sky_ratio": null, "shelter_image_estimate": null, "shelter_image_confidence": null, "bench_image_estimate": null, "bench_image_confidence": null, "vision_method": null, "vision_error": "image unavailable", "route_rank": 6, "corridor_name": "New York City M102 direction 0", "corridor_id": "m102__dir_0", "shelter_present_effective": false, "bench_present_effective": true, "combined_tree_cover_score": 0.83333333333333337, "no_shelter_value": 1.0, "no_bench_value": 0.0, "low_tree_cover_value": 0.16666666666666663, "heat_burden_value": 0.0, "wait_burden_value": 0.279, "priority_score": 43.36, "normalized_priority_score": 56.94, "score_breakdown_json": { "no_shelter": { "label": "no shelter", "value": 1.0, "weight": 0.35, "score": 35.0 }, "low_tree_cover": { "label": "low tree cover", "value": 0.167, "weight": 0.25, "score": 4.17 }, "heat_burden": { "label": "high heat burden", "value": 0.0, "weight": 0.15, "score": 0.0 }, "wait_burden": { "label": "long scheduled wait exposure", "value": 0.279, "weight": 0.15, "score": 4.19 }, "no_bench": { "label": "nearby seating gap", "value": 0.0, "weight": 0.1, "score": 0.0 } }, "top_contributors": "no shelter, long scheduled wait exposure, low tree cover", "recommended_intervention": "Install a modular shade canopy.", "recommended_action_summary": "Shade canopy", "planner_note": "This stop is a medium priority because it combines no shelter, long scheduled wait exposure, and low tree cover. The most practical near-term intervention is to install a modular shade canopy.", "planner_note_reason": "This stop is a medium priority because it combines no shelter, long scheduled wait exposure, and low tree cover.", "planner_note_recommendation": "The most practical near-term intervention is to install a modular shade canopy.", "planner_note_urgency": "Medium", "planner_note_source": "Deterministic fallback" }, "geometry": { "type": "Point", "coordinates": [ -73.984124, 40.737436 ] } },
{ "type": "Feature", "properties": { "stop_id": "403526", "stop_sequence": 3, "stop_name": "3 AV/E 11 ST", "stop_lat": 40.73168, "stop_lon": -73.988278, "avg_headway_minutes": 10.58, "scheduled_departures_in_window": 34, "route_id": "M102", "route_short_name": "M102", "direction_id": 0, "trip_headsign": "HARLEM 147 ST via 3 AV via LENOX AV", "service_date": "2026-04-24", "wait_source": "MTA GTFS window 12:00:00-18:00:00", "has_shelter": false, "shelter_distance_ft": 523.4, "shelter_source": "NYC DOT Bus Stop Shelters", "has_nearby_seating": true, "seating_distance_ft": 49.3, "bench_source": "NYC DOT Seating Locations", "nearby_tree_count": 6, "nearby_tree_dbh_sum": 38.0, "tree_source": "NYC Street Tree Census", "weather_point_lat": 40.740761, "weather_point_lon": -73.981672, "weather_metric_used": "apparentTemperature", "weather_metric_display": "Feels-like temperature", "max_weather_value_f": 63.0, "heat_burden_score": 0.0, "weather_source": "https://api.weather.gov/gridpoints/OKX/34,43", "weather_source_label": "NWS / weather.gov", "weather_point_url": "https://api.weather.gov/points/40.740761,-73.981672", "weather_updated_at": "2026-04-24T11:02:02+00:00", "weather_refreshed_at": "2026-04-24T15:30:38.535917-04:00", "weather_horizon_hours": 8, "weather_summary": "Feels-like temperature forecast used for the next 8 hours", "resolved_image_path": null, "image_provider": null, "image_source_url": null, "image_attribution_url": null, "image_author": null, "image_license": null, "image_capture_date": null, "image_distance_m": null, "image_fetch_status": "no nearby public image found", "image_available": false, "image_path": null, "visible_tree_ratio": null, "open_sky_ratio": null, "shelter_image_estimate": null, "shelter_image_confidence": null, "bench_image_estimate": null, "bench_image_confidence": null, "vision_method": null, "vision_error": "image unavailable", "route_rank": 3, "corridor_name": "New York City M102 direction 0", "corridor_id": "m102__dir_0", "shelter_present_effective": false, "bench_present_effective": true, "combined_tree_cover_score": 1.0, "no_shelter_value": 1.0, "no_bench_value": 0.0, "low_tree_cover_value": 0.0, "heat_burden_value": 0.0, "wait_burden_value": 0.279, "priority_score": 39.19, "normalized_priority_score": 48.8, "score_breakdown_json": { "no_shelter": { "label": "no shelter", "value": 1.0, "weight": 0.35, "score": 35.0 }, "low_tree_cover": { "label": "low tree cover", "value": 0.0, "weight": 0.25, "score": 0.0 }, "heat_burden": { "label": "high heat burden", "value": 0.0, "weight": 0.15, "score": 0.0 }, "wait_burden": { "label": "long scheduled wait exposure", "value": 0.279, "weight": 0.15, "score": 4.19 }, "no_bench": { "label": "nearby seating gap", "value": 0.0, "weight": 0.1, "score": 0.0 } }, "top_contributors": "no shelter, long scheduled wait exposure", "recommended_intervention": "Install a modular shade canopy.", "recommended_action_summary": "Shade canopy", "planner_note": "This stop is a medium priority because it combines no shelter and long scheduled wait exposure. The most practical near-term intervention is to install a modular shade canopy.", "planner_note_reason": "This stop is a medium priority because it combines no shelter and long scheduled wait exposure.", "planner_note_recommendation": "The most practical near-term intervention is to install a modular shade canopy.", "planner_note_urgency": "Medium", "planner_note_source": "Deterministic fallback" }, "geometry": { "type": "Point", "coordinates": [ -73.988278, 40.73168 ] } },
{ "type": "Feature", "properties": { "stop_id": "402674", "stop_sequence": 9, "stop_name": "3 AV/E 29 ST", "stop_lat": 40.742894, "stop_lon": -73.980105, "avg_headway_minutes": 10.58, "scheduled_departures_in_window": 34, "route_id": "M102", "route_short_name": "M102", "direction_id": 0, "trip_headsign": "HARLEM 147 ST via 3 AV via LENOX AV", "service_date": "2026-04-24", "wait_source": "MTA GTFS window 12:00:00-18:00:00", "has_shelter": true, "shelter_distance_ft": 26.4, "shelter_source": "NYC DOT Bus Stop Shelters", "has_nearby_seating": false, "seating_distance_ft": 309.6, "bench_source": "NYC DOT Seating Locations", "nearby_tree_count": 5, "nearby_tree_dbh_sum": 43.0, "tree_source": "NYC Street Tree Census", "weather_point_lat": 40.740761, "weather_point_lon": -73.981672, "weather_metric_used": "apparentTemperature", "weather_metric_display": "Feels-like temperature", "max_weather_value_f": 63.0, "heat_burden_score": 0.0, "weather_source": "https://api.weather.gov/gridpoints/OKX/34,43", "weather_source_label": "NWS / weather.gov", "weather_point_url": "https://api.weather.gov/points/40.740761,-73.981672", "weather_updated_at": "2026-04-24T11:02:02+00:00", "weather_refreshed_at": "2026-04-24T15:30:38.535917-04:00", "weather_horizon_hours": 8, "weather_summary": "Feels-like temperature forecast used for the next 8 hours", "resolved_image_path": "/home/rithwik_amajala/code4city/data/raw/stop_images/mapillary_402674.jpg", "image_provider": "Mapillary", "image_source_url": "https://scontent-lga3-1.xx.fbcdn.net/m1/v/t6/An-xqIAxH2MqC7TULAybM5nA4vV6DIcHKYPmkfJI-DCdbSR9dvyNBDAIEzVKtFVBS05_syJ3wPSHeDoqb5nWFh7-Q6PyJHGzMt9yBGz4om0l0pDrDhF-1MAKH-ctsfewXio9FXGiA2ENufdHKUu8Jw?stp=s1024x576&edm=ALXxkZ8EAAAA&_nc_gid=2mcFNpaxqjJy-e3PhqbRWw&_nc_oc=AdoMVNvgw-wrLlz0BNaI3P7LMbUaR6sVsxmCmueL1iW2mVFI2uCUB7Br8wZBtfgrKvY&ccb=10-5&oh=00_Af2tO4TMasRRzCHtqCh2B2k2O0uPZK87Xf8yZnNwABtzbw&oe=6A13493E&_nc_sid=201bca", "image_attribution_url": "https://www.mapillary.com/app/?pKey=168780861745540", "image_author": "lvl5", "image_license": "Mapillary Terms of Use", "image_capture_date": "2018-08-05", "image_distance_m": 30.1, "image_fetch_status": "downloaded public image", "image_available": true, "image_path": "/home/rithwik_amajala/code4city/data/raw/stop_images/mapillary_402674.jpg", "visible_tree_ratio": 0.127, "open_sky_ratio": 0.398, "shelter_image_estimate": "True", "shelter_image_confidence": 1.0, "bench_image_estimate": "True", "bench_image_confidence": 1.0, "vision_method": "OpenCV color-mask and edge-line heuristics", "vision_error": null, "route_rank": 9, "corridor_name": "New York City M102 direction 0", "corridor_id": "m102__dir_0", "shelter_present_effective": true, "bench_present_effective": false, "combined_tree_cover_score": 0.48016666666666669, "no_shelter_value": 0.0, "no_bench_value": 1.0, "low_tree_cover_value": 0.51983333333333337, "heat_burden_value": 0.0, "wait_burden_value": 0.279, "priority_score": 27.19, "normalized_priority_score": 25.38, "score_breakdown_json": { "no_shelter": { "label": "no shelter", "value": 0.0, "weight": 0.35, "score": 0.0 }, "low_tree_cover": { "label": "low tree cover", "value": 0.52, "weight": 0.25, "score": 13.0 }, "heat_burden": { "label": "high heat burden", "value": 0.0, "weight": 0.15, "score": 0.0 }, "wait_burden": { "label": "long scheduled wait exposure", "value": 0.279, "weight": 0.15, "score": 4.19 }, "no_bench": { "label": "nearby seating gap", "value": 1.0, "weight": 0.1, "score": 10.0 } }, "top_contributors": "low tree cover, nearby seating gap, long scheduled wait exposure", "recommended_intervention": "Add seating.", "recommended_action_summary": "Add seating", "planner_note": "This stop is a low priority because it combines low tree cover, nearby seating gap, and long scheduled wait exposure. The most practical near-term intervention is to add seating.", "planner_note_reason": "This stop is a low priority because it combines low tree cover, nearby seating gap, and long scheduled wait exposure.", "planner_note_recommendation": "The most practical near-term intervention is to add seating.", "planner_note_urgency": "Low", "planner_note_source": "Deterministic fallback" }, "geometry": { "type": "Point", "coordinates": [ -73.980105, 40.742894 ] } },
{ "type": "Feature", "properties": { "stop_id": "402670", "stop_sequence": 5, "stop_name": "3 AV/E 17 ST", "stop_lat": 40.735511, "stop_lon": -73.985465, "avg_headway_minutes": 10.58, "scheduled_departures_in_window": 34, "route_id": "M102", "route_short_name": "M102", "direction_id": 0, "trip_headsign": "HARLEM 147 ST via 3 AV via LENOX AV", "service_date": "2026-04-24", "wait_source": "MTA GTFS window 12:00:00-18:00:00", "has_shelter": true, "shelter_distance_ft": 30.0, "shelter_source": "NYC DOT Bus Stop Shelters", "has_nearby_seating": false, "seating_distance_ft": 555.2, "bench_source": "NYC DOT Seating Locations", "nearby_tree_count": 7, "nearby_tree_dbh_sum": 72.0, "tree_source": "NYC Street Tree Census", "weather_point_lat": 40.740761, "weather_point_lon": -73.981672, "weather_metric_used": "apparentTemperature", "weather_metric_display": "Feels-like temperature", "max_weather_value_f": 63.0, "heat_burden_score": 0.0, "weather_source": "https://api.weather.gov/gridpoints/OKX/34,43", "weather_source_label": "NWS / weather.gov", "weather_point_url": "https://api.weather.gov/points/40.740761,-73.981672", "weather_updated_at": "2026-04-24T11:02:02+00:00", "weather_refreshed_at": "2026-04-24T15:30:38.535917-04:00", "weather_horizon_hours": 8, "weather_summary": "Feels-like temperature forecast used for the next 8 hours", "resolved_image_path": "/home/rithwik_amajala/code4city/data/raw/stop_images/mapillary_402670.jpg", "image_provider": "Mapillary", "image_source_url": "https://scontent-lga3-1.xx.fbcdn.net/m1/v/t6/An-B5dZeJ003x3J2A_3QxnwbbhlxKiRpQgbRP9qtNN7vyyhpqs3ncxvOMG7fDoT0qmUm3GhHy8ryu9BREz9VOwNGw595vZBMVe7q2VLV9E_JmfjA8bg2nndGFHxd9HTEizJP8TCP2PslYHy2IxhTtg?stp=s1024x512&edm=ALXxkZ8EAAAA&_nc_gid=sZJXLG3xKaDsdlHjL0BPew&_nc_oc=AdqwVpPMTerabAJ_wTK4h1mIyjMDEUjXpdQQLE4RQnuYMOEuqmeMBQ9va0ZYt8e7OqI&ccb=10-5&oh=00_Af0QfGsi39RRNZ57YAUiHUFBZIuqtYZIQWg0WVr7wsiGfA&oe=6A132DD3&_nc_sid=201bca", "image_attribution_url": "https://www.mapillary.com/app/?pKey=1461358795501076", "image_author": "jlin4529", "image_license": "Mapillary Terms of Use", "image_capture_date": "2026-03-02", "image_distance_m": 35.0, "image_fetch_status": "downloaded public image", "image_available": true, "image_path": "/home/rithwik_amajala/code4city/data/raw/stop_images/mapillary_402670.jpg", "visible_tree_ratio": 0.045, "open_sky_ratio": 0.712, "shelter_image_estimate": "False", "shelter_image_confidence": 0.017, "bench_image_estimate": "False", "bench_image_confidence": 0.2, "vision_method": "OpenCV color-mask and edge-line heuristics", "vision_error": null, "route_rank": 5, "corridor_name": "New York City M102 direction 0", "corridor_id": "m102__dir_0", "shelter_present_effective": true, "bench_present_effective": false, "combined_tree_cover_score": 0.5225, "no_shelter_value": 0.0, "no_bench_value": 1.0, "low_tree_cover_value": 0.4775, "heat_burden_value": 0.0, "wait_burden_value": 0.279, "priority_score": 26.13, "normalized_priority_score": 23.31, "score_breakdown_json": { "no_shelter": { "label": "no shelter", "value": 0.0, "weight": 0.35, "score": 0.0 }, "low_tree_cover": { "label": "low tree cover", "value": 0.478, "weight": 0.25, "score": 11.94 }, "heat_burden": { "label": "high heat burden", "value": 0.0, "weight": 0.15, "score": 0.0 }, "wait_burden": { "label": "long scheduled wait exposure", "value": 0.279, "weight": 0.15, "score": 4.19 }, "no_bench": { "label": "nearby seating gap", "value": 1.0, "weight": 0.1, "score": 10.0 } }, "top_contributors": "low tree cover, nearby seating gap, long scheduled wait exposure", "recommended_intervention": "Add seating.", "recommended_action_summary": "Add seating", "planner_note": "This stop is a low priority because it combines low tree cover, nearby seating gap, and long scheduled wait exposure. The most practical near-term intervention is to add seating.", "planner_note_reason": "This stop is a low priority because it combines low tree cover, nearby seating gap, and long scheduled wait exposure.", "planner_note_recommendation": "The most practical near-term intervention is to add seating.", "planner_note_urgency": "Low", "planner_note_source": "Deterministic fallback" }, "geometry": { "type": "Point", "coordinates": [ -73.985465, 40.735511 ] } },
{ "type": "Feature", "properties": { "stop_id": "402680", "stop_sequence": 15, "stop_name": "3 AV/E 45 ST", "stop_lat": 40.752407, "stop_lon": -73.973161, "avg_headway_minutes": 10.58, "scheduled_departures_in_window": 34, "route_id": "M102", "route_short_name": "M102", "direction_id": 0, "trip_headsign": "HARLEM 147 ST via 3 AV via LENOX AV", "service_date": "2026-04-24", "wait_source": "MTA GTFS window 12:00:00-18:00:00", "has_shelter": true, "shelter_distance_ft": 28.2, "shelter_source": "NYC DOT Bus Stop Shelters", "has_nearby_seating": false, "seating_distance_ft": 550.3, "bench_source": "NYC DOT Seating Locations", "nearby_tree_count": 6, "nearby_tree_dbh_sum": 40.0, "tree_source": "NYC Street Tree Census", "weather_point_lat": 40.740761, "weather_point_lon": -73.981672, "weather_metric_used": "apparentTemperature", "weather_metric_display": "Feels-like temperature", "max_weather_value_f": 63.0, "heat_burden_score": 0.0, "weather_source": "https://api.weather.gov/gridpoints/OKX/34,43", "weather_source_label": "NWS / weather.gov", "weather_point_url": "https://api.weather.gov/points/40.740761,-73.981672", "weather_updated_at": "2026-04-24T11:02:02+00:00", "weather_refreshed_at": "2026-04-24T15:30:38.535917-04:00", "weather_horizon_hours": 8, "weather_summary": "Feels-like temperature forecast used for the next 8 hours", "resolved_image_path": "/home/rithwik_amajala/code4city/data/raw/stop_images/mapillary_402680.jpg", "image_provider": "Mapillary", "image_source_url": "https://scontent-lga3-1.xx.fbcdn.net/m1/v/t6/An_irKhotYbt40QvtJ6g0BLnAitH8ORxpWj83_u7x_M_H6NEpsAHkyvQP_K9am-biIZgvT_lYoiVQHcZIK-DLW0FqS5-N2S6aOkAkaqxDTri5gYnO8v5TIA1vuJq7CsEHnmMGzXVox8E-4Ny6F90XA?stp=s1024x768&edm=ALXxkZ8EAAAA&_nc_gid=LtjMLIsfDL9MftzBmFT9Nw&_nc_oc=Adp7IeKFthm06KTNI2BKgfvKm2vdAgtRN2KeIMIZRBD3nE-Ng5HPi5eIEd0Zi277HFY&ccb=10-6&oh=00_Af3M0vFZ3UmcacKQwPt-uDrwjjD8PCAHoVV-VqlQseIuQQ&oe=6A134CBE&_nc_sid=201bca", "image_attribution_url": "https://www.mapillary.com/app/?pKey=1410976565930632", "image_author": "smeginald", "image_license": "Mapillary Terms of Use", "image_capture_date": "2020-05-09", "image_distance_m": 27.7, "image_fetch_status": "downloaded public image", "image_available": true, "image_path": "/home/rithwik_amajala/code4city/data/raw/stop_images/mapillary_402680.jpg", "visible_tree_ratio": 0.086, "open_sky_ratio": 0.551, "shelter_image_estimate": "False", "shelter_image_confidence": 0.364, "bench_image_estimate": "False", "bench_image_confidence": 0.0, "vision_method": "OpenCV color-mask and edge-line heuristics", "vision_error": null, "route_rank": 15, "corridor_name": "New York City M102 direction 0", "corridor_id": "m102__dir_0", "shelter_present_effective": true, "bench_present_effective": false, "combined_tree_cover_score": 0.543, "no_shelter_value": 0.0, "no_bench_value": 1.0, "low_tree_cover_value": 0.457, "heat_burden_value": 0.0, "wait_burden_value": 0.279, "priority_score": 25.61, "normalized_priority_score": 22.29, "score_breakdown_json": { "no_shelter": { "label": "no shelter", "value": 0.0, "weight": 0.35, "score": 0.0 }, "low_tree_cover": { "label": "low tree cover", "value": 0.457, "weight": 0.25, "score": 11.42 }, "heat_burden": { "label": "high heat burden", "value": 0.0, "weight": 0.15, "score": 0.0 }, "wait_burden": { "label": "long scheduled wait exposure", "value": 0.279, "weight": 0.15, "score": 4.19 }, "no_bench": { "label": "nearby seating gap", "value": 1.0, "weight": 0.1, "score": 10.0 } }, "top_contributors": "low tree cover, nearby seating gap, long scheduled wait exposure", "recommended_intervention": "Add seating.", "recommended_action_summary": "Add seating", "planner_note": "This stop is a low priority because it combines low tree cover, nearby seating gap, and long scheduled wait exposure. The most practical near-term intervention is to add seating.", "planner_note_reason": "This stop is a low priority because it combines low tree cover, nearby seating gap, and long scheduled wait exposure.", "planner_note_recommendation": "The most practical near-term intervention is to add seating.", "planner_note_urgency": "Low", "planner_note_source": "Deterministic fallback" }, "geometry": { "type": "Point", "coordinates": [ -73.973161, 40.752407 ] } },
{ "type": "Feature", "properties": { "stop_id": "403913", "stop_sequence": 4, "stop_name": "3 AV/E 14 ST", "stop_lat": 40.733689, "stop_lon": -73.986787, "avg_headway_minutes": 10.58, "scheduled_departures_in_window": 34, "route_id": "M102", "route_short_name": "M102", "direction_id": 0, "trip_headsign": "HARLEM 147 ST via 3 AV via LENOX AV", "service_date": "2026-04-24", "wait_source": "MTA GTFS window 12:00:00-18:00:00", "has_shelter": true, "shelter_distance_ft": 25.1, "shelter_source": "NYC DOT Bus Stop Shelters", "has_nearby_seating": false, "seating_distance_ft": 522.5, "bench_source": "NYC DOT Seating Locations", "nearby_tree_count": 7, "nearby_tree_dbh_sum": 51.0, "tree_source": "NYC Street Tree Census", "weather_point_lat": 40.740761, "weather_point_lon": -73.981672, "weather_metric_used": "apparentTemperature", "weather_metric_display": "Feels-like temperature", "max_weather_value_f": 63.0, "heat_burden_score": 0.0, "weather_source": "https://api.weather.gov/gridpoints/OKX/34,43", "weather_source_label": "NWS / weather.gov", "weather_point_url": "https://api.weather.gov/points/40.740761,-73.981672", "weather_updated_at": "2026-04-24T11:02:02+00:00", "weather_refreshed_at": "2026-04-24T15:30:38.535917-04:00", "weather_horizon_hours": 8, "weather_summary": "Feels-like temperature forecast used for the next 8 hours", "resolved_image_path": null, "image_provider": null, "image_source_url": null, "image_attribution_url": null, "image_author": null, "image_license": null, "image_capture_date": null, "image_distance_m": null, "image_fetch_status": "no nearby public image found", "image_available": false, "image_path": null, "visible_tree_ratio": null, "open_sky_ratio": null, "shelter_image_estimate": null, "shelter_image_confidence": null, "bench_image_estimate": null, "bench_image_confidence": null, "vision_method": null, "vision_error": "image unavailable", "route_rank": 4, "corridor_name": "New York City M102 direction 0", "corridor_id": "m102__dir_0", "shelter_present_effective": true, "bench_present_effective": false, "combined_tree_cover_score": 1.0, "no_shelter_value": 0.0, "no_bench_value": 1.0, "low_tree_cover_value": 0.0, "heat_burden_value": 0.0, "wait_burden_value": 0.279, "priority_score": 14.19, "normalized_priority_score": 0.0, "score_breakdown_json": { "no_shelter": { "label": "no shelter", "value": 0.0, "weight": 0.35, "score": 0.0 }, "low_tree_cover": { "label": "low tree cover", "value": 0.0, "weight": 0.25, "score": 0.0 }, "heat_burden": { "label": "high heat burden", "value": 0.0, "weight": 0.15, "score": 0.0 }, "wait_burden": { "label": "long scheduled wait exposure", "value": 0.279, "weight": 0.15, "score": 4.19 }, "no_bench": { "label": "nearby seating gap", "value": 1.0, "weight": 0.1, "score": 10.0 } }, "top_contributors": "nearby seating gap, long scheduled wait exposure", "recommended_intervention": "Add seating.", "recommended_action_summary": "Add seating", "planner_note": "This stop is a low priority because it combines nearby seating gap and long scheduled wait exposure. The most practical near-term intervention is to add seating.", "planner_note_reason": "This stop is a low priority because it combines nearby seating gap and long scheduled wait exposure.", "planner_note_recommendation": "The most practical near-term intervention is to add seating.", "planner_note_urgency": "Low", "planner_note_source": "Deterministic fallback" }, "geometry": { "type": "Point", "coordinates": [ -73.986787, 40.733689 ] } },
{ "type": "Feature", "properties": { "stop_id": "402677", "stop_sequence": 12, "stop_name": "3 AV/E 37 ST", "stop_lat": 40.747988, "stop_lon": -73.97637, "avg_headway_minutes": 10.58, "scheduled_departures_in_window": 34, "route_id": "M102", "route_short_name": "M102", "direction_id": 0, "trip_headsign": "HARLEM 147 ST via 3 AV via LENOX AV", "service_date": "2026-04-24", "wait_source": "MTA GTFS window 12:00:00-18:00:00", "has_shelter": true, "shelter_distance_ft": 31.0, "shelter_source": "NYC DOT Bus Stop Shelters", "has_nearby_seating": false, "seating_distance_ft": 477.9, "bench_source": "NYC DOT Seating Locations", "nearby_tree_count": 9, "nearby_tree_dbh_sum": 74.0, "tree_source": "NYC Street Tree Census", "weather_point_lat": 40.740761, "weather_point_lon": -73.981672, "weather_metric_used": "apparentTemperature", "weather_metric_display": "Feels-like temperature", "max_weather_value_f": 63.0, "heat_burden_score": 0.0, "weather_source": "https://api.weather.gov/gridpoints/OKX/34,43", "weather_source_label": "NWS / weather.gov", "weather_point_url": "https://api.weather.gov/points/40.740761,-73.981672", "weather_updated_at": "2026-04-24T11:02:02+00:00", "weather_refreshed_at": "2026-04-24T15:30:38.535917-04:00", "weather_horizon_hours": 8, "weather_summary": "Feels-like temperature forecast used for the next 8 hours", "resolved_image_path": null, "image_provider": null, "image_source_url": null, "image_attribution_url": null, "image_author": null, "image_license": null, "image_capture_date": null, "image_distance_m": null, "image_fetch_status": "no nearby public image found", "image_available": false, "image_path": null, "visible_tree_ratio": null, "open_sky_ratio": null, "shelter_image_estimate": null, "shelter_image_confidence": null, "bench_image_estimate": null, "bench_image_confidence": null, "vision_method": null, "vision_error": "image unavailable", "route_rank": 12, "corridor_name": "New York City M102 direction 0", "corridor_id": "m102__dir_0", "shelter_present_effective": true, "bench_present_effective": false, "combined_tree_cover_score": 1.0, "no_shelter_value": 0.0, "no_bench_value": 1.0, "low_tree_cover_value": 0.0, "heat_burden_value": 0.0, "wait_burden_value": 0.279, "priority_score": 14.19, "normalized_priority_score": 0.0, "score_breakdown_json": { "no_shelter": { "label": "no shelter", "value": 0.0, "weight": 0.35, "score": 0.0 }, "low_tree_cover": { "label": "low tree cover", "value": 0.0, "weight": 0.25, "score": 0.0 }, "heat_burden": { "label": "high heat burden", "value": 0.0, "weight": 0.15, "score": 0.0 }, "wait_burden": { "label": "long scheduled wait exposure", "value": 0.279, "weight": 0.15, "score": 4.19 }, "no_bench": { "label": "nearby seating gap", "value": 1.0, "weight": 0.1, "score": 10.0 } }, "top_contributors": "nearby seating gap, long scheduled wait exposure", "recommended_intervention": "Add seating.", "recommended_action_summary": "Add seating", "planner_note": "This stop is a low priority because it combines nearby seating gap and long scheduled wait exposure. The most practical near-term intervention is to add seating.", "planner_note_reason": "This stop is a low priority because it combines nearby seating gap and long scheduled wait exposure.", "planner_note_recommendation": "The most practical near-term intervention is to add seating.", "planner_note_urgency": "Low", "planner_note_source": "Deterministic fallback" }, "geometry": { "type": "Point", "coordinates": [ -73.97637, 40.747988 ] } }
]
}
