{
"type": "FeatureCollection",
"name": "stops_scored",
"crs": { "type": "name", "properties": { "name": "urn:ogc:def:crs:OGC:1.3:CRS84" } },
"features": [
{ "type": "Feature", "properties": { "stop_id": "401577", "stop_sequence": 6, "stop_name": "W 14 ST/6 AV", "stop_lat": 40.737093, "stop_lon": -73.996431, "avg_headway_minutes": 5.72, "scheduled_departures_in_window": 63, "route_id": "M14D+", "route_short_name": "M14D-SBS", "direction_id": 0, "trip_headsign": "SELECT BUS LES DELANCEY-FDR via 14 ST", "service_date": "2026-04-24", "wait_source": "MTA GTFS window 12:00:00-18:00:00", "has_shelter": false, "shelter_distance_ft": 922.7, "shelter_source": "NYC DOT Bus Stop Shelters", "has_nearby_seating": false, "seating_distance_ft": 334.8, "bench_source": "NYC DOT Seating Locations", "nearby_tree_count": 0, "nearby_tree_dbh_sum": 0.0, "tree_source": "NYC Street Tree Census", "weather_point_lat": 40.734914, "weather_point_lon": -73.990548, "weather_metric_used": "apparentTemperature", "weather_metric_display": "Feels-like temperature", "max_weather_value_f": 63.0, "heat_burden_score": 0.0, "weather_source": "https://api.weather.gov/gridpoints/OKX/34,43", "weather_source_label": "NWS / weather.gov", "weather_point_url": "https://api.weather.gov/points/40.734914,-73.990548", "weather_updated_at": "2026-04-24T11:02:02+00:00", "weather_refreshed_at": "2026-04-24T15:31:43.838772-04:00", "weather_horizon_hours": 8, "weather_summary": "Feels-like temperature forecast used for the next 8 hours", "resolved_image_path": "/home/rithwik_amajala/code4city/data/raw/stop_images/mapillary_401577.jpg", "image_provider": "Mapillary", "image_source_url": "https://scontent-lga3-1.xx.fbcdn.net/m1/v/t6/An-HNJ5cUhiq4kYGsuz4Adx8rw1OAhMD1YrEP1pNZHmTJproXEEDSH1cnhy73hVabt9P3DBu5jfdpdMaQqmgnrmtwwzQD__JozdztwN8pEM-8VdZ8AtCcti3Ccf0pacuOycKKg9SfhwS8dP8mDaPTNU?stp=s1024x512&edm=ALXxkZ8EAAAA&_nc_gid=vz0m0FYbM3UcA6DG1RWjZQ&_nc_oc=Adoyspk3djJJobYByziXUZDCLWZCs3HKhRqWYTEw2FjUNW0Xbeu417UzIMQ4E3vScCg&ccb=10-5&oh=00_Af1ZvgeOs_Zr3kfKc5tdQYQ30pugpt36V_O8LrD8LW8OBA&oe=6A134870&_nc_sid=201bca", "image_attribution_url": "https://www.mapillary.com/app/?pKey=1571668304070857", "image_author": "jlin4529", "image_license": "Mapillary Terms of Use", "image_capture_date": "2026-02-19", "image_distance_m": 27.0, "image_fetch_status": "downloaded public image", "image_available": true, "image_path": "/home/rithwik_amajala/code4city/data/raw/stop_images/mapillary_401577.jpg", "visible_tree_ratio": 0.041, "open_sky_ratio": 0.466, "shelter_image_estimate": "False", "shelter_image_confidence": 0.403, "bench_image_estimate": "False", "bench_image_confidence": 0.4, "vision_method": "OpenCV color-mask and edge-line heuristics", "vision_error": null, "route_rank": 6, "corridor_name": "New York City M14D-SBS direction 0", "corridor_id": "m14d_sbs__dir_0", "shelter_present_effective": false, "bench_present_effective": false, "combined_tree_cover_score": 0.0205, "no_shelter_value": 1.0, "no_bench_value": 1.0, "low_tree_cover_value": 0.9795, "heat_burden_value": 0.0, "wait_burden_value": 0.036, "priority_score": 70.03, "normalized_priority_score": 100.0, "score_breakdown_json": { "no_shelter": { "label": "no shelter", "value": 1.0, "weight": 0.35, "score": 35.0 }, "low_tree_cover": { "label": "low tree cover", "value": 0.98, "weight": 0.25, "score": 24.49 }, "heat_burden": { "label": "high heat burden", "value": 0.0, "weight": 0.15, "score": 0.0 }, "wait_burden": { "label": "long scheduled wait exposure", "value": 0.036, "weight": 0.15, "score": 0.54 }, "no_bench": { "label": "nearby seating gap", "value": 1.0, "weight": 0.1, "score": 10.0 } }, "top_contributors": "no shelter, low tree cover, nearby seating gap", "recommended_intervention": "Install a modular shade canopy, add seating, increase tree cover near the curb.", "recommended_action_summary": "Shade canopy | Add seating | Increase tree cover", "planner_note": "This stop is a critical priority because it combines no shelter, low tree cover, and nearby seating gap. The most practical near-term intervention is to install a modular shade canopy, add seating, increase tree cover near the curb.", "planner_note_reason": "This stop is a critical priority because it combines no shelter, low tree cover, and nearby seating gap.", "planner_note_recommendation": "The most practical near-term intervention is to install a modular shade canopy, add seating, increase tree cover near the curb.", "planner_note_urgency": "Critical", "planner_note_source": "Deterministic fallback" }, "geometry": { "type": "Point", "coordinates": [ -73.996431, 40.737093 ] } },
{ "type": "Feature", "properties": { "stop_id": "401575", "stop_sequence": 4, "stop_name": "W 14 ST/8 AV", "stop_lat": 40.739621, "stop_lon": -74.002394, "avg_headway_minutes": 5.71, "scheduled_departures_in_window": 63, "route_id": "M14D+", "route_short_name": "M14D-SBS", "direction_id": 0, "trip_headsign": "SELECT BUS LES DELANCEY-FDR via 14 ST", "service_date": "2026-04-24", "wait_source": "MTA GTFS window 12:00:00-18:00:00", "has_shelter": false, "shelter_distance_ft": 204.9, "shelter_source": "NYC DOT Bus Stop Shelters", "has_nearby_seating": false, "seating_distance_ft": 823.6, "bench_source": "NYC DOT Seating Locations", "nearby_tree_count": 1, "nearby_tree_dbh_sum": 6.0, "tree_source": "NYC Street Tree Census", "weather_point_lat": 40.734914, "weather_point_lon": -73.990548, "weather_metric_used": "apparentTemperature", "weather_metric_display": "Feels-like temperature", "max_weather_value_f": 63.0, "heat_burden_score": 0.0, "weather_source": "https://api.weather.gov/gridpoints/OKX/34,43", "weather_source_label": "NWS / weather.gov", "weather_point_url": "https://api.weather.gov/points/40.734914,-73.990548", "weather_updated_at": "2026-04-24T11:02:02+00:00", "weather_refreshed_at": "2026-04-24T15:31:43.838772-04:00", "weather_horizon_hours": 8, "weather_summary": "Feels-like temperature forecast used for the next 8 hours", "resolved_image_path": "/home/rithwik_amajala/code4city/data/raw/stop_images/mapillary_401575.jpg", "image_provider": "Mapillary", "image_source_url": "https://scontent-lga3-1.xx.fbcdn.net/m1/v/t6/An9iy7pBuqTJkjzc7JCREswL7nSl8TOAYpVZkeI3rhOzlgXT74fcXqh7C9iNMQ4pvqLxCInKqBzRo3HvoZ2RX6-FuHzghwbvl8J5804KXEThIK3y7PjWLE7_rzZ11jibLFjdRMTntCgtZ2IDz3IqUUAB?stp=s1024x512&edm=ALXxkZ8EAAAA&_nc_gid=iKJvIqDp8miu3xCBMY7noA&_nc_oc=AdpGlc1ZrW9oO5qmlgMiBDzxN7_n-O3U6dUk6Zf40lOIpu60TnIc6W7ML1MkzQ-48gA&ccb=10-5&oh=00_Af1GabMCMoSdLs2JLUfaPNBKbZ_hpwGIF3NeXgv44WMJkg&oe=6A131D9F&_nc_sid=201bca", "image_attribution_url": "https://www.mapillary.com/app/?pKey=2643625782671899", "image_author": "jlin4529", "image_license": "Mapillary Terms of Use", "image_capture_date": "2026-02-19", "image_distance_m": 31.0, "image_fetch_status": "downloaded public image", "image_available": true, "image_path": "/home/rithwik_amajala/code4city/data/raw/stop_images/mapillary_401575.jpg", "visible_tree_ratio": 0.013, "open_sky_ratio": 0.43, "shelter_image_estimate": "False", "shelter_image_confidence": 0.144, "bench_image_estimate": "True", "bench_image_confidence": 1.0, "vision_method": "OpenCV color-mask and edge-line heuristics", "vision_error": null, "route_rank": 4, "corridor_name": "New York City M14D-SBS direction 0", "corridor_id": "m14d_sbs__dir_0", "shelter_present_effective": false, "bench_present_effective": false, "combined_tree_cover_score": 0.089833333333333334, "no_shelter_value": 1.0, "no_bench_value": 1.0, "low_tree_cover_value": 0.91016666666666668, "heat_burden_value": 0.0, "wait_burden_value": 0.0355, "priority_score": 68.28, "normalized_priority_score": 97.13, "score_breakdown_json": { "no_shelter": { "label": "no shelter", "value": 1.0, "weight": 0.35, "score": 35.0 }, "low_tree_cover": { "label": "low tree cover", "value": 0.91, "weight": 0.25, "score": 22.75 }, "heat_burden": { "label": "high heat burden", "value": 0.0, "weight": 0.15, "score": 0.0 }, "wait_burden": { "label": "long scheduled wait exposure", "value": 0.035, "weight": 0.15, "score": 0.53 }, "no_bench": { "label": "nearby seating gap", "value": 1.0, "weight": 0.1, "score": 10.0 } }, "top_contributors": "no shelter, low tree cover, nearby seating gap", "recommended_intervention": "Install a modular shade canopy, add seating, increase tree cover near the curb.", "recommended_action_summary": "Shade canopy | Add seating | Increase tree cover", "planner_note": "This stop is a critical priority because it combines no shelter, low tree cover, and nearby seating gap. The most practical near-term intervention is to install a modular shade canopy, add seating, increase tree cover near the curb.", "planner_note_reason": "This stop is a critical priority because it combines no shelter, low tree cover, and nearby seating gap.", "planner_note_recommendation": "The most practical near-term intervention is to install a modular shade canopy, add seating, increase tree cover near the curb.", "planner_note_urgency": "Critical", "planner_note_source": "Deterministic fallback" }, "geometry": { "type": "Point", "coordinates": [ -74.002394, 40.739621 ] } },
{ "type": "Feature", "properties": { "stop_id": "401587", "stop_sequence": 14, "stop_name": "E 14 ST/AVENUE C", "stop_lat": 40.728428, "stop_lon": -73.975827, "avg_headway_minutes": 5.73, "scheduled_departures_in_window": 63, "route_id": "M14D+", "route_short_name": "M14D-SBS", "direction_id": 0, "trip_headsign": "SELECT BUS LES DELANCEY-FDR via 14 ST", "service_date": "2026-04-24", "wait_source": "MTA GTFS window 12:00:00-18:00:00", "has_shelter": false, "shelter_distance_ft": 111.6, "shelter_source": "NYC DOT Bus Stop Shelters", "has_nearby_seating": false, "seating_distance_ft": 506.4, "bench_source": "NYC DOT Seating Locations", "nearby_tree_count": 2, "nearby_tree_dbh_sum": 3.0, "tree_source": "NYC Street Tree Census", "weather_point_lat": 40.734914, "weather_point_lon": -73.990548, "weather_metric_used": "apparentTemperature", "weather_metric_display": "Feels-like temperature", "max_weather_value_f": 63.0, "heat_burden_score": 0.0, "weather_source": "https://api.weather.gov/gridpoints/OKX/34,43", "weather_source_label": "NWS / weather.gov", "weather_point_url": "https://api.weather.gov/points/40.734914,-73.990548", "weather_updated_at": "2026-04-24T11:02:02+00:00", "weather_refreshed_at": "2026-04-24T15:31:43.838772-04:00", "weather_horizon_hours": 8, "weather_summary": "Feels-like temperature forecast used for the next 8 hours", "resolved_image_path": null, "image_provider": null, "image_source_url": null, "image_attribution_url": null, "image_author": null, "image_license": null, "image_capture_date": null, "image_distance_m": null, "image_fetch_status": "no nearby public image found", "image_available": false, "image_path": null, "visible_tree_ratio": null, "open_sky_ratio": null, "shelter_image_estimate": null, "shelter_image_confidence": null, "bench_image_estimate": null, "bench_image_confidence": null, "vision_method": null, "vision_error": "image unavailable", "route_rank": 14, "corridor_name": "New York City M14D-SBS direction 0", "corridor_id": "m14d_sbs__dir_0", "shelter_present_effective": false, "bench_present_effective": false, "combined_tree_cover_score": 0.33333333333333331, "no_shelter_value": 1.0, "no_bench_value": 1.0, "low_tree_cover_value": 0.66666666666666674, "heat_burden_value": 0.0, "wait_burden_value": 0.0365, "priority_score": 62.22, "normalized_priority_score": 87.19, "score_breakdown_json": { "no_shelter": { "label": "no shelter", "value": 1.0, "weight": 0.35, "score": 35.0 }, "low_tree_cover": { "label": "low tree cover", "value": 0.667, "weight": 0.25, "score": 16.67 }, "heat_burden": { "label": "high heat burden", "value": 0.0, "weight": 0.15, "score": 0.0 }, "wait_burden": { "label": "long scheduled wait exposure", "value": 0.037, "weight": 0.15, "score": 0.55 }, "no_bench": { "label": "nearby seating gap", "value": 1.0, "weight": 0.1, "score": 10.0 } }, "top_contributors": "no shelter, low tree cover, nearby seating gap", "recommended_intervention": "Install a modular shade canopy, add seating, increase tree cover near the curb.", "recommended_action_summary": "Shade canopy | Add seating | Increase tree cover", "planner_note": "This stop is a critical priority because it combines no shelter, low tree cover, and nearby seating gap. The most practical near-term intervention is to install a modular shade canopy, add seating, increase tree cover near the curb.", "planner_note_reason": "This stop is a critical priority because it combines no shelter, low tree cover, and nearby seating gap.", "planner_note_recommendation": "The most practical near-term intervention is to install a modular shade canopy, add seating, increase tree cover near the curb.", "planner_note_urgency": "Critical", "planner_note_source": "Deterministic fallback" }, "geometry": { "type": "Point", "coordinates": [ -73.975827, 40.728428 ] } },
{ "type": "Feature", "properties": { "stop_id": "401194", "stop_sequence": 12, "stop_name": "E 14 ST/AVENUE A", "stop_lat": 40.730404, "stop_lon": -73.980445, "avg_headway_minutes": 5.72, "scheduled_departures_in_window": 63, "route_id": "M14D+", "route_short_name": "M14D-SBS", "direction_id": 0, "trip_headsign": "SELECT BUS LES DELANCEY-FDR via 14 ST", "service_date": "2026-04-24", "wait_source": "MTA GTFS window 12:00:00-18:00:00", "has_shelter": false, "shelter_distance_ft": 83.4, "shelter_source": "NYC DOT Bus Stop Shelters", "has_nearby_seating": false, "seating_distance_ft": 101.5, "bench_source": "NYC DOT Seating Locations", "nearby_tree_count": 5, "nearby_tree_dbh_sum": 53.0, "tree_source": "NYC Street Tree Census", "weather_point_lat": 40.734914, "weather_point_lon": -73.990548, "weather_metric_used": "apparentTemperature", "weather_metric_display": "Feels-like temperature", "max_weather_value_f": 63.0, "heat_burden_score": 0.0, "weather_source": "https://api.weather.gov/gridpoints/OKX/34,43", "weather_source_label": "NWS / weather.gov", "weather_point_url": "https://api.weather.gov/points/40.734914,-73.990548", "weather_updated_at": "2026-04-24T11:02:02+00:00", "weather_refreshed_at": "2026-04-24T15:31:43.838772-04:00", "weather_horizon_hours": 8, "weather_summary": "Feels-like temperature forecast used for the next 8 hours", "resolved_image_path": "/home/rithwik_amajala/code4city/data/raw/stop_images/mapillary_401194.jpg", "image_provider": "Mapillary", "image_source_url": "https://scontent-lga3-1.xx.fbcdn.net/m1/v/t6/An-dIDPkP0Jgoo2NZaSkk5SaaLiVFjS2_m4A-O2V9Xmyy83LvCcYUZ_3DDDeK1UYQ7sEJWUZ9Mi8FjV45DN4VThhDCQhzH48oD9VuNI1zilioCeeBd7E_VeS7BWg8nmeWBChUSyDW3pikugVOjK9U4A?stp=s1024x512&edm=ALXxkZ8EAAAA&_nc_gid=g_hOf74_GREdiKyiFkyk3Q&_nc_oc=AdrNE9NZscgaz2FiquXf9livFcwxNuifIwcwGd_2hyRlqXbbm2-6QHC9MKswWiOinYc&ccb=10-5&oh=00_Af1n8u-Ozt29qKX7vCiRXmMMX8vrEDr-dqaILsC6nYcufw&oe=6A132207&_nc_sid=201bca", "image_attribution_url": "https://www.mapillary.com/app/?pKey=1270614471689512", "image_author": "jlin4529", "image_license": "Mapillary Terms of Use", "image_capture_date": "2026-02-03", "image_distance_m": 21.9, "image_fetch_status": "downloaded public image", "image_available": true, "image_path": "/home/rithwik_amajala/code4city/data/raw/stop_images/mapillary_401194.jpg", "visible_tree_ratio": 0.046, "open_sky_ratio": 0.547, "shelter_image_estimate": "False", "shelter_image_confidence": 0.091, "bench_image_estimate": "False", "bench_image_confidence": 0.0, "vision_method": "OpenCV color-mask and edge-line heuristics", "vision_error": null, "route_rank": 12, "corridor_name": "New York City M14D-SBS direction 0", "corridor_id": "m14d_sbs__dir_0", "shelter_present_effective": false, "bench_present_effective": false, "combined_tree_cover_score": 0.43966666666666671, "no_shelter_value": 1.0, "no_bench_value": 1.0, "low_tree_cover_value": 0.56033333333333335, "heat_burden_value": 0.0, "wait_burden_value": 0.036, "priority_score": 59.55, "normalized_priority_score": 82.82, "score_breakdown_json": { "no_shelter": { "label": "no shelter", "value": 1.0, "weight": 0.35, "score": 35.0 }, "low_tree_cover": { "label": "low tree cover", "value": 0.56, "weight": 0.25, "score": 14.01 }, "heat_burden": { "label": "high heat burden", "value": 0.0, "weight": 0.15, "score": 0.0 }, "wait_burden": { "label": "long scheduled wait exposure", "value": 0.036, "weight": 0.15, "score": 0.54 }, "no_bench": { "label": "nearby seating gap", "value": 1.0, "weight": 0.1, "score": 10.0 } }, "top_contributors": "no shelter, low tree cover, nearby seating gap", "recommended_intervention": "Install a modular shade canopy, add seating.", "recommended_action_summary": "Shade canopy | Add seating", "planner_note": "This stop is a high priority because it combines no shelter, low tree cover, and nearby seating gap. The most practical near-term intervention is to install a modular shade canopy, add seating.", "planner_note_reason": "This stop is a high priority because it combines no shelter, low tree cover, and nearby seating gap.", "planner_note_recommendation": "The most practical near-term intervention is to install a modular shade canopy, add seating.", "planner_note_urgency": "High", "planner_note_source": "Deterministic fallback" }, "geometry": { "type": "Point", "coordinates": [ -73.980445, 40.730404 ] } },
{ "type": "Feature", "properties": { "stop_id": "401191", "stop_sequence": 9, "stop_name": "E 14 ST/3 AV", "stop_lat": 40.733008, "stop_lon": -73.986729, "avg_headway_minutes": 5.72, "scheduled_departures_in_window": 63, "route_id": "M14D+", "route_short_name": "M14D-SBS", "direction_id": 0, "trip_headsign": "SELECT BUS LES DELANCEY-FDR via 14 ST", "service_date": "2026-04-24", "wait_source": "MTA GTFS window 12:00:00-18:00:00", "has_shelter": false, "shelter_distance_ft": 231.4, "shelter_source": "NYC DOT Bus Stop Shelters", "has_nearby_seating": false, "seating_distance_ft": 610.7, "bench_source": "NYC DOT Seating Locations", "nearby_tree_count": 3, "nearby_tree_dbh_sum": 39.0, "tree_source": "NYC Street Tree Census", "weather_point_lat": 40.734914, "weather_point_lon": -73.990548, "weather_metric_used": "apparentTemperature", "weather_metric_display": "Feels-like temperature", "max_weather_value_f": 63.0, "heat_burden_score": 0.0, "weather_source": "https://api.weather.gov/gridpoints/OKX/34,43", "weather_source_label": "NWS / weather.gov", "weather_point_url": "https://api.weather.gov/points/40.734914,-73.990548", "weather_updated_at": "2026-04-24T11:02:02+00:00", "weather_refreshed_at": "2026-04-24T15:31:43.838772-04:00", "weather_horizon_hours": 8, "weather_summary": "Feels-like temperature forecast used for the next 8 hours", "resolved_image_path": null, "image_provider": null, "image_source_url": null, "image_attribution_url": null, "image_author": null, "image_license": null, "image_capture_date": null, "image_distance_m": null, "image_fetch_status": "no nearby public image found", "image_available": false, "image_path": null, "visible_tree_ratio": null, "open_sky_ratio": null, "shelter_image_estimate": null, "shelter_image_confidence": null, "bench_image_estimate": null, "bench_image_confidence": null, "vision_method": null, "vision_error": "image unavailable", "route_rank": 9, "corridor_name": "New York City M14D-SBS direction 0", "corridor_id": "m14d_sbs__dir_0", "shelter_present_effective": false, "bench_present_effective": false, "combined_tree_cover_score": 0.5, "no_shelter_value": 1.0, "no_bench_value": 1.0, "low_tree_cover_value": 0.5, "heat_burden_value": 0.0, "wait_burden_value": 0.036, "priority_score": 58.04, "normalized_priority_score": 80.34, "score_breakdown_json": { "no_shelter": { "label": "no shelter", "value": 1.0, "weight": 0.35, "score": 35.0 }, "low_tree_cover": { "label": "low tree cover", "value": 0.5, "weight": 0.25, "score": 12.5 }, "heat_burden": { "label": "high heat burden", "value": 0.0, "weight": 0.15, "score": 0.0 }, "wait_burden": { "label": "long scheduled wait exposure", "value": 0.036, "weight": 0.15, "score": 0.54 }, "no_bench": { "label": "nearby seating gap", "value": 1.0, "weight": 0.1, "score": 10.0 } }, "top_contributors": "no shelter, low tree cover, nearby seating gap", "recommended_intervention": "Install a modular shade canopy, add seating.", "recommended_action_summary": "Shade canopy | Add seating", "planner_note": "This stop is a high priority because it combines no shelter, low tree cover, and nearby seating gap. The most practical near-term intervention is to install a modular shade canopy, add seating.", "planner_note_reason": "This stop is a high priority because it combines no shelter, low tree cover, and nearby seating gap.", "planner_note_recommendation": "The most practical near-term intervention is to install a modular shade canopy, add seating.", "planner_note_urgency": "High", "planner_note_source": "Deterministic fallback" }, "geometry": { "type": "Point", "coordinates": [ -73.986729, 40.733008 ] } },
{ "type": "Feature", "properties": { "stop_id": "405514", "stop_sequence": 1, "stop_name": "W 18 ST/10 AV", "stop_lat": 40.744354, "stop_lon": -74.006027, "avg_headway_minutes": 5.71, "scheduled_departures_in_window": 63, "route_id": "M14D+", "route_short_name": "M14D-SBS", "direction_id": 0, "trip_headsign": "SELECT BUS LES DELANCEY-FDR via 14 ST", "service_date": "2026-04-24", "wait_source": "MTA GTFS window 12:00:00-18:00:00", "has_shelter": false, "shelter_distance_ft": 387.8, "shelter_source": "NYC DOT Bus Stop Shelters", "has_nearby_seating": false, "seating_distance_ft": 397.9, "bench_source": "NYC DOT Seating Locations", "nearby_tree_count": 3, "nearby_tree_dbh_sum": 15.0, "tree_source": "NYC Street Tree Census", "weather_point_lat": 40.734914, "weather_point_lon": -73.990548, "weather_metric_used": "apparentTemperature", "weather_metric_display": "Feels-like temperature", "max_weather_value_f": 63.0, "heat_burden_score": 0.0, "weather_source": "https://api.weather.gov/gridpoints/OKX/34,43", "weather_source_label": "NWS / weather.gov", "weather_point_url": "https://api.weather.gov/points/40.734914,-73.990548", "weather_updated_at": "2026-04-24T11:02:02+00:00", "weather_refreshed_at": "2026-04-24T15:31:43.838772-04:00", "weather_horizon_hours": 8, "weather_summary": "Feels-like temperature forecast used for the next 8 hours", "resolved_image_path": null, "image_provider": null, "image_source_url": null, "image_attribution_url": null, "image_author": null, "image_license": null, "image_capture_date": null, "image_distance_m": null, "image_fetch_status": "no nearby public image found", "image_available": false, "image_path": null, "visible_tree_ratio": null, "open_sky_ratio": null, "shelter_image_estimate": null, "shelter_image_confidence": null, "bench_image_estimate": null, "bench_image_confidence": null, "vision_method": null, "vision_error": "image unavailable", "route_rank": 1, "corridor_name": "New York City M14D-SBS direction 0", "corridor_id": "m14d_sbs__dir_0", "shelter_present_effective": false, "bench_present_effective": false, "combined_tree_cover_score": 0.5, "no_shelter_value": 1.0, "no_bench_value": 1.0, "low_tree_cover_value": 0.5, "heat_burden_value": 0.0, "wait_burden_value": 0.0355, "priority_score": 58.03, "normalized_priority_score": 80.32, "score_breakdown_json": { "no_shelter": { "label": "no shelter", "value": 1.0, "weight": 0.35, "score": 35.0 }, "low_tree_cover": { "label": "low tree cover", "value": 0.5, "weight": 0.25, "score": 12.5 }, "heat_burden": { "label": "high heat burden", "value": 0.0, "weight": 0.15, "score": 0.0 }, "wait_burden": { "label": "long scheduled wait exposure", "value": 0.035, "weight": 0.15, "score": 0.53 }, "no_bench": { "label": "nearby seating gap", "value": 1.0, "weight": 0.1, "score": 10.0 } }, "top_contributors": "no shelter, low tree cover, nearby seating gap", "recommended_intervention": "Install a modular shade canopy, add seating.", "recommended_action_summary": "Shade canopy | Add seating", "planner_note": "This stop is a high priority because it combines no shelter, low tree cover, and nearby seating gap. The most practical near-term intervention is to install a modular shade canopy, add seating.", "planner_note_reason": "This stop is a high priority because it combines no shelter, low tree cover, and nearby seating gap.", "planner_note_recommendation": "The most practical near-term intervention is to install a modular shade canopy, add seating.", "planner_note_urgency": "High", "planner_note_source": "Deterministic fallback" }, "geometry": { "type": "Point", "coordinates": [ -74.006027, 40.744354 ] } },
{ "type": "Feature", "properties": { "stop_id": "401193", "stop_sequence": 11, "stop_name": "E 14 ST/1 AV", "stop_lat": 40.731086, "stop_lon": -73.982172, "avg_headway_minutes": 5.72, "scheduled_departures_in_window": 63, "route_id": "M14D+", "route_short_name": "M14D-SBS", "direction_id": 0, "trip_headsign": "SELECT BUS LES DELANCEY-FDR via 14 ST", "service_date": "2026-04-24", "wait_source": "MTA GTFS window 12:00:00-18:00:00", "has_shelter": false, "shelter_distance_ft": 89.2, "shelter_source": "NYC DOT Bus Stop Shelters", "has_nearby_seating": true, "seating_distance_ft": 0.0, "bench_source": "NYC DOT Seating Locations", "nearby_tree_count": 4, "nearby_tree_dbh_sum": 57.0, "tree_source": "NYC Street Tree Census", "weather_point_lat": 40.734914, "weather_point_lon": -73.990548, "weather_metric_used": "apparentTemperature", "weather_metric_display": "Feels-like temperature", "max_weather_value_f": 63.0, "heat_burden_score": 0.0, "weather_source": "https://api.weather.gov/gridpoints/OKX/34,43", "weather_source_label": "NWS / weather.gov", "weather_point_url": "https://api.weather.gov/points/40.734914,-73.990548", "weather_updated_at": "2026-04-24T11:02:02+00:00", "weather_refreshed_at": "2026-04-24T15:31:43.838772-04:00", "weather_horizon_hours": 8, "weather_summary": "Feels-like temperature forecast used for the next 8 hours", "resolved_image_path": "/home/rithwik_amajala/code4city/data/raw/stop_images/mapillary_401193.jpg", "image_provider": "Mapillary", "image_source_url": "https://scontent-lga3-1.xx.fbcdn.net/m1/v/t6/An_mziG2u1PGLUktgz4zYP9iUWUkioCy6NDh6ALmM3y1uQhG8DFjkK-H9auQCRS5wTXxhSvxhqwbsBHzdUcVqRGEzldRMseHR-nCwxwM7mI-BRY8Jn-UTXde5QLml3Xczhwl9Q7GRltIhl5NJVvYkQ?stp=s1024x768&edm=ALXxkZ8EAAAA&_nc_gid=jozXC9D-EnNXqwTpV1qrew&_nc_oc=AdoAtshsSlcjZeUTgXmwNWVkk8HddHyAtr8qyyiyv9csqN9PtjuhJIL0j8WcYHPSU64&ccb=10-5&oh=00_Af2MG7xMJh75p38L8iOTNw1zYooZTqOOP_XqKrpendfGRg&oe=6A1321B9&_nc_sid=201bca", "image_attribution_url": "https://www.mapillary.com/app/?pKey=1135161111467858", "image_author": "jlin4529", "image_license": "Mapillary Terms of Use", "image_capture_date": "2025-09-29", "image_distance_m": 27.7, "image_fetch_status": "downloaded public image", "image_available": true, "image_path": "/home/rithwik_amajala/code4city/data/raw/stop_images/mapillary_401193.jpg", "visible_tree_ratio": 0.015, "open_sky_ratio": 0.816, "shelter_image_estimate": "True", "shelter_image_confidence": 1.0, "bench_image_estimate": "True", "bench_image_confidence": 1.0, "vision_method": "OpenCV color-mask and edge-line heuristics", "vision_error": null, "route_rank": 11, "corridor_name": "New York City M14D-SBS direction 0", "corridor_id": "m14d_sbs__dir_0", "shelter_present_effective": false, "bench_present_effective": true, "combined_tree_cover_score": 0.34083333333333332, "no_shelter_value": 1.0, "no_bench_value": 0.0, "low_tree_cover_value": 0.65916666666666668, "heat_burden_value": 0.0, "wait_burden_value": 0.036, "priority_score": 52.02, "normalized_priority_score": 70.47, "score_breakdown_json": { "no_shelter": { "label": "no shelter", "value": 1.0, "weight": 0.35, "score": 35.0 }, "low_tree_cover": { "label": "low tree cover", "value": 0.659, "weight": 0.25, "score": 16.48 }, "heat_burden": { "label": "high heat burden", "value": 0.0, "weight": 0.15, "score": 0.0 }, "wait_burden": { "label": "long scheduled wait exposure", "value": 0.036, "weight": 0.15, "score": 0.54 }, "no_bench": { "label": "nearby seating gap", "value": 0.0, "weight": 0.1, "score": 0.0 } }, "top_contributors": "no shelter, low tree cover, long scheduled wait exposure", "recommended_intervention": "Install a modular shade canopy, increase tree cover near the curb.", "recommended_action_summary": "Shade canopy | Increase tree cover", "planner_note": "This stop is a high priority because it combines no shelter, low tree cover, and long scheduled wait exposure. The most practical near-term intervention is to install a modular shade canopy, increase tree cover near the curb.", "planner_note_reason": "This stop is a high priority because it combines no shelter, low tree cover, and long scheduled wait exposure.", "planner_note_recommendation": "The most practical near-term intervention is to install a modular shade canopy, increase tree cover near the curb.", "planner_note_urgency": "High", "planner_note_source": "Deterministic fallback" }, "geometry": { "type": "Point", "coordinates": [ -73.982172, 40.731086 ] } },
{ "type": "Feature", "properties": { "stop_id": "404271", "stop_sequence": 7, "stop_name": "E 14 ST/UNIVERSITY PL", "stop_lat": 40.735177, "stop_lon": -73.991881, "avg_headway_minutes": 5.71, "scheduled_departures_in_window": 63, "route_id": "M14D+", "route_short_name": "M14D-SBS", "direction_id": 0, "trip_headsign": "SELECT BUS LES DELANCEY-FDR via 14 ST", "service_date": "2026-04-24", "wait_source": "MTA GTFS window 12:00:00-18:00:00", "has_shelter": false, "shelter_distance_ft": 774.1, "shelter_source": "NYC DOT Bus Stop Shelters", "has_nearby_seating": false, "seating_distance_ft": 434.7, "bench_source": "NYC DOT Seating Locations", "nearby_tree_count": 5, "nearby_tree_dbh_sum": 33.0, "tree_source": "NYC Street Tree Census", "weather_point_lat": 40.734914, "weather_point_lon": -73.990548, "weather_metric_used": "apparentTemperature", "weather_metric_display": "Feels-like temperature", "max_weather_value_f": 63.0, "heat_burden_score": 0.0, "weather_source": "https://api.weather.gov/gridpoints/OKX/34,43", "weather_source_label": "NWS / weather.gov", "weather_point_url": "https://api.weather.gov/points/40.734914,-73.990548", "weather_updated_at": "2026-04-24T11:02:02+00:00", "weather_refreshed_at": "2026-04-24T15:31:43.838772-04:00", "weather_horizon_hours": 8, "weather_summary": "Feels-like temperature forecast used for the next 8 hours", "resolved_image_path": null, "image_provider": null, "image_source_url": null, "image_attribution_url": null, "image_author": null, "image_license": null, "image_capture_date": null, "image_distance_m": null, "image_fetch_status": "no nearby public image found", "image_available": false, "image_path": null, "visible_tree_ratio": null, "open_sky_ratio": null, "shelter_image_estimate": null, "shelter_image_confidence": null, "bench_image_estimate": null, "bench_image_confidence": null, "vision_method": null, "vision_error": "image unavailable", "route_rank": 7, "corridor_name": "New York City M14D-SBS direction 0", "corridor_id": "m14d_sbs__dir_0", "shelter_present_effective": false, "bench_present_effective": false, "combined_tree_cover_score": 0.83333333333333337, "no_shelter_value": 1.0, "no_bench_value": 1.0, "low_tree_cover_value": 0.16666666666666663, "heat_burden_value": 0.0, "wait_burden_value": 0.0355, "priority_score": 49.7, "normalized_priority_score": 66.67, "score_breakdown_json": { "no_shelter": { "label": "no shelter", "value": 1.0, "weight": 0.35, "score": 35.0 }, "low_tree_cover": { "label": "low tree cover", "value": 0.167, "weight": 0.25, "score": 4.17 }, "heat_burden": { "label": "high heat burden", "value": 0.0, "weight": 0.15, "score": 0.0 }, "wait_burden": { "label": "long scheduled wait exposure", "value": 0.035, "weight": 0.15, "score": 0.53 }, "no_bench": { "label": "nearby seating gap", "value": 1.0, "weight": 0.1, "score": 10.0 } }, "top_contributors": "no shelter, nearby seating gap, low tree cover", "recommended_intervention": "Install a modular shade canopy, add seating.", "recommended_action_summary": "Shade canopy | Add seating", "planner_note": "This stop is a high priority because it combines no shelter, nearby seating gap, and low tree cover. The most practical near-term intervention is to install a modular shade canopy, add seating.", "planner_note_reason": "This stop is a high priority because it combines no shelter, nearby seating gap, and low tree cover.", "planner_note_recommendation": "The most practical near-term intervention is to install a modular shade canopy, add seating.", "planner_note_urgency": "High", "planner_note_source": "Deterministic fallback" }, "geometry": { "type": "Point", "coordinates": [ -73.991881, 40.735177 ] } },
{ "type": "Feature", "properties": { "stop_id": "403556", "stop_sequence": 8, "stop_name": "E 14 ST/IRVING PL", "stop_lat": 40.733947, "stop_lon": -73.988902, "avg_headway_minutes": 5.73, "scheduled_departures_in_window": 63, "route_id": "M14D+", "route_short_name": "M14D-SBS", "direction_id": 0, "trip_headsign": "SELECT BUS LES DELANCEY-FDR via 14 ST", "service_date": "2026-04-24", "wait_source": "MTA GTFS window 12:00:00-18:00:00", "has_shelter": false, "shelter_distance_ft": 235.3, "shelter_source": "NYC DOT Bus Stop Shelters", "has_nearby_seating": true, "seating_distance_ft": 33.9, "bench_source": "NYC DOT Seating Locations", "nearby_tree_count": 3, "nearby_tree_dbh_sum": 18.0, "tree_source": "NYC Street Tree Census", "weather_point_lat": 40.734914, "weather_point_lon": -73.990548, "weather_metric_used": "apparentTemperature", "weather_metric_display": "Feels-like temperature", "max_weather_value_f": 63.0, "heat_burden_score": 0.0, "weather_source": "https://api.weather.gov/gridpoints/OKX/34,43", "weather_source_label": "NWS / weather.gov", "weather_point_url": "https://api.weather.gov/points/40.734914,-73.990548", "weather_updated_at": "2026-04-24T11:02:02+00:00", "weather_refreshed_at": "2026-04-24T15:31:43.838772-04:00", "weather_horizon_hours": 8, "weather_summary": "Feels-like temperature forecast used for the next 8 hours", "resolved_image_path": null, "image_provider": null, "image_source_url": null, "image_attribution_url": null, "image_author": null, "image_license": null, "image_capture_date": null, "image_distance_m": null, "image_fetch_status": "no nearby public image found", "image_available": false, "image_path": null, "visible_tree_ratio": null, "open_sky_ratio": null, "shelter_image_estimate": null, "shelter_image_confidence": null, "bench_image_estimate": null, "bench_image_confidence": null, "vision_method": null, "vision_error": "image unavailable", "route_rank": 8, "corridor_name": "New York City M14D-SBS direction 0", "corridor_id": "m14d_sbs__dir_0", "shelter_present_effective": false, "bench_present_effective": true, "combined_tree_cover_score": 0.5, "no_shelter_value": 1.0, "no_bench_value": 0.0, "low_tree_cover_value": 0.5, "heat_burden_value": 0.0, "wait_burden_value": 0.0365, "priority_score": 48.05, "normalized_priority_score": 63.96, "score_breakdown_json": { "no_shelter": { "label": "no shelter", "value": 1.0, "weight": 0.35, "score": 35.0 }, "low_tree_cover": { "label": "low tree cover", "value": 0.5, "weight": 0.25, "score": 12.5 }, "heat_burden": { "label": "high heat burden", "value": 0.0, "weight": 0.15, "score": 0.0 }, "wait_burden": { "label": "long scheduled wait exposure", "value": 0.037, "weight": 0.15, "score": 0.55 }, "no_bench": { "label": "nearby seating gap", "value": 0.0, "weight": 0.1, "score": 0.0 } }, "top_contributors": "no shelter, low tree cover, long scheduled wait exposure", "recommended_intervention": "Install a modular shade canopy.", "recommended_action_summary": "Shade canopy", "planner_note": "This stop is a medium priority because it combines no shelter, low tree cover, and long scheduled wait exposure. The most practical near-term intervention is to install a modular shade canopy.", "planner_note_reason": "This stop is a medium priority because it combines no shelter, low tree cover, and long scheduled wait exposure.", "planner_note_recommendation": "The most practical near-term intervention is to install a modular shade canopy.", "planner_note_urgency": "Medium", "planner_note_source": "Deterministic fallback" }, "geometry": { "type": "Point", "coordinates": [ -73.988902, 40.733947 ] } },
{ "type": "Feature", "properties": { "stop_id": "401294", "stop_sequence": 5, "stop_name": "W 14 ST/7 AV", "stop_lat": 40.738287, "stop_lon": -73.999271, "avg_headway_minutes": 5.7, "scheduled_departures_in_window": 62, "route_id": "M14D+", "route_short_name": "M14D-SBS", "direction_id": 0, "trip_headsign": "SELECT BUS LES DELANCEY-FDR via 14 ST", "service_date": "2026-04-24", "wait_source": "MTA GTFS window 12:00:00-18:00:00", "has_shelter": true, "shelter_distance_ft": 23.9, "shelter_source": "NYC DOT Bus Stop Shelters", "has_nearby_seating": false, "seating_distance_ft": 570.3, "bench_source": "NYC DOT Seating Locations", "nearby_tree_count": 3, "nearby_tree_dbh_sum": 30.0, "tree_source": "NYC Street Tree Census", "weather_point_lat": 40.734914, "weather_point_lon": -73.990548, "weather_metric_used": "apparentTemperature", "weather_metric_display": "Feels-like temperature", "max_weather_value_f": 63.0, "heat_burden_score": 0.0, "weather_source": "https://api.weather.gov/gridpoints/OKX/34,43", "weather_source_label": "NWS / weather.gov", "weather_point_url": "https://api.weather.gov/points/40.734914,-73.990548", "weather_updated_at": "2026-04-24T11:02:02+00:00", "weather_refreshed_at": "2026-04-24T15:31:43.838772-04:00", "weather_horizon_hours": 8, "weather_summary": "Feels-like temperature forecast used for the next 8 hours", "resolved_image_path": "/home/rithwik_amajala/code4city/data/raw/stop_images/mapillary_401294.jpg", "image_provider": "Mapillary", "image_source_url": "https://scontent-lga3-1.xx.fbcdn.net/m1/v/t6/An86jqaoYJf5EmMtY9wkQppigXIb7Gi7sO8yhOY39ls4xlAXE8o4scqklQWsEOqw9c2iVGQUKjvmGzfcdoCI8QlzGoT-9g85Qwl8kVP5rt4KB9TirIsdsfV5XDEUASFBrLmthnb5KiAnGf-eVMT_tKw?stp=s1024x512&edm=ALXxkZ8EAAAA&_nc_gid=b4Q_LvpKL5oD82CqOUfAxw&_nc_oc=AdoTHQrwNjpfKs71iWBPZ_D45p6WU9JFikmVUewdUU-O05xItqx7MGKzE7cIa8jDrBg&ccb=10-5&oh=00_Af0o5WiGvu6bDekD-9mMphL_T6ZPoEwiK43zIG8vAantbg&oe=6A135186&_nc_sid=201bca", "image_attribution_url": "https://www.mapillary.com/app/?pKey=4194011460847795", "image_author": "jlin4529", "image_license": "Mapillary Terms of Use", "image_capture_date": "2026-02-19", "image_distance_m": 13.2, "image_fetch_status": "downloaded public image", "image_available": true, "image_path": "/home/rithwik_amajala/code4city/data/raw/stop_images/mapillary_401294.jpg", "visible_tree_ratio": 0.012, "open_sky_ratio": 0.557, "shelter_image_estimate": "False", "shelter_image_confidence": 0.362, "bench_image_estimate": "True", "bench_image_confidence": 0.7, "vision_method": "OpenCV color-mask and edge-line heuristics", "vision_error": null, "route_rank": 5, "corridor_name": "New York City M14D-SBS direction 0", "corridor_id": "m14d_sbs__dir_0", "shelter_present_effective": true, "bench_present_effective": false, "combined_tree_cover_score": 0.256, "no_shelter_value": 0.0, "no_bench_value": 1.0, "low_tree_cover_value": 0.744, "heat_burden_value": 0.0, "wait_burden_value": 0.035, "priority_score": 29.13, "normalized_priority_score": 32.94, "score_breakdown_json": { "no_shelter": { "label": "no shelter", "value": 0.0, "weight": 0.35, "score": 0.0 }, "low_tree_cover": { "label": "low tree cover", "value": 0.744, "weight": 0.25, "score": 18.6 }, "heat_burden": { "label": "high heat burden", "value": 0.0, "weight": 0.15, "score": 0.0 }, "wait_burden": { "label": "long scheduled wait exposure", "value": 0.035, "weight": 0.15, "score": 0.53 }, "no_bench": { "label": "nearby seating gap", "value": 1.0, "weight": 0.1, "score": 10.0 } }, "top_contributors": "low tree cover, nearby seating gap, long scheduled wait exposure", "recommended_intervention": "Add seating, increase tree cover near the curb.", "recommended_action_summary": "Add seating | Increase tree cover", "planner_note": "This stop is a low priority because it combines low tree cover, nearby seating gap, and long scheduled wait exposure. The most practical near-term intervention is to add seating, increase tree cover near the curb.", "planner_note_reason": "This stop is a low priority because it combines low tree cover, nearby seating gap, and long scheduled wait exposure.", "planner_note_recommendation": "The most practical near-term intervention is to add seating, increase tree cover near the curb.", "planner_note_urgency": "Low", "planner_note_source": "Deterministic fallback" }, "geometry": { "type": "Point", "coordinates": [ -73.999271, 40.738287 ] } },
{ "type": "Feature", "properties": { "stop_id": "401507", "stop_sequence": 2, "stop_name": "9 AV/W 18 ST", "stop_lat": 40.7432, "stop_lon": -74.003816, "avg_headway_minutes": 5.72, "scheduled_departures_in_window": 63, "route_id": "M14D+", "route_short_name": "M14D-SBS", "direction_id": 0, "trip_headsign": "SELECT BUS LES DELANCEY-FDR via 14 ST", "service_date": "2026-04-24", "wait_source": "MTA GTFS window 12:00:00-18:00:00", "has_shelter": true, "shelter_distance_ft": 17.0, "shelter_source": "NYC DOT Bus Stop Shelters", "has_nearby_seating": false, "seating_distance_ft": 901.2, "bench_source": "NYC DOT Seating Locations", "nearby_tree_count": 5, "nearby_tree_dbh_sum": 41.0, "tree_source": "NYC Street Tree Census", "weather_point_lat": 40.734914, "weather_point_lon": -73.990548, "weather_metric_used": "apparentTemperature", "weather_metric_display": "Feels-like temperature", "max_weather_value_f": 63.0, "heat_burden_score": 0.0, "weather_source": "https://api.weather.gov/gridpoints/OKX/34,43", "weather_source_label": "NWS / weather.gov", "weather_point_url": "https://api.weather.gov/points/40.734914,-73.990548", "weather_updated_at": "2026-04-24T11:02:02+00:00", "weather_refreshed_at": "2026-04-24T15:31:43.838772-04:00", "weather_horizon_hours": 8, "weather_summary": "Feels-like temperature forecast used for the next 8 hours", "resolved_image_path": "/home/rithwik_amajala/code4city/data/raw/stop_images/mapillary_401507.jpg", "image_provider": "Mapillary", "image_source_url": "https://scontent-lga3-1.xx.fbcdn.net/m1/v/t6/An93MQ98XLuF19_LgbmxZHbZaA_m7zpfoN6qfKYLylRttVjIbsKYBiXNbiHNP5lhyYQUY5HF1tW0RyEEuBLJF2TiOIB7DkYpg0lR671mnQnuh1SqiMVBzPGLlHZDbwuSQ8LvXwe9Lr_OVe4Wwju5zXw?stp=s1024x768&edm=ALXxkZ8EAAAA&_nc_gid=ISBqAR_tpqgdf8fH1Ds6gw&_nc_oc=AdruXBMpuz5Vz2jvQjMzM2TaBO1fnSkVnA6f3FNsOH3bSYAIfNYhnvr8rkSKISkOwyA&ccb=10-5&oh=00_Af0nDQCGKC6izGSZfU5GxnVUhNY0h5ogIeEskwcXebmvZw&oe=6A133F49&_nc_sid=201bca", "image_attribution_url": "https://www.mapillary.com/app/?pKey=1350557600048129", "image_author": "jlin4529", "image_license": "Mapillary Terms of Use", "image_capture_date": "2025-11-17", "image_distance_m": 14.1, "image_fetch_status": "downloaded public image", "image_available": true, "image_path": "/home/rithwik_amajala/code4city/data/raw/stop_images/mapillary_401507.jpg", "visible_tree_ratio": 0.007, "open_sky_ratio": 0.593, "shelter_image_estimate": "False", "shelter_image_confidence": 0.483, "bench_image_estimate": "False", "bench_image_confidence": 0.0, "vision_method": "OpenCV color-mask and edge-line heuristics", "vision_error": null, "route_rank": 2, "corridor_name": "New York City M14D-SBS direction 0", "corridor_id": "m14d_sbs__dir_0", "shelter_present_effective": true, "bench_present_effective": false, "combined_tree_cover_score": 0.42016666666666669, "no_shelter_value": 0.0, "no_bench_value": 1.0, "low_tree_cover_value": 0.57983333333333331, "heat_burden_value": 0.0, "wait_burden_value": 0.036, "priority_score": 25.04, "normalized_priority_score": 26.23, "score_breakdown_json": { "no_shelter": { "label": "no shelter", "value": 0.0, "weight": 0.35, "score": 0.0 }, "low_tree_cover": { "label": "low tree cover", "value": 0.58, "weight": 0.25, "score": 14.5 }, "heat_burden": { "label": "high heat burden", "value": 0.0, "weight": 0.15, "score": 0.0 }, "wait_burden": { "label": "long scheduled wait exposure", "value": 0.036, "weight": 0.15, "score": 0.54 }, "no_bench": { "label": "nearby seating gap", "value": 1.0, "weight": 0.1, "score": 10.0 } }, "top_contributors": "low tree cover, nearby seating gap, long scheduled wait exposure", "recommended_intervention": "Add seating.", "recommended_action_summary": "Add seating", "planner_note": "This stop is a low priority because it combines low tree cover, nearby seating gap, and long scheduled wait exposure. The most practical near-term intervention is to add seating.", "planner_note_reason": "This stop is a low priority because it combines low tree cover, nearby seating gap, and long scheduled wait exposure.", "planner_note_recommendation": "The most practical near-term intervention is to add seating.", "planner_note_urgency": "Low", "planner_note_source": "Deterministic fallback" }, "geometry": { "type": "Point", "coordinates": [ -74.003816, 40.7432 ] } },
{ "type": "Feature", "properties": { "stop_id": "401589", "stop_sequence": 15, "stop_name": "AVENUE C/E 12 ST", "stop_lat": 40.726979, "stop_lon": -73.976815, "avg_headway_minutes": 5.73, "scheduled_departures_in_window": 63, "route_id": "M14D+", "route_short_name": "M14D-SBS", "direction_id": 0, "trip_headsign": "SELECT BUS LES DELANCEY-FDR via 14 ST", "service_date": "2026-04-24", "wait_source": "MTA GTFS window 12:00:00-18:00:00", "has_shelter": true, "shelter_distance_ft": 37.6, "shelter_source": "NYC DOT Bus Stop Shelters", "has_nearby_seating": false, "seating_distance_ft": 437.4, "bench_source": "NYC DOT Seating Locations", "nearby_tree_count": 3, "nearby_tree_dbh_sum": 25.0, "tree_source": "NYC Street Tree Census", "weather_point_lat": 40.734914, "weather_point_lon": -73.990548, "weather_metric_used": "apparentTemperature", "weather_metric_display": "Feels-like temperature", "max_weather_value_f": 63.0, "heat_burden_score": 0.0, "weather_source": "https://api.weather.gov/gridpoints/OKX/34,43", "weather_source_label": "NWS / weather.gov", "weather_point_url": "https://api.weather.gov/points/40.734914,-73.990548", "weather_updated_at": "2026-04-24T11:02:02+00:00", "weather_refreshed_at": "2026-04-24T15:31:43.838772-04:00", "weather_horizon_hours": 8, "weather_summary": "Feels-like temperature forecast used for the next 8 hours", "resolved_image_path": null, "image_provider": null, "image_source_url": null, "image_attribution_url": null, "image_author": null, "image_license": null, "image_capture_date": null, "image_distance_m": null, "image_fetch_status": "no nearby public image found", "image_available": false, "image_path": null, "visible_tree_ratio": null, "open_sky_ratio": null, "shelter_image_estimate": null, "shelter_image_confidence": null, "bench_image_estimate": null, "bench_image_confidence": null, "vision_method": null, "vision_error": "image unavailable", "route_rank": 15, "corridor_name": "New York City M14D-SBS direction 0", "corridor_id": "m14d_sbs__dir_0", "shelter_present_effective": true, "bench_present_effective": false, "combined_tree_cover_score": 0.5, "no_shelter_value": 0.0, "no_bench_value": 1.0, "low_tree_cover_value": 0.5, "heat_burden_value": 0.0, "wait_burden_value": 0.0365, "priority_score": 23.05, "normalized_priority_score": 22.97, "score_breakdown_json": { "no_shelter": { "label": "no shelter", "value": 0.0, "weight": 0.35, "score": 0.0 }, "low_tree_cover": { "label": "low tree cover", "value": 0.5, "weight": 0.25, "score": 12.5 }, "heat_burden": { "label": "high heat burden", "value": 0.0, "weight": 0.15, "score": 0.0 }, "wait_burden": { "label": "long scheduled wait exposure", "value": 0.037, "weight": 0.15, "score": 0.55 }, "no_bench": { "label": "nearby seating gap", "value": 1.0, "weight": 0.1, "score": 10.0 } }, "top_contributors": "low tree cover, nearby seating gap, long scheduled wait exposure", "recommended_intervention": "Add seating.", "recommended_action_summary": "Add seating", "planner_note": "This stop is a low priority because it combines low tree cover, nearby seating gap, and long scheduled wait exposure. The most practical near-term intervention is to add seating.", "planner_note_reason": "This stop is a low priority because it combines low tree cover, nearby seating gap, and long scheduled wait exposure.", "planner_note_recommendation": "The most practical near-term intervention is to add seating.", "planner_note_urgency": "Low", "planner_note_source": "Deterministic fallback" }, "geometry": { "type": "Point", "coordinates": [ -73.976815, 40.726979 ] } },
{ "type": "Feature", "properties": { "stop_id": "401195", "stop_sequence": 13, "stop_name": "E 14 ST/AVENUE B", "stop_lat": 40.72942, "stop_lon": -73.978171, "avg_headway_minutes": 5.71, "scheduled_departures_in_window": 62, "route_id": "M14D+", "route_short_name": "M14D-SBS", "direction_id": 0, "trip_headsign": "SELECT BUS LES DELANCEY-FDR via 14 ST", "service_date": "2026-04-24", "wait_source": "MTA GTFS window 12:00:00-18:00:00", "has_shelter": true, "shelter_distance_ft": 57.3, "shelter_source": "NYC DOT Bus Stop Shelters", "has_nearby_seating": false, "seating_distance_ft": 577.4, "bench_source": "NYC DOT Seating Locations", "nearby_tree_count": 3, "nearby_tree_dbh_sum": 22.0, "tree_source": "NYC Street Tree Census", "weather_point_lat": 40.734914, "weather_point_lon": -73.990548, "weather_metric_used": "apparentTemperature", "weather_metric_display": "Feels-like temperature", "max_weather_value_f": 63.0, "heat_burden_score": 0.0, "weather_source": "https://api.weather.gov/gridpoints/OKX/34,43", "weather_source_label": "NWS / weather.gov", "weather_point_url": "https://api.weather.gov/points/40.734914,-73.990548", "weather_updated_at": "2026-04-24T11:02:02+00:00", "weather_refreshed_at": "2026-04-24T15:31:43.838772-04:00", "weather_horizon_hours": 8, "weather_summary": "Feels-like temperature forecast used for the next 8 hours", "resolved_image_path": null, "image_provider": null, "image_source_url": null, "image_attribution_url": null, "image_author": null, "image_license": null, "image_capture_date": null, "image_distance_m": null, "image_fetch_status": "no nearby public image found", "image_available": false, "image_path": null, "visible_tree_ratio": null, "open_sky_ratio": null, "shelter_image_estimate": null, "shelter_image_confidence": null, "bench_image_estimate": null, "bench_image_confidence": null, "vision_method": null, "vision_error": "image unavailable", "route_rank": 13, "corridor_name": "New York City M14D-SBS direction 0", "corridor_id": "m14d_sbs__dir_0", "shelter_present_effective": true, "bench_present_effective": false, "combined_tree_cover_score": 0.5, "no_shelter_value": 0.0, "no_bench_value": 1.0, "low_tree_cover_value": 0.5, "heat_burden_value": 0.0, "wait_burden_value": 0.0355, "priority_score": 23.03, "normalized_priority_score": 22.94, "score_breakdown_json": { "no_shelter": { "label": "no shelter", "value": 0.0, "weight": 0.35, "score": 0.0 }, "low_tree_cover": { "label": "low tree cover", "value": 0.5, "weight": 0.25, "score": 12.5 }, "heat_burden": { "label": "high heat burden", "value": 0.0, "weight": 0.15, "score": 0.0 }, "wait_burden": { "label": "long scheduled wait exposure", "value": 0.035, "weight": 0.15, "score": 0.53 }, "no_bench": { "label": "nearby seating gap", "value": 1.0, "weight": 0.1, "score": 10.0 } }, "top_contributors": "low tree cover, nearby seating gap, long scheduled wait exposure", "recommended_intervention": "Add seating.", "recommended_action_summary": "Add seating", "planner_note": "This stop is a low priority because it combines low tree cover, nearby seating gap, and long scheduled wait exposure. The most practical near-term intervention is to add seating.", "planner_note_reason": "This stop is a low priority because it combines low tree cover, nearby seating gap, and long scheduled wait exposure.", "planner_note_recommendation": "The most practical near-term intervention is to add seating.", "planner_note_urgency": "Low", "planner_note_source": "Deterministic fallback" }, "geometry": { "type": "Point", "coordinates": [ -73.978171, 40.72942 ] } },
{ "type": "Feature", "properties": { "stop_id": "401192", "stop_sequence": 10, "stop_name": "E 14 ST/2 AV", "stop_lat": 40.732083, "stop_lon": -73.984535, "avg_headway_minutes": 5.72, "scheduled_departures_in_window": 63, "route_id": "M14D+", "route_short_name": "M14D-SBS", "direction_id": 0, "trip_headsign": "SELECT BUS LES DELANCEY-FDR via 14 ST", "service_date": "2026-04-24", "wait_source": "MTA GTFS window 12:00:00-18:00:00", "has_shelter": true, "shelter_distance_ft": 19.4, "shelter_source": "NYC DOT Bus Stop Shelters", "has_nearby_seating": false, "seating_distance_ft": 668.2, "bench_source": "NYC DOT Seating Locations", "nearby_tree_count": 7, "nearby_tree_dbh_sum": 67.0, "tree_source": "NYC Street Tree Census", "weather_point_lat": 40.734914, "weather_point_lon": -73.990548, "weather_metric_used": "apparentTemperature", "weather_metric_display": "Feels-like temperature", "max_weather_value_f": 63.0, "heat_burden_score": 0.0, "weather_source": "https://api.weather.gov/gridpoints/OKX/34,43", "weather_source_label": "NWS / weather.gov", "weather_point_url": "https://api.weather.gov/points/40.734914,-73.990548", "weather_updated_at": "2026-04-24T11:02:02+00:00", "weather_refreshed_at": "2026-04-24T15:31:43.838772-04:00", "weather_horizon_hours": 8, "weather_summary": "Feels-like temperature forecast used for the next 8 hours", "resolved_image_path": "/home/rithwik_amajala/code4city/data/raw/stop_images/mapillary_401192.jpg", "image_provider": "Mapillary", "image_source_url": "https://scontent-lga3-1.xx.fbcdn.net/m1/v/t6/An-ElWrlLJ_H89BOSsleo622gTIUjCJ73ee7GNTVVW8J-1YMpv3Era_OIZzBoOXYLdtHY7CZvn4IzOKMIHGKjTM8xmEhkhIIycUFD5KurBeYT16xwQ14H3qE-UjVJ_4Y6uWcYPYZm4xfvRFZqOUvFQ?stp=s1024x768&edm=ALXxkZ8EAAAA&_nc_gid=3iH4-KP70W0f_nePn79JRw&_nc_oc=AdriwAWp_sBpNuyTXQK2VUxZpA2nGwPHVZKn7ClmxR9cFGRAduw4dTLyoXR_PzgsipE&ccb=10-5&oh=00_Af3irj5pQFxHErHq-N9ip5LyR_HdgM77ZxI2GHkS91Us-g&oe=6A1341D8&_nc_sid=201bca", "image_attribution_url": "https://www.mapillary.com/app/?pKey=1450012178685531", "image_author": "smartmaper", "image_license": "Mapillary Terms of Use", "image_capture_date": "2019-12-18", "image_distance_m": 32.8, "image_fetch_status": "downloaded public image", "image_available": true, "image_path": "/home/rithwik_amajala/code4city/data/raw/stop_images/mapillary_401192.jpg", "visible_tree_ratio": 0.007, "open_sky_ratio": 0.973, "shelter_image_estimate": "False", "shelter_image_confidence": 0.069, "bench_image_estimate": "True", "bench_image_confidence": 1.0, "vision_method": "OpenCV color-mask and edge-line heuristics", "vision_error": null, "route_rank": 10, "corridor_name": "New York City M14D-SBS direction 0", "corridor_id": "m14d_sbs__dir_0", "shelter_present_effective": true, "bench_present_effective": false, "combined_tree_cover_score": 0.5035, "no_shelter_value": 0.0, "no_bench_value": 1.0, "low_tree_cover_value": 0.4965, "heat_burden_value": 0.0, "wait_burden_value": 0.036, "priority_score": 22.95, "normalized_priority_score": 22.81, "score_breakdown_json": { "no_shelter": { "label": "no shelter", "value": 0.0, "weight": 0.35, "score": 0.0 }, "low_tree_cover": { "label": "low tree cover", "value": 0.497, "weight": 0.25, "score": 12.41 }, "heat_burden": { "label": "high heat burden", "value": 0.0, "weight": 0.15, "score": 0.0 }, "wait_burden": { "label": "long scheduled wait exposure", "value": 0.036, "weight": 0.15, "score": 0.54 }, "no_bench": { "label": "nearby seating gap", "value": 1.0, "weight": 0.1, "score": 10.0 } }, "top_contributors": "low tree cover, nearby seating gap, long scheduled wait exposure", "recommended_intervention": "Add seating.", "recommended_action_summary": "Add seating", "planner_note": "This stop is a low priority because it combines low tree cover, nearby seating gap, and long scheduled wait exposure. The most practical near-term intervention is to add seating.", "planner_note_reason": "This stop is a low priority because it combines low tree cover, nearby seating gap, and long scheduled wait exposure.", "planner_note_recommendation": "The most practical near-term intervention is to add seating.", "planner_note_urgency": "Low", "planner_note_source": "Deterministic fallback" }, "geometry": { "type": "Point", "coordinates": [ -73.984535, 40.732083 ] } },
{ "type": "Feature", "properties": { "stop_id": "404286", "stop_sequence": 3, "stop_name": "W 14 ST/HUDSON ST", "stop_lat": 40.74062, "stop_lon": -74.004803, "avg_headway_minutes": 5.71, "scheduled_departures_in_window": 63, "route_id": "M14D+", "route_short_name": "M14D-SBS", "direction_id": 0, "trip_headsign": "SELECT BUS LES DELANCEY-FDR via 14 ST", "service_date": "2026-04-24", "wait_source": "MTA GTFS window 12:00:00-18:00:00", "has_shelter": true, "shelter_distance_ft": 7.9, "shelter_source": "NYC DOT Bus Stop Shelters", "has_nearby_seating": true, "seating_distance_ft": 63.4, "bench_source": "NYC DOT Seating Locations", "nearby_tree_count": 7, "nearby_tree_dbh_sum": 37.0, "tree_source": "NYC Street Tree Census", "weather_point_lat": 40.734914, "weather_point_lon": -73.990548, "weather_metric_used": "apparentTemperature", "weather_metric_display": "Feels-like temperature", "max_weather_value_f": 63.0, "heat_burden_score": 0.0, "weather_source": "https://api.weather.gov/gridpoints/OKX/34,43", "weather_source_label": "NWS / weather.gov", "weather_point_url": "https://api.weather.gov/points/40.734914,-73.990548", "weather_updated_at": "2026-04-24T11:02:02+00:00", "weather_refreshed_at": "2026-04-24T15:31:43.838772-04:00", "weather_horizon_hours": 8, "weather_summary": "Feels-like temperature forecast used for the next 8 hours", "resolved_image_path": "/home/rithwik_amajala/code4city/data/raw/stop_images/mapillary_404286.jpg", "image_provider": "Mapillary", "image_source_url": "https://scontent-lga3-1.xx.fbcdn.net/m1/v/t6/An9CRPtqiIDwROicDRyMFLyzeB8peusR7BVyWE1r69zX6z66KSY8YSN450ZBszwiwfpz5U3_rz0Wgo4so7-R1DL5An29Yk8oJ1xpmxgAVE59kb1qoAccKVNkSt6lJujoSWHYJA0SuC-pkhDwBwzj2g?stp=s1024x768&edm=ALXxkZ8EAAAA&_nc_gid=KCLv6KCaJg08RxvEz5qYcQ&_nc_oc=Adr41H91WATc4JWI9bzrpZFaBDVzcaLVwYOFEcz7T_J5g8g9SMAUrzoX8m8e-wwq1jk&ccb=10-5&oh=00_Af0iSkkjLv3QnRVKxRauYn0wGbXnjqZIxYuD-DYo9AHQ1g&oe=6A131A33&_nc_sid=201bca", "image_attribution_url": "https://www.mapillary.com/app/?pKey=810256682942801", "image_author": "mdroads", "image_license": "Mapillary Terms of Use", "image_capture_date": "2018-07-30", "image_distance_m": 34.9, "image_fetch_status": "downloaded public image", "image_available": true, "image_path": "/home/rithwik_amajala/code4city/data/raw/stop_images/mapillary_404286.jpg", "visible_tree_ratio": 0.319, "open_sky_ratio": 0.638, "shelter_image_estimate": "False", "shelter_image_confidence": 0.05, "bench_image_estimate": "False", "bench_image_confidence": 0.4, "vision_method": "OpenCV color-mask and edge-line heuristics", "vision_error": null, "route_rank": 3, "corridor_name": "New York City M14D-SBS direction 0", "corridor_id": "m14d_sbs__dir_0", "shelter_present_effective": true, "bench_present_effective": true, "combined_tree_cover_score": 0.6595, "no_shelter_value": 0.0, "no_bench_value": 0.0, "low_tree_cover_value": 0.3405, "heat_burden_value": 0.0, "wait_burden_value": 0.0355, "priority_score": 9.04, "normalized_priority_score": 0.0, "score_breakdown_json": { "no_shelter": { "label": "no shelter", "value": 0.0, "weight": 0.35, "score": 0.0 }, "low_tree_cover": { "label": "low tree cover", "value": 0.341, "weight": 0.25, "score": 8.51 }, "heat_burden": { "label": "high heat burden", "value": 0.0, "weight": 0.15, "score": 0.0 }, "wait_burden": { "label": "long scheduled wait exposure", "value": 0.035, "weight": 0.15, "score": 0.53 }, "no_bench": { "label": "nearby seating gap", "value": 0.0, "weight": 0.1, "score": 0.0 } }, "top_contributors": "low tree cover, long scheduled wait exposure", "recommended_intervention": "Monitor heat exposure and maintain existing amenities.", "recommended_action_summary": "Monitor", "planner_note": "This stop is a low priority because it combines low tree cover and long scheduled wait exposure. The most practical near-term intervention is to monitor heat exposure and maintain existing amenities.", "planner_note_reason": "This stop is a low priority because it combines low tree cover and long scheduled wait exposure.", "planner_note_recommendation": "The most practical near-term intervention is to monitor heat exposure and maintain existing amenities.", "planner_note_urgency": "Low", "planner_note_source": "Deterministic fallback" }, "geometry": { "type": "Point", "coordinates": [ -74.004803, 40.74062 ] } }
]
}
